name;address;zip;city;y;x;region
CENTRO DE SALUD DE ADEMUZ;AVDA. València, 68 46140 ADEMUZ;46140;ADEMUZ;-1.285476498;40.06210888;Racó d'Ademús
CONSULTORIO AUXILIAR DE ADOR;C/CERVANTES, 25 46724 ADOR;46724;ADOR;-0.22541997;38.92059999;La Safor
CENTRO DE SALUD DE AGOST;AVDA. DE ALCOY, 11 3698 AGOST;3698;AGOST;-0.636128493;38.43880428;L'Alacantí
UNIDAD DE ODONTOLOGIA DE AGOST;AVDA. DE ALCOY, S/N 3698 AGOST;3698;AGOST;-0.635775197;38.43800544;L'Alacantí
CONSULTORIO AUXILIAR DE AGRES;PLAÇA DE ESPANYA, 1, 3870 AGRES;3870;AGRES;-0.515610008;38.77997999;El Comtat
CONSULTORIO AUXILIAR DE AGULLENT;DR.FLEMING, 1 46890 AGULLENT;46890;AGULLENT;-0.56009;38.83221006;La Vall d'Albaida
CONSULTORIO AUXILIAR DE AIELO DE MALFERIT;BOCAIRENT, S/N 46812 AIELO DE MALFERIT;46812;AIELO DE MALFERIT;-0.589069625;38.87685933;La Vall d'Albaida
CONSULTORIO AUXILIAR DE AIELO DE RUGAT;ESGLESIA, 22 46842 AIELO DE RUGAT;46842;AIELO DE RUGAT;-0.343270032;38.88197002;La Vall d'Albaida
CONSULTORIO AUXILIAR DE AIGUES;DOCTOR SAPENA, 1 3569 AIGUES;3569;AIGUES;-0.36531921;38.50023369;L'Alacantí
CONSULTORIO AUXILIAR DE AIN;PZA SORRIBES FUSTER, 126 12222 AIN;12222;AIN;-0.341043247;39.90092586;Plana Baixa
CENTRO SANITARIO INTEGRADO DE ALAQUAS;MUSICO FCO. TARREGA, S/N 46970 ALAQUAS;46970;ALAQUAS;-0.457524928;39.45946504;Horta Sud
UNIDAD BÁSICA DE REHABILITACIÓN DEL C.S.I. DE ALAQUAS;PLAZA MUSICO FRANCISCO TARREGA BARBERA, S/N 46970 ALAQUAS;46970;ALAQUAS;-0.457524928;39.45946504;Horta Sud
UNIDAD DE ODONTOLOGIA DE ALAQUAS;PLAZA MUSICO FRANCISCO TARREGA, S/N 46970 ALAQUAS;46970;ALAQUAS;-0.457524928;39.45946504;Horta Sud
CENTRO DE SALUD SEXUAL Y REPRODUCTIVA DE ALAQUAS;PLAZA FRANCISCO TARREGA, S/N 46970 ALAQUAS;46970;ALAQUAS;-0.457524928;39.45946504;Horta Sud
CENTRO DE SALUD DE ALBAIDA;AVDA. ROMERAL, 1 46860 ALBAIDA;46860;ALBAIDA;-0.522969989;38.84048999;La Vall d'Albaida
CENTRO DE SALUD DE ALBAL;C/ REGNE DE València, S/N 46470 ALBAL;46470;ALBAL;-0.414646922;39.39944044;Horta Sud
UNIDAD BÁSICA DE REHABILITACIÓN DEL C.S. DE ALBAL;REGNE DE València, S/N 46470 ALBAL;46470;ALBAL;-0.414646922;39.39944044;Horta Sud
CONSULTORIO AUXILIAR DE ALBALAT DE LA RIBERA;C/ SEQUIA S/N, null 46687 ALBALAT DE LA RIBERA;46687;ALBALAT DE LA RIBERA;-0.387544579;39.20255009;Ribera Baixa
CONSULTORIO AUXILIAR DE ALBALAT DELS SORELLS;GRAN VIA, S/N 46135 ALBALAT DELS SORELLS;46135;ALBALAT DELS SORELLS;-0.354147002;39.551775;Horta Nord
CONSULTORIO AUXILIAR DE ALBALAT DELS TARONGERS;AVDA. ISABEL CRISTOFOL, S/N 46591 ALBALAT DELS TARONGERS;46591;ALBALAT DELS TARONGERS;-0.337373433;39.70383361;Camp de Morvedre
CENTRO DE SALUD DE ALBATERA;CTRA. HONDON, S/N 3340 ALBATERA;3340;ALBATERA;-0.89044;38.21235716;Baix Segura
UNIDAD BÁSICA DE REHABILITACIÓN DEL C.S. DE ALBATERA;CTRA. HONDON, S/N 3340 ALBATERA;3340;ALBATERA;-0.89044;38.21235716;Baix Segura
UNIDAD DE ODONTOLOGIA DE ALBATERA;CTRA. HONDON, S/N 3340 ALBATERA;3340;ALBATERA;-0.89044;38.21235716;Baix Segura
CENTRO DE SALUD DE ALBERIC;ANTONIO LLORET, 60 46260 ALBERIC;46260;ALBERIC;-0.522760023;39.11423;Ribera Alta
UNIDAD BASICA DE REHABILITACION DEL C.S. DE ALBERIC;C/ ANTONIO LLORET, 60 46000 ALBERIC;46000;ALBERIC;-0.522760023;39.11423;Ribera Alta
CENTRO DE SALUD DE ALBOCASSER;HUERTA, 22 12140 ALBOCASSER;12140;ALBOCASSER;0.027311501;40.35559676;Alt Maestrat
CONSULTORIO AUXILIAR DE ALBORACHE;AVDA. DE LA MUSICA, 12 46369 ALBORACHE;46369;ALBORACHE;-0.76977999;39.39099001;La Foia de Bunyol
CENTRO DE SALUD DE ALBORAIA / ALBORAYA;ELS FURS, S/N 46120 ALBORAIA/ALBORAYA;46120;ALBORAIA/ALBORAYA;-0.349334821;39.49894377;Horta Nord
CONSULTORIO AUXILIAR DE ALBORAIA / ALBORAYA PORT SAPLAYA;PLAZA DE LA SEÑORIA, 4 46128 ALBORAIA/ALBORAYA;46128;ALBORAIA/ALBORAYA;-0.35259;39.497;Horta Nord
CONSULTORIO AUXILIAR DE ALBORAIA / ALBORAYA LA PATACONA;MAR MENOR, S/N 46129 ALBORAIA/ALBORAYA;46129;ALBORAIA/ALBORAYA;-0.35259;39.497;Horta Nord
CONSULTORIO AUXILIAR DE ALBORAIA / ALBORAYA RACO DE SANT LLORENS;RACO DE S.LLORENS, 10 46120 ALBORAIA/ALBORAYA;46120;ALBORAIA/ALBORAYA;-0.349334821;39.49894377;Horta Nord
UNIDAD BASICA DE REHABILITACION DEL C.S. DE ALBORAIA / ALBORAYA;ELS FURS, S/N 46120 ALBORAIA/ALBORAYA;46120;ALBORAIA/ALBORAYA;-0.349334821;39.49894377;Horta Nord
UNIDAD DE ODONTOLOGIA DE ALBORAIA / ALBORAYA;ELS FURS, S/N 46120 ALBORAIA/ALBORAYA;46120;ALBORAIA/ALBORAYA;-0.349334821;39.49894377;Horta Nord
CONSULTORIO AUXILIAR DE ALBUIXECH;MAYOR, 54 46550 ALBUIXECH;46550;ALBUIXECH;-0.324019985;39.54530998;Horta Nord
CENTRO DE SALUD DE ALCALA DE XIVERT;C/ VILLANUEVA, 1 12570 ALCALA DE XIVERT;12570;ALCALA DE XIVERT;0.222043597;40.30321998;Baix Maestrat
CONSULTORIO AUXILIAR DE ALCALA DE XIVERT ALCOSSEBRE;C/ RENCH, 48 12579 ALCALA DE XIVERT;12579;ALCALA DE XIVERT;0.276329974;40.24509002;Baix Maestrat
CONSULTORIO DE VERANO DE ALCALA DE XIVERT ALCOSSEBRE LAS FUENTES;AVDA. LAS FUENTES, S/N 12579 ALCALA DE XIVERT;12579;ALCALA DE XIVERT;0.284525784;40.2526857;Baix Maestrat
UNIDAD DE ODONTOLOGIA DE ALCALA DE XIVERT;VILLANUEVA, 1 12570 ALCALA DE XIVERT;12570;ALCALA DE XIVERT;0.222043597;40.30321998;Baix Maestrat
CENTRO DE SALUD MENTAL DE ALCALA DE XIVERT;VILLANUEVA, 1 12570 ALCALA DE XIVERT;12570;ALCALA DE XIVERT;0.222043597;40.30321998;Baix Maestrat
CONSULTORIO AUXILIAR DE ALCALALI LLOSA DE CAMATXO;C/ DENIA, 33 3723 ALCALALI;3723;ALCALALI;-0.004838938;38.77284785;Marina Alta
CONSULTORIO AUXILIAR DE ALCALALI;C/ PORCHE, 15 3728 ALCALALI;3728;ALCALALI;-0.042070029;38.75018999;Marina Alta
CONSULTORIO AUXILIAR DE ALCANTERA DE XUQUER;MARIA MIQUEL, 1 46293 ALCANTERA DE XUQUER;46293;ALCANTERA DE XUQUER;-0.560299969;39.07014002;Ribera Alta
CENTRO DE SALUD DE ALCASSER;ENRIC VALOR, S/N 46290 ALCASSER;46290;ALCASSER;-0.440114499;39.36897004;Horta Sud
UNIDAD BÁSICA DE REHABILITACIÓN DEL C.S. DE ALCASSER;ENRIC VALOR, S/N 46290 ALCASSER;46290;ALCASSER;-0.440114499;39.36897004;Horta Sud
CENTRO DE SALUD SEXUAL Y REPRODUCTIVA DE ALCASSER;ENRIC VALOR, S/N 46290 ALCASSER;46290;ALCASSER;-0.440114499;39.36897004;Horta Sud
CONSULTORIO AUXILIAR DE ALCOCER DE PLANES;SAN BLAI, 3 3841 ALCOCER DE PLANES;3841;ALCOCER DE PLANES;-0.401613119;38.79582;El Comtat
CONSULTORIO AUXILIAR DE ALCOLEJA;SANT ANTONI, 3 3814 ALCOLEJA;3814;ALCOLEJA;-0.330921142;38.67466657;El Comtat
CENTRO DE SALUD DE L'ALCORA;C/ EXMA. DIPUTACIÓN, S/N 12110 ALCORA (L');12110;ALCORA (L');-0.201246347;40.057365;L'Alcalatén
CONSULTORIO AUXILIAR DE L'ALCORA LA FOYA;EL SOL, S/N 12121 ALCORA (L');12121;ALCORA (L');-0.208617984;40.10368212;L'Alcalatén
UNIDAD BASICA DE REHABILITACION DEL C.S. DE L'ALCORA;EXMA. DIPUTACION, S/N 12110 ALCORA (L');12110;ALCORA (L');-0.201246347;40.057365;L'Alcalatén
UNIDAD DE ODONTOLOGÍA DE ALCORA;EXMA. DIPUTACION, S/N 12110 ALCORA (L');12110;ALCORA (L');-0.201246347;40.057365;L'Alcalatén
HOSPITAL VIRGEN DE LOS LIRIOS;POLIGONO DE CARAMANXEL, S/N 3804 ALCOY/ALCOI;3804;ALCOY/ALCOI;-0.471557186;38.70549626;L'Alcoià
CENTRO DE ESPECIALIDADES DE ALCOI / ALCOY;ALCOLEJA, 3 3804 ALCOY/ALCOI;3804;ALCOY/ALCOI;-0.481100036;38.69681001;L'Alcoià
CENTRO DE SALUD DE ALCOI / ALCOY LA BASSA;C/LUIS VIVES, S/N 3804 ALCOY/ALCOI;3804;ALCOY/ALCOI;-0.46870945;38.70779638;L'Alcoià
CENTRO DE SALUD DE ALCOI / ALCOY LA FABRICA;ALCOLEJA, 3 3802 ALCOY/ALCOI;3802;ALCOY/ALCOI;-0.481100036;38.69681001;L'Alcoià
CENTRO DE SALUD DE ALCOI / ALCOY PLAÇA DE DINS;PLAÇA D'ESPANYA, 2 3801 ALCOY/ALCOI;3801;ALCOY/ALCOI;-0.473030023;38.69837;L'Alcoià
CONSULTORIO AUXILIAR DE ALCOI / ALCOY BATOY;OLIVAR, 34 3802 ALCOY/ALCOI;3802;ALCOY/ALCOI;-0.493629975;38.68864;L'Alcoià
CONSULTORIO AUXILIAR DE LA ZONA ALTA DE ALCOI/ALCOY;MUSICO GONZALO BLANES, 9 3801 ALCOY/ALCOI;3801;ALCOY/ALCOI;-0.4748616;38.69131713;L'Alcoià
UNIDAD BÁSICA DE REHABILITACIÓN DEL C.S. DE ALCOI / ALCOY LA FABRICA;ALCOLEJA, 3 3802 ALCOY/ALCOI;3802;ALCOY/ALCOI;-0.481100036;38.69681001;L'Alcoià
UNIDAD DE ODONTOLOGIA DE MURO DE ALCOI;DENTELL, S/N 3830 ALCOY/ALCOI;3830;ALCOY/ALCOI;-0.47052;38.70915;L'Alcoià
UNIDAD DE ODONTOLOGIA DE ALCOI / ALCOY LA FABRICA;ALCOLEJA, 3 3802 ALCOY/ALCOI;3802;ALCOY/ALCOI;-0.481100036;38.69681001;L'Alcoià
UNIDAD DE ODONTOLOGIA DE ALCOI / ALCOY LA BASSA;LUIS VIVES, S/N 3804 ALCOY/ALCOI;3804;ALCOY/ALCOI;-0.46870945;38.70779638;L'Alcoià
CENTRO DE SALUD SEXUAL Y REPRODUCTIVA DE ALCOI / ALCOY;PLAZA DE ESPAÑA, 2 3801 ALCOY/ALCOI;3801;ALCOY/ALCOI;-0.473030023;38.69837;L'Alcoià
CENTRO DE SALUD MENTAL INFANTIL DE ALCOY / ALCOI;ALCOLEJA, 3, S/N 3802 ALCOY/ALCOI;3802;ALCOY/ALCOI;-0.481100036;38.69681001;L'Alcoià
CENTRO DE SALUD MENTAL DE ALCOI / ALCOY;ALCOLEJA, 4 3802 ALCOY/ALCOI;3802;ALCOY/ALCOI;-0.481219981;38.69661999;L'Alcoià
CENTRO DE ALCOHOLOGIA DE ALCOI / ALCOY;PLAÇA D'ESPANYA, 2 3802 ALCOY/ALCOI;3802;ALCOY/ALCOI;-0.473030023;38.69837;L'Alcoià
CENTRO DE CONDUCTAS ADICTIVAS DE ALCOI / ALCOY;ALAMEDA, 41 3803 ALCOY/ALCOI;3803;ALCOY/ALCOI;-0.478389999;38.70118;L'Alcoià
CENTRO DE PREVENCION DE CANCER DE MAMA DE ALCOI / ALCOY;ALCOLEJA, 3 3802 ALCOY/ALCOI;3802;ALCOY/ALCOI;-0.481100036;38.69681001;L'Alcoià
CONSULTORIO AUXILIAR DE ALCUBLAS;AV. LLIRIA, 3 46172 ALCUBLAS;46172;ALCUBLAS;-0.701672079;39.79572746;Els serrans
CENTRO DE SALUD DE L'ALCUDIA;ESQ. BOLLENE CON MAGUNCIA, S/N 46250 ALCUDIA (L');46250;ALCUDIA (L');-0.502089914;39.19927002;Ribera Alta
UNIDAD BASICA DE REHABILITACION DEL C.S. DE L'ALCUDIA;CRUCE BOLLENE CON MAGUNCIA, S/N 46000 ALCUDIA (L');46000;ALCUDIA (L');-0.502089914;39.19927002;Ribera Alta
CENTRO DE SALUD DE L'ALCUDIA DE CRESPINS;AV. CORTS ValènciaNES, S/N 46690 ALCUDIA DE CRESPINS (L');46690;ALCUDIA DE CRESPINS (L');-0.598109946;38.97006612;La Costera
CONSULTORIO AUXILIAR DE VEO;ENMEDIO, S/N 12222 ALCUDIA DE VEO;12222;ALCUDIA DE VEO;-0.34003085;39.91857259;Plana Baixa
CONSULTORIO AUXILIAR DE ALCUDIA DE VEO;FUENTE, 5 12222 ALCUDIA DE VEO;12222;ALCUDIA DE VEO;-0.355244108;39.91622319;Plana Baixa
CENTRO DE ESPECIALIDADES DE ALDAIA;3 D'ABRIL, 1 46960 ALDAIA;46960;ALDAIA;-0.467250031;39.46279002;Horta Sud
CENTRO DE SALUD DE ALDAIA;PZ. ANTIC REGNE DE València, S/N 46960 ALDAIA;46960;ALDAIA;-0.467209881;39.46229425;Horta Sud
CENTRO DE SALUD DE ALDAIA BARRIO DEL CRISTO;C/ PUIG CAMPANA, S/N 46960 ALDAIA;46960;ALDAIA;-0.465614853;39.47394457;Horta Sud
UNIDAD BÁSICA DE REHABILITACIÓN DEL C.S. DE ALDAIA BARRIO DEL CRISTO;PUIG CAMPANA, S/N 46960 ALDAIA;46960;ALDAIA;-0.465614853;39.47394457;Horta Sud
CENTRO DE SALUD SEXUAL Y REPRODUCTIVA DE ALDAIA BARRIO DEL CRISTO;C/ LA UNION, 4 46960 ALDAIA;46960;ALDAIA;-0.46000002;39.47630001;Horta Sud
CENTRO DE SALUD SEXUAL Y REPRODUCTIVA DE ALDAIA;C/ ANTIC REGNE València, S/N 46960 ALDAIA;46960;ALDAIA;-0.467209881;39.46229425;Horta Sud
CENTRO DE SALUD MENTAL DE ALDAIA;TRES DE ABRIL., S/N 46960 ALDAIA;46960;ALDAIA;-0.46732991;39.46285005;Horta Sud
CENTRO DE SALUD DE ALFAFAR;C/ DELS FURS, 23 46910 ALFAFAR;46910;ALFAFAR;-0.391860008;39.42378999;Horta Sud
CONSULTORIO AUXILIAR DE ALFAFAR PARQUE ALCOSA;PZA POETA MIGUEL HERNANDEZ, S/N 46910 ALFAFAR;46910;ALFAFAR;-0.399701516;39.4180244;Horta Sud
UNIDAD BASICA DE REHABILITACION DEL C.S. DE ALFAFAR;DELS FURS, 23 46910 ALFAFAR;46910;ALFAFAR;-0.391860008;39.42378999;Horta Sud
UNIDAD BASICA DE REHABILITACION DEL C.A. DE ALFAFAR-PARQUE ALCOSA;PZA. POETA MIGUEL HERNANDEZ, S/N 46910 ALFAFAR;46910;ALFAFAR;-0.399701516;39.4180244;Horta Sud
UNIDAD DE ODONTOLOGIA DE ALFAFAR;DELS FURS, 23 46910 ALFAFAR;46910;ALFAFAR;-0.391860008;39.42378999;Horta Sud
CONSULTORIO AUXILIAR DE ALFAFARA;MAESTRO NAVARRO, 2 3838 ALFAFARA;3838;ALFAFARA;-0.555652158;38.77301614;El Comtat
CONSULTORIO AUXILIAR DE ALFARA DE LA BARONIA;PINTOR OLIET, S/N 46594 ALFARA DE LA BARONIA;46594;ALFARA DE LA BARONIA;-0.355855175;39.76149477;Camp de Morvedre
CONSULTORIO AUXILIAR DE ALFARA DEL PATRIARCA;SAN JUAN RIBERA, S/N 46115 ALFARA DEL PATRIARCA;46115;ALFARA DEL PATRIARCA;-0.385073984;39.54398547;Horta Nord
CONSULTORIO AUXILIAR DE ALFARP;NUEVA, 40 46197 ALFARP;46197;ALFARP;-0.559739974;39.27533999;Ribera Alta
CONSULTORIO AUXILIAR DE ALFARRASI DR. RAMON GARCIA-NOBLEJAS DAVILA;LEPANTO, 2 46893 ALFARRASI;46893;ALFARRASI;-0.496379994;38.90536999;La Vall d'Albaida
CENTRO DE SALUD DE L'ALFAS DEL PI;C/ PRINCIPES DE ESPAÑA, 6 3580 ALFAS DEL PI (L');3580;ALFAS DEL PI (L');-0.100289974;38.57844999;La Marina Baixa
CONSULTORIO AUXILIAR DE L'ALFAS DEL PI L'ALBIR;SANT PERE, 13 3580 ALFAS DEL PI (L');3580;ALFAS DEL PI (L');-0.078559974;38.57181999;La Marina Baixa
UNIDAD BASICA DE REHABILITACION DEL C.S. DE L'ALFAS DEL PI;PRINCIPES DE ESPAÑA, S/N 3580 ALFAS DEL PI (L');3580;ALFAS DEL PI (L');-0.100248504;38.57859828;La Marina Baixa
UNIDAD DE ODONTOLOGIA ALFAZ;PRINCIPES DE ESPAÑA, S/N 3590 ALFAS DEL PI (L');3590;ALFAS DEL PI (L');-0.100248504;38.57859828;La Marina Baixa
CENTRO DE SALUD SEXUAL Y REPRODUCTIVA DE L'ALFAS DEL PI;C/ PRINCIPES DE ESPAÑA, S/N 3580 ALFAS DEL PI (L');3580;ALFAS DEL PI (L');-0.100248504;38.57859828;La Marina Baixa
CENTRO DE SALUD MENTAL DE L'ALFAS DEL PI;PRINCIPES DE ESPAÑA, S/N 3580 ALFAS DEL PI (L');3580;ALFAS DEL PI (L');-0.100248504;38.57859828;La Marina Baixa
CONSULTORIO AUXILIAR DE ALFAUIR;GANDIA, 7 46725 ALFAUIR;46725;ALFAUIR;-0.251899995;38.92886002;La Safor
CONSULTORIO AUXILIAR DE ALFONDEGUILLA;ACEQUIA, 18 12609 ALFONDEGUILLA;12609;ALFONDEGUILLA;-0.26798998;39.83803001;Plana Baixa
CONSULTORIO AUXILIAR DE ALGAR DE PALANCIA;PLAZA CASTELLÓN, S/N 46593 ALGAR DE PALANCIA;46593;ALGAR DE PALANCIA;-0.367303495;39.78381;Camp de Morvedre
CENTRO DE SALUD DE ALGEMESI;CRUCE STA.TERESA-POLINYA, S/N 46680 ALGEMESI;46680;ALGEMESI;-0.436035383;39.19554878;Ribera Alta
CONSULTORIO AUXILIAR DE ALGEMESI;PARQUE SALV.CASTELL, 6 46680 ALGEMESI;46680;ALGEMESI;-0.421455;39.21161181;Ribera Alta
UNIDAD BASICA DE REHABILITACION DEL C.S. DE ALGEMESI;CRUCE SANTA TERESA CON POLINYA, S/N 46000 ALGEMESI;46000;ALGEMESI;-0.437689908;39.19587003;Ribera Alta
UNIDAD DE ODONTOLOGIA DE ALGEMESI;PARQUE SALVADOR CASTELL, 6 46680 ALGEMESI;46680;ALGEMESI;-0.438760026;39.18703999;Ribera Alta
CONSULTORIO AUXILIAR DE ALGIMIA D'ALFARA;GLORIETA, 2 46148 ALGIMIA D'ALFARA;46148;ALGIMIA D'ALFARA;-0.363460025;39.75091002;Camp de Morvedre
CONSULTORIO AUXILIAR DE ALGIMIA DE ALMONACID;PZA. AYUNTAMIENTO, 23 12414 ALGIMIA DE ALMONACID;12414;ALGIMIA DE ALMONACID;-0.441889996;39.91419;Alt Palància
CENTRO DE SALUD DE ALGINET;CRUCE MAESTRO SERRANO CON MAYOR, 77 46230 ALGINET;46230;ALGINET;-0.471479874;39.25885006;Ribera Alta
UNIDAD BASICA DE REHABILITACION DEL C.S. DE ALGINET;CRUCE MAESTRO SERRANO-MAYOR, S/N 46000 ALGINET;46000;ALGINET;-0.470238695;39.25848256;Ribera Alta
UNIDAD DE ODONTOLOGIA DE ALGINET;CRUCE MAESTRO SERRANO CON MAYOR, S/N 46230 ALGINET;46230;ALGINET;-0.471479874;39.25885006;Ribera Alta
CONSULTORIO AUXILIAR DE ALGORFA;C/ SAN JOSE, S/N 3169 ALGORFA;3169;ALGORFA;-0.795148087;38.08640005;Baix Segura
CONSULTORIO AUXILIAR DE ALGUEÑA;C/ RUPERTO CHAPI, 7 3668 ALGUEÑA;3668;ALGUEÑA;-1.005209964;38.33900001;Vinalopó Mitjà
CENTRO DE ESPECIALIDADES DE ALACANT / ALICANTE C/GERONA;GERONA, 24 3001 ALICANTE/ALACANT;3001;ALICANTE/ALACANT;-0.486869971;38.34411;L'Alacantí
CENTRO DE SALUD DE ALACANT / ALICANTE CABO HUERTAS;C/ ARPON, S/N 3540 ALICANTE/ALACANT;3540;ALICANTE/ALACANT;-0.431340196;38.36078825;L'Alacantí
CENTRO DE SALUD DE ALACANT / ALICANTE JUAN XXIII;CRONISTA VTE. MARTINEZ MORELLA, S/N 3015 ALICANTE/ALACANT;3015;ALICANTE/ALACANT;-0.478456449;38.37337311;L'Alacantí
CENTRO DE SALUD DE ALACANT / ALICANTE HOSPITAL PROVINCIAL;C/ DR. SAPENA, S/N 3013 ALICANTE/ALACANT;3013;ALICANTE/ALACANT;-0.477344759;38.35368682;L'Alacantí
CENTRO DE SALUD DE ALACANT / ALICANTE SANTA FAZ;PZA.SANTISIMA FAZ, 7 3002 ALICANTE/ALACANT;3002;ALICANTE/ALACANT;-0.481270021;38.34563001;L'Alacantí
CENTRO DE SALUD DE ALACANT / ALICANTE C/GERONA;C/GERONA, 24 3001 ALICANTE/ALACANT;3001;ALICANTE/ALACANT;-0.486869971;38.34411;L'Alacantí
CONSULTORIO AUXILIAR DE ALACANT / ALICANTE ALBUFERETA;OLIMPO, 39 3016 ALICANTE/ALACANT;3016;ALICANTE/ALACANT;-0.436586951;38.36864903;L'Alacantí
CONSULTORIO AUXILIAR DE ALACANT / ALICANTE VISTAHERMOSA;AV. DENIA (COMPLEJO VISTAHERMOSA), 140 3016 ALICANTE/ALACANT;3016;ALICANTE/ALACANT;-0.458407609;38.36853423;L'Alacantí
CONSULTORIO AUXILIAR DE ALACANT / ALICANTE PLAYA DE SANT JOAN D'ALACANT;AV. DE BRUSELAS, 19 3540 ALICANTE/ALACANT;3540;ALICANTE/ALACANT;-0.418199972;38.37055;L'Alacantí
CONSULTORIO AUXILIAR DE ALACANT / ALICANTE GARBINET;MEDICO VICENTE REYES, 16 3015 ALICANTE/ALACANT;3015;ALICANTE/ALACANT;-0.472710002;38.36372998;L'Alacantí
UNIDAD BÁSICA DE REHABILITACIÓN DEL C.S. DE ALACANT / ALICANTE CABO HUERTAS;ARPON, S/N 3540 ALICANTE/ALACANT;3540;ALICANTE/ALACANT;-0.5018;38.32666;L'Alacantí
UNIDAD BÁSICA DE REHABILITACIÓN DEL C.S. DE ALACANT / ALICANTE HOSPITAL PROVINCIAL;DR. SAPENA, S/N 3013 ALICANTE/ALACANT;3013;ALICANTE/ALACANT;-0.477344759;38.35368682;L'Alacantí
UNIDAD DE ODONTOLOGIA CABO HUERTAS;ARPON, S/N 3540 ALICANTE/ALACANT;3540;ALICANTE/ALACANT;-0.5018;38.32666;L'Alacantí
UNIDAD DE ODONTOLOGIA JUAN XXIII;CRONISTA VICENTE MORELLA, S/N 3015 ALICANTE/ALACANT;3015;ALICANTE/ALACANT;-0.478456449;38.37337311;L'Alacantí
UNIDAD DE ODONTOLOGIA ALICANTE SANTA FAZ-AYUNTAMIENTO;PZA. SANTISIMA FAZ, 7 3002 ALICANTE/ALACANT;3002;ALICANTE/ALACANT;-0.481270021;38.34563001;L'Alacantí
CENTRO DE SALUD SEXUAL Y REPRODUCTIVA DE ALACANT / ALICANTE II;C/GERONA, 24 3004 ALICANTE/ALACANT;3004;ALICANTE/ALACANT;-0.486869971;38.34411;L'Alacantí
CENTRO DE SALUD SEXUAL Y REPRODUCTIVA DE ALACANT / ALICANTE III;HERMANOS LOPEZ DE OSABA, S/N 3013 ALICANTE/ALACANT;3013;ALICANTE/ALACANT;-0.47598;38.35301;L'Alacantí
CENTRO DE SALUD MENTAL INFANTIL DE ALACANT/ALICANTE CABO HUERTAS;ARPON, S/N 3540 ALICANTE/ALACANT;3540;ALICANTE/ALACANT;-0.5018;38.32666;L'Alacantí
CENTRO DE SALUD MENTAL DE ALACANT / ALICANTE CABO HUERTAS;ARPON, S/N 3540 ALICANTE/ALACANT;3540;ALICANTE/ALACANT;-0.5018;38.32666;L'Alacantí
CENTRO DE SALUD MENTAL DE ALICANTE SANTA FAZ;GIRONA, 24, 4 3009 ALICANTE/ALACANT;3009;ALICANTE/ALACANT;-0.486869971;38.34411;L'Alacantí
UNIDAD DE CONDUCTAS ADICTIVAS DE ALACANT / ALICANTE SANTA FAZ;PZA. SANTÍSIMA FAZ, 7 3002 ALICANTE/ALACANT;3002;ALICANTE/ALACANT;-0.481270021;38.34563001;L'Alacantí
CENTRO DE PREVENCION DE CANCER DE MAMA DE ALACANT / ALICANTE I;PASEO CAMPOAMOR, 2 3010 ALICANTE/ALACANT;3010;ALICANTE/ALACANT;-0.485700025;38.35285999;L'Alacantí
HOSPITAL GENERAL UNIVERSITARIO DR. BALMIS;PINTOR BAEZA, 12 3010 ALICANTE/ALACANT;3010;ALICANTE/ALACANT;-0.487353265;38.36286348;L'Alacantí
CENTRO DE ESPECIALIDADES DE ALICANTE BABEL;FERNANDO MADROÑAL, S/N 3007 ALICANTE/ALACANT;3007;ALICANTE/ALACANT;-0.51191477;38.34041859;L'Alacantí
CENTRO DE SALUD DE ALACANT /ALICANTE CIUDAD JARDIN;DEL CLOT, 2 3011 ALICANTE/ALACANT;3011;ALICANTE/ALACANT;-0.495823916;38.37630258;L'Alacantí
CENTRO DE SALUD DE ALACANT /ALICANTE PARQUE LO MORANT;MAESTRO ALONSO, 109 3010 ALICANTE/ALACANT;3010;ALICANTE/ALACANT;-0.485610003;38.36713002;L'Alacantí
CENTRO DE SALUD DE ALACANT /ALICANTE LOS ANGELES;C/LINARES, 9 3009 ALICANTE/ALACANT;3009;ALICANTE/ALACANT;-0.496933631;38.36276276;L'Alacantí
CENTRO DE SALUD DE ALACANT /ALICANTE SAN BLAS;MAESTRO LATORRE, 9 3005 ALICANTE/ALACANT;3005;ALICANTE/ALACANT;-0.500447103;38.34999186;L'Alacantí
CENTRO DE SALUD DE ALACANT /ALICANTE FLORIDA;FERNANDO MADROÑAL, 9-11 3007 ALICANTE/ALACANT;3007;ALICANTE/ALACANT;-0.509425201;38.34109761;L'Alacantí
CENTRO DE SALUD DE ALACANT /ALICANTE BENALUA;SAN AGATANGELO, 40, null 3007 ALICANTE/ALACANT;3007;ALICANTE/ALACANT;-0.49983996;38.34079001;L'Alacantí
CENTRO DE SALUD DE ALACANT /ALICANTE BABEL;FERNANDO MADROÑAL, 13-15 3007 ALICANTE/ALACANT;3007;ALICANTE/ALACANT;-0.509563134;38.34105644;L'Alacantí
CENTRO DE SALUD DE ALACANT /ALICANTE CAMPOAMOR;PLAZA DE AMERICA, 4 3010 ALICANTE/ALACANT;3010;ALICANTE/ALACANT;-0.485866242;38.3590555;L'Alacantí
CONSULTORIO AUXILIAR DE ALACANT / ALICANTE LA CAÑADA;CARRETERA LA ALCORAYA (FRENTE FARMACIA), 118 3699 ALICANTE/ALACANT;3699;ALICANTE/ALACANT;-0.570210385;38.40247036;L'Alacantí
CONSULTORIO AUXILIAR DE ALACANT / ALICANTE VILLAFRANQUEZA;CASTELAR, 40 3112 ALICANTE/ALACANT;3112;ALICANTE/ALACANT;-0.492010005;38.38527;L'Alacantí
CONSULTORIO AUXILIAR DE ALACANT / ALICANTE REBOLLEDO;PASEO MAYOR, S/N 3007 ALICANTE/ALACANT;3007;ALICANTE/ALACANT;-0.481634833;38.34528784;L'Alacantí
CONSULTORIO AUXILIAR DE ALACANT / ALICANTE SAN GABRIEL;C/ PEGO S/N, null 3008 ALICANTE/ALACANT;3008;ALICANTE/ALACANT;-0.511286655;38.32954303;L'Alacantí
CONSULTORIO DE VERANO DE ALACANT / ALICANTE URBANOVA;MÚSICO JOSÉ MIRA FIGUEROA, 2 3008 ALICANTE/ALACANT;3008;ALICANTE/ALACANT;-0.523435782;38.27951407;L'Alacantí
UNIDAD BÁSICA DE REHABILITACIÓN DEL C.S. DE ALICANTE PARQUE LO MORANT;MAESTRO ALONSO, 109 3010 ALICANTE/ALACANT;3010;ALICANTE/ALACANT;-0.485610003;38.36713002;L'Alacantí
UNIDAD BÁSICA DE REHABILITACIÓN DEL C.S. DE ALICANTE LOS ANGELES;LINARES, 9 3009 ALICANTE/ALACANT;3009;ALICANTE/ALACANT;-0.496933631;38.36276276;L'Alacantí
UNIDAD BÁSICA DE REHABILITACIÓN DEL C.S. DE ALICANTE SAN BLAS;MAESTRO LATORRE, 9 3005 ALICANTE/ALACANT;3005;ALICANTE/ALACANT;-0.500447103;38.34999186;L'Alacantí
UNIDAD BÁSICA DE REHABILITACIÓN DEL C.S. DE ALICANTE FLORIDA;FERNANDO MADROÑAL, 9-11 3007 ALICANTE/ALACANT;3007;ALICANTE/ALACANT;-0.509425201;38.34109761;L'Alacantí
UNIDAD BÁSICA DE REHABILITACIÓN DEL C.S. DE ALICANTE BENALUA;SAN AGATANGELO, 40 3007 ALICANTE/ALACANT;3007;ALICANTE/ALACANT;-0.49983996;38.34079001;L'Alacantí
UNIDAD BÁSICA DE REHABILITACIÓN DEL C.S. DE ALICANTE CAMPOAMOR;PLAZA DE AMERICA, 4 3010 ALICANTE/ALACANT;3010;ALICANTE/ALACANT;-0.485866242;38.3590555;L'Alacantí
UNIDAD DE ODONTOLOGIA DE ALICANTE /ALICANTE BENALUA;SAN AGATANGELO, null 3007 ALICANTE/ALACANT;3007;ALICANTE/ALACANT;-0.499749104;38.34100489;L'Alacantí
UNIDAD DE ODONTOLOGIA CAMPOAMOR;PLAZA AMERICA, 4 3010 ALICANTE/ALACANT;3010;ALICANTE/ALACANT;-0.485866242;38.3590555;L'Alacantí
UNIDAD DE ODONTOLOGIA DE ALACANT / ALICANTE LOS ANGELES;LINARES, 9 3009 ALICANTE/ALACANT;3009;ALICANTE/ALACANT;-0.496933631;38.36276276;L'Alacantí
UNIDAD DE ODONTOLOGIA DE ALACANT / ALICANTE FLORIDA-BABEL;FERNANDO MADROÑAL, S/N 3007 ALICANTE/ALACANT;3007;ALICANTE/ALACANT;-0.51191477;38.34041859;L'Alacantí
UNIDAD DE ODONTOLOGIA DE ALACANT / ALICANTE SAN BLAS;MAESTRO LATORRE, 9 3005 ALICANTE/ALACANT;3005;ALICANTE/ALACANT;-0.500447103;38.34999186;L'Alacantí
UNIDAD DE ODONTOLOGIA DE ALACANT / ALICANTE PARQUE LO MORANT;MAESTRO ALONSO, 109 3010 ALICANTE/ALACANT;3010;ALICANTE/ALACANT;-0.485610003;38.36713002;L'Alacantí
UNIDAD DE ODONTOLOGIA DE ALACANT / ALICANTE CIUDAD JARDIN;DEL CLOT, S/N 3011 ALICANTE/ALACANT;3011;ALICANTE/ALACANT;-0.495337675;38.37559452;L'Alacantí
CENTRO DE SALUD SEXUAL Y REPRODUCTIVA CAMPOAMOR;PLAZA AMERICA, 4 3010 ALICANTE/ALACANT;3010;ALICANTE/ALACANT;-0.485866242;38.3590555;L'Alacantí
CENTRO DE SALUD SEXUAL Y REPRODUCTIVA DE ALACANT / ALICANTE I;AAIUN, S/N 3006 ALICANTE/ALACANT;3006;ALICANTE/ALACANT;-0.5018;38.32666;L'Alacantí
CENTRO DE SALUD MENTAL CAMPOAMOR;PLAZA AMERICA, 4 3010 ALICANTE/ALACANT;3010;ALICANTE/ALACANT;-0.485866242;38.3590555;L'Alacantí
CENTRO DE SALUD MENTAL DE ALACANT / ALICANTE LOS ANGELES;LINARES, 9 3009 ALICANTE/ALACANT;3009;ALICANTE/ALACANT;-0.496933631;38.36276276;L'Alacantí
CENTRO DE SALUD MENTAL DE ALACANT / ALICANTE CIUDAD JARDIN;DEL CLOT, S/N 3011 ALICANTE/ALACANT;3011;ALICANTE/ALACANT;-0.495337675;38.37559452;L'Alacantí
CENTRO DE SALUD MENTAL DE ALACANT / ALICANTE FLORIDA-BABEL;FERNANDO MADROÑAL, 7-9 3007 ALICANTE/ALACANT;3007;ALICANTE/ALACANT;-0.508271235;38.34145579;L'Alacantí
CENTRO DE SALUD MENTAL DE ALACANT / ALICANTE SAN BLAS;MAESTRO LATORRE, 9 3005 ALICANTE/ALACANT;3005;ALICANTE/ALACANT;-0.500447103;38.34999186;L'Alacantí
CENTRO DE SALUD MENTAL INFANTIL DE ALICANTE BENALUA;SAN AGATANGELO, null 3007 ALICANTE/ALACANT;3007;ALICANTE/ALACANT;-0.499749104;38.34100489;L'Alacantí
CENTRO DE ALCOHOLOGIA DE ALICANTE;SAN AGANTANGELO, 40 3010 ALICANTE/ALACANT;3010;ALICANTE/ALACANT;-0.49983996;38.34079001;L'Alacantí
UNIDAD DE CONDUCTAS ADICTIVAS ALICANTE (CAMPOAMOR);PLAZA DE AMERICA, 4 3010 ALICANTE/ALACANT;3010;ALICANTE/ALACANT;-0.485866242;38.3590555;L'Alacantí
UNIDAD DE CONDUCTAS ADICTIVAS DEL C.S. DE ALICANTE LOS ANGELES;LINARES, 9 3009 ALICANTE/ALACANT;3009;ALICANTE/ALACANT;-0.496933631;38.36276276;L'Alacantí
UNIDAD DE CONDUCTAS ADICTIVAS DEL C.S. DE ALICANTE SAN BLAS;MAESTRO LATORRE, 9 3005 ALICANTE/ALACANT;3005;ALICANTE/ALACANT;-0.500447103;38.34999186;L'Alacantí
CENTRO DE PREVENCION DE CANCER DE MAMA DE ALACANT/ALICANTE II;PASEO CAMPOAMOR, 2 3010 ALICANTE/ALACANT;3010;ALICANTE/ALACANT;-0.485700025;38.35285999;L'Alacantí
CONSULTORIO AUXILIAR DE ALACANT / ALICANTE ISLA TABARCA;IGLESIA, S/N 3138 ALICANTE/ALACANT;3138;ALICANTE/ALACANT;-0.5018;38.32666;L'Alacantí
CENTRO DE SALUD DE ALMASSERA;AVDA. AUSIAS MARCH, 1 46132 ALMASSERA;46132;ALMASSERA;-0.358830029;39.51221001;Horta Nord
CENTRO SANITARIO INTEGRADO DE ALMASSORA;BATALLA DE BAILEN, S/N 12550 ALMASSORA;12550;ALMASSORA;-0.07076493;39.94970003;Plana Alta
CENTRO DE SALUD DE ALMASSORA;C/ SAN PERE, S/N 12550 ALMASSORA;12550;ALMASSORA;-0.060448734;39.9445575;Plana Alta
CONSULTORIO DE VERANO DE ALMASSORA LA TORRE;AVDA. MEDITERRANEA, S/N 12550 ALMASSORA;12550;ALMASSORA;-0.091822561;39.94080559;Plana Baixa
UNIDAD BASICA DE REHABILITACION DEL C.S.I. DE ALMASSORA;BATALLA DE BAILEN, S/N 12550 ALMASSORA;12550;ALMASSORA;-0.07076493;39.94970003;Plana Alta
UNIDAD DE ODONTOLOGÍA DE ALMASSORA PIO XII;SAN PERE, S/N 12550 ALMASSORA;12550;ALMASSORA;-0.060141188;39.94398032;Plana Alta
UNIDAD DE SALUD MENTAL DEL C.S.I. DE ALMASSORA;BATALLA DE BAILEN, S/N 12550 ALMASSORA;12550;ALMASSORA;-0.07076493;39.94970003;Plana Alta
CONSULTORIO AUXILIAR DE ALMEDIJAR;PZA IGLESIA, 16 12413 ALMEDIJAR;12413;ALMEDIJAR;-0.409213499;39.87219298;Alt Palància
CENTRO DE SALUD DE ALMENARA;PLAZA 8 DE MARÇ Nº 1, 2 12590 ALMENARA;12590;ALMENARA;-0.226485953;39.749955;Plana Baixa
CONSULTORIO AUXILIAR PLAYA DE ALMENARA;ALBERCA, 20 12590 ALMENARA;12590;ALMENARA;-0.176746113;39.74445377;Plana Baixa
CONSULTORIO AUXILIAR DE ALMISERA;LEPANTO, 16 46726 ALMISERA;46726;ALMISERA;-0.285589965;38.91560999;La Safor
CONSULTORIO AUXILIAR DE ALMOINES;MEDICO ANTELO, 13 46723 ALMOINES;46723;ALMOINES;-0.180739984;38.94464;La Safor
CENTRO DE SALUD DE ALMORADI;C/MAYOR, 110 3160 ALMORADI;3160;ALMORADI;-0.798862148;38.10489978;Baix Segura
CONSULTORIO AUXILIAR DE ALMORADI HEREDADES;AVDA. LOS LLANOS, 2 3160 ALMORADI;3160;ALMORADI;-0.763560031;38.09099999;Baix Segura
UNIDAD BÁSICA DE REHABILITACIÓN DEL C.S. DE ALMORADI;MAYOR, 110 3160 ALMORADI;3160;ALMORADI;-0.798862148;38.10489978;Baix Segura
UNIDAD DE ODONTOLOGIA DE ALMORADI;MAYOR, 110 3160 ALMORADI;3160;ALMORADI;-0.798862148;38.10489978;Baix Segura
CENTRO DE SALUD MENTAL DE ALMORADI;MAYOR, 110 3160 ALMORADI;3160;ALMORADI;-0.798862148;38.10489978;Baix Segura
CONSULTORIO AUXILIAR DE ALMUDAINA;PZA. AYUNTAMIENTO, null 3827 ALMUDAINA;3827;ALMUDAINA;-0.3721884;38.76835;El Comtat
CENTRO DE SALUD DE ALMUSSAFES;C/ ATARAZANA S/N, null 46440 ALMUSSAFES;46440;ALMUSSAFES;-0.413158664;39.29530498;Ribera Baixa
CONSULTORIO AUXILIAR DE ALPUENTE;JOSE ANTONIO, S/N 46178 ALPUENTE;46178;ALPUENTE;-1.014772853;39.88059276;Els serrans
CONSULTORIO AUXILIAR DE L'ALQUERIA D'ASNAR;SAN LORENZO, 6 3829 ALQUERIA D'ASNAR (L');3829;ALQUERIA D'ASNAR (L');-0.42485998;38.77234001;El Comtat
CONSULTORIO AUXILIAR DE L'ALQUERIA DE LA COMTESSA;NUEVA, 4 46715 ALQUERIA DE LA COMTESSA (L');46715;ALQUERIA DE LA COMTESSA (L');-0.153670041;38.93666998;La Safor
CONSULTORIO AUXILIAR DE LES ALQUERIES/ALQUERIAS DEL NIÑO PERDIDO;CAIXER, S/N 12539 ALQUERIES (LES)/ALQUERIAS DEL NIÑO PERDIDO;12539;ALQUERIES (LES)/ALQUERIAS DEL NIÑO PERDIDO;-0.134392401;39.88709;Plana Baixa
CENTRO DE SALUD DE ALTEA;GALOTXA (POL.GARGANES), S/N 3580 ALTEA;3580;ALTEA;-0.046157901;38.60355773;La Marina Baixa
CONSULTORIO AUXILIAR DE ALTEA CASCO ANTIGUO;VILLAJOYOSA, 3 3590 ALTEA;3590;ALTEA;-0.054750005;38.60139;La Marina Baixa
CONSULTORIO AUXILIAR DE ALTEA;C/ CURA LLINARES, S/N 3590 ALTEA;3590;ALTEA;-0.043872961;38.63049829;La Marina Baixa
UNIDAD BASICA DE REHABILITACION DEL C.S. DE ALTEA;LA GALOTXA, S/N 3590 ALTEA;3590;ALTEA;-0.044777661;38.6053423;La Marina Baixa
UNIDAD DE ODONTOLOGIA DE ALTEA;PARTIDA LA GALOTXA, S/N 3590 ALTEA;3590;ALTEA;-0.044777661;38.6053423;La Marina Baixa
CENTRO DE SALUD SEXUAL Y REPRODUCTIVA DE ALTEA;LA GALOTXA, S/N 3590 ALTEA;3590;ALTEA;-0.044777661;38.6053423;La Marina Baixa
CENTRO DE SALUD MENTAL DE ALTEA;GALOTXA, S/N 3580 ALTEA;3580;ALTEA;-0.044777661;38.6053423;La Marina Baixa
CONSULTORIO AUXILIAR DE ALTURA;BRUNO SEBASTIÁN, 7 12410 ALTURA;12410;ALTURA;-0.511240019;39.84993001;Alt Palància
HOSPITAL UNIVERSITARIO DE LA RIBERA;CTRA. CORBERA-ALZIRA, KM 1 46600 ALZIRA;46600;ALZIRA;-0.422887898;39.16087557;Ribera Alta
CENTRO SANITARIO INTEGRADO DE ALZIRA II;HORT DELS FRARES ESQUINA FRANCESC ARBONA, 60 46600 ALZIRA;46600;ALZIRA;-0.43363994;39.15059003;Ribera Alta
CENTRO DE SALUD DE ALZIRA;C/ PAZ, S/N 46600 ALZIRA;46600;ALZIRA;-0.390265299;39.12756;Ribera Alta
CONSULTORIO AUXILIAR DE BARRACA D'AIGÜES VIVES;FONT DE LA FALZIA, 5 46600 ALZIRA;46600;ALZIRA;-0.372279966;39.09798;Ribera Alta
UNIDAD BASICA DE REHABILITACION DEL C.S. DE ALZIRA;C/ PAZ, S/N 46000 ALZIRA;46000;ALZIRA;-0.43784;39.15174;Ribera Alta
UNIDAD DE ODONTOLOGIA DE ALZIRA;CRUCE FCO. ARBONA-HORT DES FRARES, S/N 46600 ALZIRA;46600;ALZIRA;-0.433989527;39.15067328;Ribera Alta
CENTRO DE SALUD MENTAL DE ALZIRA;LA PAZ, S/N 46600 ALZIRA;46600;ALZIRA;-0.390265299;39.12756;Ribera Alta
CENTRO DE CONDUCTAS ADICTIVAS DE ALZIRA;ONDA, 4 46600 ALZIRA;46600;ALZIRA;-0.43910997;39.14638998;Ribera Alta
CENTRO DE PREVENCION DE CANCER DE MAMA DE ALZIRA;ONDA, 4 46600 ALZIRA;46600;ALZIRA;-0.43910997;39.14638998;Ribera Alta
CONSULTORIO AUXILIAR DE ANDILLA;PZA. MURALLA, 1 46170 ANDILLA;46170;ANDILLA;-0.813269997;39.83585;Els serrans
CONSULTORIO AUXILIAR DE ANNA;CAMINO HONDO, 2 46820 ANNA;46820;ANNA;-0.647209995;39.02077999;La Canal de Navarrés
CONSULTORIO AUXILIAR DE ANTELLA;DAMIA CRUA, 10 46266 ANTELLA;46266;ANTELLA;-0.590269966;39.07973;Ribera Alta
CONSULTORIO AUXILIAR DE ARAÑUEL;SAN MIGUEL, 1 12232 ARAÑUEL;12232;ARAÑUEL;-0.481990027;40.07156999;Alt Millars
CONSULTORIO AUXILIAR DE ARAS DE LOS OLMOS;TRAVESIA, 2 46179 ARAS DE LOS OLMOS;46179;ARAS DE LOS OLMOS;-1.145863853;39.92377;Els serrans
CONSULTORIO AUXILIAR DE ARES DEL MAESTRAT;PZA. IGLESIA, 1 12165 ARES DEL MAESTRAT;12165;ARES DEL MAESTRAT;-0.131898786;40.45630661;Alt Maestrat
CONSULTORIO AUXILIAR DE ARGELITA;CONCHITA JULIAN, 9 12230 ARGELITA;12230;ARGELITA;-0.350279985;40.05389;Alt Millars
CENTRO DE SALUD DE ARTANA;C/ SIERRA ESPADAN, 126 12527 ARTANA;12527;ARTANA;-0.258629993;39.88950001;Plana Baixa
CENTRO SANITARIO INTEGRADO DE ASPE;AVDA. JUAN CARLOS I, S/N 3680 ASPE;3680;ASPE;-0.761470327;38.34231158;Vinalopó Mitjà
UNIDAD BÁSICA DE REHABILITACIÓN DEL C.S.I. DE ASPE;AVDA. JUAN CARLOS I, S/N 3680 ASPE;3680;ASPE;-0.761470327;38.34231158;Vinalopó Mitjà
UNIDAD DE ODONTOLOGIA DE ASPE;AVDA. JUAN CARLOS I, S/N 3680 ASPE;3680;ASPE;-0.761470327;38.34231158;Vinalopó Mitjà
CENTRO DE SALUD SEXUAL Y REPRODUCTIVA DE ASPE;AVDA. JUAN CARLOS I, S/N 3680 ASPE;3680;ASPE;-0.761470327;38.34231158;Vinalopó Mitjà
CENTRO DE SALUD MENTAL DE ASPE;AVDA. JUAN CARLOS I, S/N 3680 ASPE;3680;ASPE;-0.761470327;38.34231158;Vinalopó Mitjà
CONSULTORIO AUXILIAR DE ATZENETA D'ALBAIDA;VIRGEN DESAMPARADOS, 4 46869 ATZENETA D'ALBAIDA;46869;ATZENETA D'ALBAIDA;-0.496489965;38.83438;La Vall d'Albaida
CENTRO DE SALUD DE ATZENETA DEL MAESTRAT;MOSEN RICARDO MIRALLES, 14 12132 ATZENETA DEL MAESTRAT;12132;ATZENETA DEL MAESTRAT;-0.168641835;40.21530142;L'Alcalatén
CONSULTORIO AUXILIAR DE L'ATZUBIA FORNA;PERERA, 21 3786 ATZUBIA (L');3786;ATZUBIA (L');-0.169604872;38.87540672;Marina Alta
CONSULTORIO AUXILIAR DE L'ATZUBIA;C/ TORRES ORDUÑA, 1 3786 ATZUBIA (L');3786;ATZUBIA (L');-0.148760006;38.84754999;Marina Alta
CONSULTORIO AUXILIAR DE AYODAR;PZA. MAYOR, 1 12224 AYODAR;12224;AYODAR;-0.374890007;39.99845;Alt Millars
CENTRO DE SALUD DE AYORA;AVD. ARGENTINA, 38 46620 AYORA;46620;AYORA;-1.058639987;39.0612;La Vall d'Aiora
UNIDAD BASICA DE REHABILITACION DEL C.S. DE AYORA;PLAZA DIPUTACION, 1 46620 AYORA;46620;AYORA;-1.05916;39.06177999;La Vall d'Aiora
UNIDAD DE ODONTOLOGIA DE AYORA;AV. ARGENTINA, 37 46620 AYORA;46620;AYORA;-1.058479976;39.06117;La Vall d'Aiora
CONSULTORIO AUXILIAR DE AZUEBAR;PZA. IGLESIA, 25 12490 AZUEBAR;12490;AZUEBAR;-0.36737999;39.83475001;Alt Palància
CONSULTORIO AUXILIAR DE BALONES;SANT ANTONI, S/N 3812 BALONES;3812;BALONES;-0.342299071;38.73658245;El Comtat
CENTRO DE SALUD DE BANYERES DE MARIOLA;C/ LAPORTA, 36 3450 BANYERES DE MARIOLA;3450;BANYERES DE MARIOLA;-0.658460018;38.71417999;L'Alcoià
UNIDAD DE ODONTOLOGIA DE BANYERES DE MARIOLA;LAPORTA, 36 3450 BANYERES DE MARIOLA;3450;BANYERES DE MARIOLA;-0.658460018;38.71417999;L'Alcoià
CONSULTORIO AUXILIAR DE BARRACAS;AVDA. DE LA DIPUTACION, S/N 12420 BARRACAS;12420;BARRACAS;-0.69825;39.99925109;Alt Palància
CONSULTORIO AUXILIAR DE BARX;GANDIA, 62 46758 BARX;46758;BARX;-0.30089004;39.01222999;La Safor
CONSULTORIO AUXILIAR DE BARXETA;JAIME I, 5 46667 BARXETA;46667;BARXETA;-0.417160029;39.02247;La Costera
CONSULTORIO AUXILIAR DE BEJIS;VIRGEN DEL LORETO, 35 12430 BEJIS;12430;BEJIS;-0.706203271;39.91029676;Alt Palància
CONSULTORIO AUXILIAR DE BELGIDA;SAN JAIME, 6 46868 BELGIDA;46868;BELGIDA;-0.473650033;38.86054001;La Vall d'Albaida
CENTRO DE SALUD DE BELLREGUARD;RONDA DELS ESPORTS, S/N, S/N 46713 BELLREGUARD;46713;BELLREGUARD;-0.166050613;38.94633958;La Safor
CONSULTORIO DE VERANO DE BELLREGUARD PLAYA;TRAMUNTANA, S/N 46713 BELLREGUARD;46713;BELLREGUARD;-0.132889919;38.96398005;La Safor
CONSULTORIO AUXILIAR DE BELLUS;SAN GREGORIO, S/N 46839 BELLUS;46839;BELLUS;-0.48770072;38.94511823;La Vall d'Albaida
CONSULTORIO AUXILIAR DE BENAFER;ERAS DE LOS CUBOS, S/N 12449 BENAFER;12449;BENAFER;-0.577855679;39.9352527;Alt Palància
CONSULTORIO AUXILIAR DE BENAFIGOS;PZA. MAYOR, 1 12134 BENAFIGOS;12134;BENAFIGOS;-0.209359992;40.27662999;L'Alcalatén
CONSULTORIO AUXILIAR DE BENAGEBER;EL POZO, S/N 46312 BENAGEBER;46312;BENAGEBER;-1.100307387;39.70745146;Els serrans
CENTRO DE SALUD DE BENAGUASIL;C/ VIRGEN DEL PILAR, S/N 46180 BENAGUASIL;46180;BENAGUASIL;-0.591117363;39.5944536;Camp de Túria
UNIDAD BASICA DE REHABILITACION DEL C.S. DE BENAGUASIL;VIRGEN DEL PILAR, S/N 46180 BENAGUASIL;46180;BENAGUASIL;-0.591117363;39.5944536;Camp de Túria
CONSULTORIO AUXILIAR DE BENASAU;MAYOR, S/N 3814 BENASAU;3814;BENASAU;-0.343568115;38.69075988;El Comtat
CONSULTORIO AUXILIAR DE BENASSAL;AVDA. MONFERRER, S/N 12160 BENASSAL;12160;BENASSAL;-0.137544936;40.37867006;Alt Maestrat
CONSULTORIO DE VERANO DE BENASSAL FUENTE EN-SEGURES;AVDA. DR. PUIGVERT, S/N 12160 BENASSAL;12160;BENASSAL;-0.138157049;40.36741599;Alt Maestrat
CONSULTORIO AUXILIAR DE BENAVITES;LES PARRES, S/N 46510 BENAVITES;46510;BENAVITES;-0.258815282;39.74093152;Camp de Morvedre
CONSULTORIO AUXILIAR DE BENEIXAMA;PRACTICANTE BELLOD, 2 3460 BENEIXAMA;3460;BENEIXAMA;-0.768709709;38.69951741;L'Alt Vinalopó
CONSULTORIO AUXILIAR DE BENEIXIDA;JAIME I, 3 46293 BENEIXIDA;46293;BENEIXIDA;-0.549599966;39.05767998;Ribera Alta
CONSULTORIO AUXILIAR DE BENEJUZAR;SALVADOR DALI, 61 3390 BENEJUZAR;3390;BENEJUZAR;-0.840979983;38.07484999;Baix Segura
CENTRO DE SALUD DE BENETUSSER;AVDA PAIPORTA, S/N 46910 BENETUSSER;46910;BENETUSSER;-0.399508174;39.42521479;Horta Sud
UNIDAD BASICA DE REHABILITACION DEL C.S. DE BENETUSSER;AVDA. PAIPORTA, S/N 46910 BENETUSSER;46910;BENETUSSER;-0.399508174;39.42521479;Horta Sud
CENTRO DE SALUD SEXUAL Y REPRODUCTIVA DE BENETUSSER;AVDA. PAIPORTA, S/N 46910 BENETUSSER;46910;BENETUSSER;-0.399508174;39.42521479;Horta Sud
CONSULTORIO AUXILIAR DE BENFERRI;C/ LA CRUZ, 22 3316 BENFERRI;3316;BENFERRI;-0.96352869;38.14192725;Baix Segura
CONSULTORIO AUXILIAR DE BENIARBEIG;AVDA EL VERGER, 2 3778 BENIARBEIG;3778;BENIARBEIG;-0.00145841;38.82277756;Marina Alta
CONSULTORIO AUXILIAR DE BENIARDA;CARRETERA, 4 3517 BENIARDA;3517;BENIARDA;-0.216440018;38.68266001;La Marina Baixa
CONSULTORIO AUXILIAR DE BENIARJO;AV. PAIS València, 15 46722 BENIARJO;46722;BENIARJO;-0.186189981;38.93410998;La Safor
CONSULTORIO AUXILIAR DE BENIARRES;ALICANTE, 3, 3850 BENIARRES;3850;BENIARRES;-0.377199976;38.81916002;El Comtat
CONSULTORIO AUXILIAR DE BENIATJAR;SAN ROQUE, 19 46844 BENIATJAR;46844;BENIATJAR;-0.417000018;38.84897001;La Vall d'Albaida
CENTRO SANITARIO INTEGRADO DE BENICARLO;C/BOTERS, 15 12580 BENICARLO;12580;BENICARLO;0.422569635;40.41542221;Baix Maestrat
UNIDAD BASICA DE REHABILITACION DEL C.S.I. DE BENICARLO;BOTERS, 15 12580 BENICARLO;12580;BENICARLO;0.422569635;40.41542221;Baix Maestrat
UNIDAD DE ODONTOLOGIA DE BENICARLO;BOTERES, 15 12003 BENICARLO;12003;BENICARLO;0.422569635;40.41542221;Baix Maestrat
CENTRO DE SALUD DE BENICASSIM / BENICASIM;C/ ESTADI, S/N 12560 BENICASIM/BENICASSIM;12560;BENICASIM/BENICASSIM;0.06432;40.05341;Plana Alta
CONSULTORIO DE VERANO DE BENICASSIM / BENICASIM VILA-REAL;VILA REAL, S/N 12560 BENICASIM/BENICASSIM;12560;BENICASIM/BENICASSIM;0.06432;40.05341;Plana Alta
CONSULTORIO DE VERANO DE BENICASSIM / BENICASIM VILAMAR;AVDA. BARCELONA, 87 12560 BENICASIM/BENICASSIM;12560;BENICASIM/BENICASSIM;0.079750037;40.05735999;Plana Alta
CONSULTORIO DE VERANO DE BENICASSIM / BENICASIM AZULMAR;AVDA. FERRANDIZ SALVADOR, 174 12560 BENICASIM/BENICASSIM;12560;BENICASIM/BENICASSIM;0.046679992;40.03262;Plana Alta
CONSULTORIO DE VERANO DE BENICASSIM / BENICASIM ATLANTA;AVDA. FERRANDIZ SALVADOR, 290 12560 BENICASIM/BENICASSIM;12560;BENICASIM/BENICASSIM;0.040769996;40.01885;Plana Alta
UNIDAD BASICA DE REHABILITACION DEL C.S. DE BENICASSIM / BENICASIM;ESTADI, S/N 12560 BENICASIM/BENICASSIM;12560;BENICASIM/BENICASSIM;0.06432;40.05341;Plana Alta
UNIDAD DE ODONTOLOGÍA DE BENICASSIM;ESTADI, S/N 12560 BENICASIM/BENICASSIM;12560;BENICASIM/BENICASSIM;0.06432;40.05341;Plana Alta
CONSULTORIO AUXILIAR DE BENICOLET;9 D'OCTUBRE, S/N 46838 BENICOLET;46838;BENICOLET;-0.348150344;38.9184889;La Vall d'Albaida
CONSULTORIO AUXILIAR DE BENICULL DE XUQUER;C/VICTORIA EUGENIA, 100 46689 BENICULL DE XUQUER;46689;BENICULL DE XUQUER;-0.384449987;39.18616001;Ribera Baixa
CONSULTORIO AUXILIAR DE BENIDOLEIG;PLAÇA NOVA, S/N 3759 BENIDOLEIG;3759;BENIDOLEIG;-0.025216797;38.79154;Marina Alta
CENTRO DE ESPECIALIDADES DE BENIDORM;VENEZUELA, S/N 3502 BENIDORM;3502;BENIDORM;-0.137211223;38.54155811;La Marina Baixa
CENTRO DE SALUD DE BENIDORM LES FOIETES;AV. VENEZUELA, S/N 3502 BENIDORM;3502;BENIDORM;-0.137211223;38.54155811;La Marina Baixa
CENTRO DE SALUD DE BENIDORM LA CALA;BENISSA, 6 3500 BENIDORM;3500;BENIDORM;-0.162889967;38.53477998;La Marina Baixa
CENTRO DE SALUD DE BENIDORM TOMAS ORTUÑO;TOMAS ORTUÑO, 69 3500 BENIDORM;3500;BENIDORM;-0.131509023;38.54053348;La Marina Baixa
CONSULTORIO AUXILIAR DE BENIDORM RINCON DE LOIX;AV. JUAN FUSTER ZARAGOZA, S/N 3503 BENIDORM;3503;BENIDORM;-0.109118581;38.53873107;La Marina Baixa
UNIDAD BASICA DE REHABILITACION DEL C.S. DE BENIDORM TOMAS ORTUÑO;TOMAS ORTUÑO, 69 3500 BENIDORM;3500;BENIDORM;-0.131509023;38.54053348;La Marina Baixa
UNIDAD BASICA DE REHABILITACION DEL C.S. DE BENIDORM LA CALA;BENISSA, 6 3503 BENIDORM;3503;BENIDORM;-0.162889967;38.53477998;La Marina Baixa
UNIDAD BASICA DE REHABILITACION DEL C.S. DE BENIDORM LES FOIETES;AV. VENEZUELA, S/N 3501 BENIDORM;3501;BENIDORM;-0.137211223;38.54155811;La Marina Baixa
UNIDAD DE ODONTOLOGIA DE BENIDORM TOMAS ORTUÑO;TOMAS ORTUÑO, 69 3501 BENIDORM;3501;BENIDORM;-0.131509023;38.54053348;La Marina Baixa
UNIDAD DE ODONTOLOGIA DE FOIETES;AV. DE VENEZUELA, S/N 3502 BENIDORM;3502;BENIDORM;-0.137211223;38.54155811;La Marina Baixa
CENTRO DE SALUD SEXUAL Y REPRODUCTIVA DE BENIDORM LA CALA;BENISSA, 6 3530 BENIDORM;3530;BENIDORM;-0.162889967;38.53477998;La Marina Baixa
CENTRO DE SALUD SEXUAL Y REPRODUCTIVA DE BENIDORM;TOMAS ORTUÑO, 69 3500 BENIDORM;3500;BENIDORM;-0.131509023;38.54053348;La Marina Baixa
CENTRO DE SALUD MENTAL DE BENIDORM;AVENIDA DE VENEZUELA, S/N 3502 BENIDORM;3502;BENIDORM;-0.137211223;38.54155811;La Marina Baixa
CENTRO DE CONDUCTAS ADICTIVAS DE BENIDORM;VENEZUELA, S/N 3501 BENIDORM;3501;BENIDORM;-0.137211223;38.54155811;La Marina Baixa
CENTRO DE PREVENCION DE CANCER DE MAMA DE BENIDORM;TOMAS ORTUÑO, S/N 3500 BENIDORM;3500;BENIDORM;-0.131369124;38.53997026;La Marina Baixa
CENTRO SANITARIO INTEGRADO DE BENIFAIO;CTRA. ALMUSSAFES, 11 46450 BENIFAIO;46450;BENIFAIO;-0.422464513;39.28710672;Ribera Alta
UNIDAD BASICA DE REHABILITACION DEL C.S.I. DE BENIFAIO;CTRA. ALMUSSAFES, 11 46000 BENIFAIO;46000;BENIFAIO;-0.422464513;39.28710672;Ribera Alta
UNIDAD DE ODONTOLOGIA DE BENIFAIO;CARRETERA ALMUSSAFES, 11 46450 BENIFAIO;46450;BENIFAIO;-0.422464513;39.28710672;Ribera Alta
CONSULTORIO AUXILIAR DE BENIFAIRO DE LA VALLDIGNA;C/ DR. FLEMING, 2 46791 BENIFAIRO DE LA VALLDIGNA;46791;BENIFAIRO DE LA VALLDIGNA;-0.30251001;39.05219;La Safor
CONSULTORIO AUXILIAR DE BENIFAIRO DE LES VALLS;JESUS BALANZA, 4 46511 BENIFAIRO DE LES VALLS;46511;BENIFAIRO DE LES VALLS;-0.267280033;39.72772999;Camp de Morvedre
CONSULTORIO AUXILIAR DE BENIFALLIM;PZA. CORAZON DE JESUS, 1 3816 BENIFALLIM;3816;BENIFALLIM;-0.399619974;38.66282998;L'Alcoià
CONSULTORIO AUXILIAR DE BENIFATO;HORNO, S/N 3517 BENIFATO;3517;BENIFATO;-0.22948129;38.67367419;La Marina Baixa
CENTRO DE SALUD DE BENIGANIM;LEONOR ORTIZ, 9 46830 BENIGANIM;46830;BENIGANIM;-0.444350001;38.94539001;La Vall d'Albaida
CONSULTORIO AUXILIAR DE BENIGEMBLA;PLAÇA BALDOM. VEGA, S/N 3794 BENIGEMBLA;3794;BENIGEMBLA;-0.116445532;38.74466;Marina Alta
CONSULTORIO AUXILIAR DE BENIJOFAR;TORREVIEJA, 15 3178 BENIJOFAR;3178;BENIJOFAR;-0.738292343;38.07525816;Baix Segura
CENTRO DE SALUD DE BENILLOBA;C/ COMARCA S/N, null 3810 BENILLOBA;3810;BENILLOBA;-0.386965229;38.70123535;El Comtat
CONSULTORIO AUXILIAR DE BENILLUP;PZA. DE LA IGLESIA, 1 3827 BENILLUP;3827;BENILLUP;-0.378950034;38.75347;El Comtat
CONSULTORIO AUXILIAR DE BENIMANTELL;CARRETERA D'ALCOY, 8 3516 BENIMANTELL;3516;BENIMANTELL;-0.209740028;38.67575999;La Marina Baixa
CONSULTORIO AUXILIAR DE BENIMARFULL;SAN JAIME, 19 3827 BENIMARFULL;3827;BENIMARFULL;-0.389942608;38.77679238;El Comtat
CONSULTORIO AUXILIAR DE BENIMASSOT;CARRETERA DEL FORN, 1 3812 BENIMASSOT;3812;BENIMASSOT;-0.292987843;38.74627164;El Comtat
CONSULTORIO AUXILIAR DE BENIMELI;MAESTRA CONSUELO SANCHIZ, 34 3769 BENIMELI;3769;BENIMELI;-0.043550022;38.82245;Marina Alta
CONSULTORIO AUXILIAR DE BENIMODO;9 DE OCTUBRE, 14 46291 BENIMODO;46291;BENIMODO;-0.526749976;39.21451;Ribera Alta
CONSULTORIO AUXILIAR DE BENIMUSLEM;DIPUTACION, 16 46611 BENIMUSLEM;46611;BENIMUSLEM;-0.491589986;39.13229639;Ribera Alta
CONSULTORIO AUXILIAR DE BENIPARRELL;C/ CERVANTES, 15 46469 BENIPARRELL;46469;BENIPARRELL;-0.41368003;39.38186999;Horta Sud
CONSULTORIO AUXILIAR DE BENIRREDRA;LA CREU, 2 46703 BENIRREDRA;46703;BENIRREDRA;-0.192180025;38.96092;La Safor
CENTRO DE SALUD DE BENISSA;C/ AUSIAS MARCH, S/N 3720 BENISSA;3720;BENISSA;0.055886921;38.71637174;Marina Alta
CONSULTORIO DE VERANO DE BENISSA 'LA FUSTERA';AVDA. DE LA MARINA, CALA FUSTERA, 307 3720 BENISSA;3720;BENISSA;0.08459679;38.66488818;Marina Alta
UNIDAD BÁSICA DE REHABILITACIÓN DEL C.S. DE BENISSA;AUSIAS MARCH, S/N 3270 BENISSA;3270;BENISSA;0.055886921;38.71637174;Marina Alta
UNIDAD DE ODONTOLOGIA DE BENISSA;AUSIAS MARCH, S/N 3720 BENISSA;3720;BENISSA;0.055886921;38.71637174;Marina Alta
CONSULTORIO AUXILIAR DE BENISSANO;VIRGEN FUNDAMENTO, 9 46181 BENISSANO;46181;BENISSANO;-0.574605098;39.61240032;Camp de Túria
CONSULTORIO AUXILIAR DE BENISSODA;PRINCIPE FELIPE, 1 46869 BENISSODA;46869;BENISSODA;-0.529869972;38.83267001;La Vall d'Albaida
CONSULTORIO AUXILIAR DE BENISSUERA;PLAZA DE LA IGLESIA, 2 46839 BENISSUERA;46839;BENISSUERA;-0.47659996;38.91276999;La Vall d'Albaida
CONSULTORIO AUXILIAR DE TEULADA BENITATXELL;PLAÇA NOVA, 23 3726 BENITACHELL/POBLE NOU DE BENITATXELL (EL);3726;BENITACHELL/POBLE NOU DE BENITATXELL (EL);0.141159967;38.73021;Marina Alta
CENTRO DE SALUD DE BENLLOC;LIBERTAD, S/N 12181 BENLLOC;12181;BENLLOC;0.028994624;40.21014497;Plana Alta
CENTRO DE SALUD DE BETERA;AVDA. ESCULTOR RAMÓN INGLÉS, 52 46117 BETERA;46117;BETERA;-0.457316884;39.59803;Camp de Túria
UNIDAD DE ODONTOLOGIA DE BETERA;AVDA. ESCULTOR RAMON INGLES, 52 46117 BETERA;46117;BETERA;-0.462359303;39.593856;Camp de Túria
CENTRO DE SALUD DE BETXI;SANT JOSEP OBRER, S/N 12549 BETXI;12549;BETXI;-0.197692505;39.92787764;Plana Baixa
CENTRO DE SALUD DE BIAR;ELS PASSOS, 6 3410 BIAR;3410;BIAR;-0.76128118;38.62993492;L'Alt Vinalopó
CONSULTORIO AUXILIAR DE BICORP;CARRETERA, 22 46825 BICORP;46825;BICORP;-0.787000023;39.13071;La Canal de Navarrés
CENTRO DE SALUD DE BIGASTRO;C/ TOMAS VILLANUEVA, S/N 3380 BIGASTRO;3380;BIGASTRO;-0.896484903;38.06450006;Baix Segura
UNIDAD DE ODONTOLOGIA DE BIGASTRO;TOMAS VILLANUEVA, S/N 3380 BIGASTRO;3380;BIGASTRO;-0.896484903;38.06450006;Baix Segura
CENTRO DE SALUD DE BOCAIRENT;C/SANTA AGUEDA, S/N 46880 BOCAIRENT;46880;BOCAIRENT;-0.613549602;38.76500938;La Vall d'Albaida
CONSULTORIO AUXILIAR DE BOLBAITE;SANTA CECILIA, 19 46822 BOLBAITE;46822;BOLBAITE;-0.67257003;39.06064001;La Canal de Navarrés
CONSULTORIO AUXILIAR DE BOLULLA;RAVAL, BJ 3518 BOLULLA;3518;BOLULLA;-0.106365756;38.67458349;La Marina Baixa
CONSULTORIO AUXILIAR DE BONREPOS I MIRAMBELL;PL. DEL HOGAR DEL LLAR, S/Nº 46131 BONREPOS I MIRAMBELL;46131;BONREPOS I MIRAMBELL;-0.366349469;39.51794642;Horta Nord
CENTRO SANITARIO INTEGRADO DE BORRIANA/BURRIANA;AVENIDA UNION EUROPEA 58, 58 12530 BORRIANA/BURRIANA;12530;BORRIANA/BURRIANA;-0.073408601;39.88080366;Plana Baixa
CENTRO DE SALUD DE BORRIANA/BURRIANA;CARRETERA NULES, S/N 12530 BORRIANA/BURRIANA;12530;BORRIANA/BURRIANA;-0.089486561;39.88692413;Plana Baixa
CONSULTORIO AUXILIAR DE BORRIANA/BURRIANA PUERTO;AVDA MEDITERRANEO 31, null 12530 BORRIANA/BURRIANA;12530;BORRIANA/BURRIANA;-0.072770007;39.86542002;Plana Baixa
CONSULTORIO DE VERANO DE BORRIANA/BURRIANA GRAO;MESTRE RODRIGO, S/N 12530 BORRIANA/BURRIANA;12530;BORRIANA/BURRIANA;-0.060065312;39.87576098;Plana Baixa
UNIDAD BASICA DE REHABILITACION DEL C.S.I. DE BORRIANA/BURRIANA;AVDA. UNION EUROPEA, 58 12530 BORRIANA/BURRIANA;12530;BORRIANA/BURRIANA;-0.073408601;39.88080366;Plana Baixa
UNIDAD DE ODONTOLOGIA DE BORRIANA/BURRIANA;AVDA. NULES, S/N 12530 BORRIANA/BURRIANA;12530;BORRIANA/BURRIANA;-0.089486561;39.88692413;Plana Baixa
CENTRO DE SALUD SEXUAL Y REPRODUCTIVA DE BORRIANA/BURRIANA;AVENIDA UNION EUROPEA, 58 12530 BORRIANA/BURRIANA;12530;BORRIANA/BURRIANA;-0.073408601;39.88080366;Plana Baixa
CENTRO DE SALUD MENTAL DE BORRIANA/BURRIANA;CARRETERA NULES S/N, S/N 12530 BORRIANA/BURRIANA;12530;BORRIANA/BURRIANA;-0.089486561;39.88692413;Plana Baixa
CONSULTORIO AUXILIAR DE BORRIOL;AVDA. ZARAGOZA, S/N 12190 BORRIOL;12190;BORRIOL;-0.0699182;40.0408815;Plana Alta
CONSULTORIO AUXILIAR DE BUFALI;LA PAZ, 1 46891 BUFALI;46891;BUFALI;-0.514880028;38.86797002;La Vall d'Albaida
CONSULTORIO AUXILIAR DE BUGARRA;ANCHA, 9 46165 BUGARRA;46165;BUGARRA;-0.775710019;39.60839001;Els serrans
CENTRO SANITARIO INTEGRADO DE BUÑOL;AVDA. RAFAEL RIDAURA, 17 46360 BUÑOL;46360;BUÑOL;-0.785611176;39.42465736;La Foia de Bunyol
UNIDAD BÁSICA DE REHABILITACIÓN DEL C.S.I. DE BUÑOL;AVDA. RAFAEL RIDAURA, 17 46360 BUÑOL;46360;BUÑOL;-0.785611176;39.42465736;La Foia de Bunyol
UNIDAD DE ODONTOLOGIA DE BUÑOL;AV. RAFAEL RIDAURA, 17 46360 BUÑOL;46360;BUÑOL;-0.785611176;39.42465736;La Foia de Bunyol
CENTRO DE SALUD SEXUAL Y REPRODUCTIVA DE BUÑOL;C/ RAFAEL RIDAURA, S/N 46360 BUÑOL;46360;BUÑOL;-0.784860189;39.42564161;La Foia de Bunyol
CENTRO DE SALUD MENTAL DE BUÑOL;RAFAEL RIDAURA, S/N 46360 BUÑOL;46360;BUÑOL;-0.784860189;39.42564161;La Foia de Bunyol
CENTRO DE ESPECIALIDADES DE BURJASSOT;CAMI BENIFERRI, S/N 46100 BURJASSOT;46100;BURJASSOT;-0.403504196;39.50039667;Horta Oest
CENTRO DE SALUD DE BURJASSOT 1;BENIFERRI, S/N 46100 BURJASSOT;46100;BURJASSOT;-0.410376758;39.50367831;Horta Oest
CENTRO DE SALUD DE BURJASSOT 2;RUBERT Y VILLO, 4 46100 BURJASSOT;46100;BURJASSOT;-0.415200005;39.51272001;Horta Oest
UNIDAD BASICA DE REHABILITACION DEL C.S. DE BURJASSOT 1;BENIFERRI, null 46100 BURJASSOT;46100;BURJASSOT;-0.410376758;39.50367831;Horta Oest
UNIDAD DE ODONTOLOGIA DE BURJASSOT;BENIFERRI, S/N 46100 BURJASSOT;46100;BURJASSOT;-0.410376758;39.50367831;Horta Oest
CENTRO DE SALUD MENTAL DE BURJASSOT;RUBERT I VILLO, S/N 46100 BURJASSOT;46100;BURJASSOT;-0.415397624;39.51252425;Horta Oest
CENTRO DE PREVENCION DE CANCER DE MAMA DE BURJASSOT;SIXTO CAMARA, 12 46100 BURJASSOT;46100;BURJASSOT;-0.415158716;39.50719995;Horta Oest
CONSULTORIO AUXILIAR DE BUSOT;C/ MAYOR, 3 3111 BUSOT;3111;BUSOT;-0.41759002;38.48473;L'Alacantí
CONSULTORIO AUXILIAR DE CABANES LA RIBERA;C/ AMBULATORIO, 3 12595 CABANES;12595;CABANES;0.157034078;40.15202882;Plana Alta
CONSULTORIO AUXILIAR DE CABANES;HOSPITAL, 11 12180 CABANES;12180;CABANES;0.044459961;40.15617001;Plana Alta
CONSULTORIO AUXILIAR DE CALIG;PLAZA DOCTOR QUIXAL, S/N 12589 CALIG;12589;CALIG;0.352678846;40.46174908;Baix Maestrat
CONSULTORIO AUXILIAR DE CALLES;C/ MOLINETA, S/N 46175 CALLES;46175;CALLES;-0.974676649;39.72629663;Els serrans
CENTRO DE SALUD DE CALLOSA DE SEGURA;C/TIERNO GALVAN, 19 3360 CALLOSA DE SEGURA;3360;CALLOSA DE SEGURA;-0.878221544;38.11911062;Baix Segura
UNIDAD BÁSICA DE REHABILITACIÓN DEL C.S. DE CALLOSA DE SEGURA;TIERNO GALVAN, 19 3360 CALLOSA DE SEGURA;3360;CALLOSA DE SEGURA;-0.878221544;38.11911062;Baix Segura
UNIDAD DE ODONTOLOGIA DE CALLOSA DE SEGURA;PASEO TIERNO GALVAN, 19 3360 CALLOSA DE SEGURA;3360;CALLOSA DE SEGURA;-0.878221544;38.11911062;Baix Segura
CENTRO DE SALUD SEXUAL Y REPRODUCTIVA DE CALLOSA DE SEGURA;TIERNO GALVAN, 3 3360 CALLOSA DE SEGURA;3360;CALLOSA DE SEGURA;-0.878260006;38.11931;Baix Segura
CENTRO DE SALUD MENTAL DE CALLOSA DE SEGURA;TIERNO GALVAN, 19 3360 CALLOSA DE SEGURA;3360;CALLOSA DE SEGURA;-0.878221544;38.11911062;Baix Segura
CENTRO DE SALUD DE CALLOSA D'EN SARRIA;PARTIDA MIRAMBO, S/N 3510 CALLOSA D'EN SARRIA;3510;CALLOSA D'EN SARRIA;-0.106733836;38.651795;La Marina Baixa
UNIDAD BASICA DE REHABILITACION DEL C.S. DE CALLOSA D'EN SARRIA;PARTIDA DEL MIRAMBO, S/N 3510 CALLOSA D'EN SARRIA;3510;CALLOSA D'EN SARRIA;-0.106733836;38.651795;La Marina Baixa
UNIDAD DE ODONTOLOGIA CALLOSA;PARTIDA DE MIRAMBO, S/N 3510 CALLOSA D'EN SARRIA;3510;CALLOSA D'EN SARRIA;-0.106733836;38.651795;La Marina Baixa
CENTRO DE SALUD SEXUAL Y REPRODUCTIVA DE CALLOSA D'EN SARRIA;PARTIDA DEL MIRAMBO, S/N 3510 CALLOSA D'EN SARRIA;3510;CALLOSA D'EN SARRIA;-0.106733836;38.651795;La Marina Baixa
CENTRO DE SALUD MENTAL DE CALLOSA D'EN SARRIA;PARTIDA MIRAMBO, S/N 3510 CALLOSA D'EN SARRIA;3510;CALLOSA D'EN SARRIA;-0.106733836;38.651795;La Marina Baixa
CENTRO SANITARIO INTEGRADO DE CALP;CARRER SAN FERMIN, S/N 3710 CALP;3710;CALP;0.036142749;38.6435903;Marina Alta
CONSULTORIO AUXILIAR DE CALP CASA DEL MAR;VERGE DEL CARME, S/N 3710 CALP;3710;CALP;0.04523521;38.653255;Marina Alta
CONSULTORIO DE VERANO DE CALP LA FOSSA;AV. ROSA DE LOS VIENTOS, 3 3710 CALP;3710;CALP;0.072153455;38.64867735;Marina Alta
UNIDAD BÁSICA DE REHABILITACIÓN DEL C.S.I. DE CALP;SAN FERMIN, S/N 3710 CALP;3710;CALP;0.036142749;38.6435903;Marina Alta
UNIDAD DE ODONTOLOGIA DE CALP;AV. CONDE DE ALTEA, S/N 3710 CALP;3710;CALP;0.039955691;38.64441404;Marina Alta
CENTRO DE SALUD MENTAL DE CALP;AVDA. CONDE DE ALTEA, S/N 3710 CALP;3710;CALP;0.039955691;38.64441404;Marina Alta
CENTRO SANITARIO INTEGRADO EL CAMPELLO;AVDA. GERMANIAS, S/N 3560 CAMPELLO (EL);3560;CAMPELLO (EL);-0.394090125;38.43010911;L'Alacantí
CONSULTORIO AUXILIAR DE ELS POBLETS COVETA FUMA;ORIHUELA, S/N 3560 CAMPELLO (EL);3560;CAMPELLO (EL);-0.386170288;38.44959;L'Alacantí
CONSULTORIO AUXILIAR DEL CAMPELLO PLAYA MUCHAVISTA;C/ JUAN DE LA CIERVA, S/N 3559 CAMPELLO (EL);3559;CAMPELLO (EL);-0.41057001;38.39103749;L'Alacantí
UNIDAD DE ODONTOLOGIA EL CAMPELLO;AV. GERMANIAS, S/N 3560 CAMPELLO (EL);3560;CAMPELLO (EL);-0.394090125;38.43010911;L'Alacantí
CONSULTORIO AUXILIAR DE EL CAMP DE MIRRA / CAMPO DE MIRRA;C/ MUSICO JOSE ALBERO, 1 3469 CAMPO DE MIRRA/CAMP DE MIRRA (EL);3469;CAMPO DE MIRRA/CAMP DE MIRRA (EL);-0.778779975;38.68736;L'Alt Vinalopó
CONSULTORIO AUXILIAR DE CAMPORROBLES;PURISIMA, 10 46330 CAMPORROBLES;46330;CAMPORROBLES;-1.399900038;39.64653001;La Plana d'Utiel-Requena
CENTRO DE SALUD DE CANALS;ALAMEDA RONDA SUR, S/N 46650 CANALS;46650;CANALS;-0.578835482;38.941755;La Costera
CONSULTORIO AUXILIAR DE CANALS AIACOR;AVDA. GENERALITAT, S/N 46659 CANALS;46659;CANALS;-0.578618653;38.97171445;La Costera
UNIDAD BÁSICA DE REHABILITACIÓN DEL C.S. DE CANALS;ALAMEDA RONDA SUR, S/N 46650 CANALS;46650;CANALS;-0.578835482;38.941755;La Costera
UNIDAD DE ODONTOLOGIA DE CANALS;ALAMEDA RONDA SUR, S/N 46650 CANALS;46650;CANALS;-0.578835482;38.941755;La Costera
CONSULTORIO AUXILIAR DE PLAYA DE CANET D'EN BERENGUER;AVDA. MARE NOSTRUM, 79 46529 CANET D'EN BERENGUER;46529;CANET D'EN BERENGUER;-0.204420941;39.68102832;Camp de Morvedre
CONSULTORIO AUXILIAR DE CANET D'EN BERENGUER;CONSTITUCIÓ, 24 46529 CANET D'EN BERENGUER;46529;CANET D'EN BERENGUER;-0.221528908;39.67954542;Camp de Morvedre
CONSULTORIO AUXILIAR DE CANET LO ROIG;VINAROS, 15 12350 CANET LO ROIG;12350;CANET LO ROIG;0.24623128;40.5524849;Baix Maestrat
CONSULTORIO AUXILIAR DE CAÑADA;PINTOR SOROLLA, 35 3409 CAÑADA;3409;CAÑADA;-0.810419983;38.67531001;L'Alt Vinalopó
CENTRO DE SALUD DE CARCAIXENT;C/ BAGNOLS SUR CEZE S/N, null 46740 CARCAIXENT;46740;CARCAIXENT;-0.4508517;39.12425042;Ribera Alta
UNIDAD BASICA DE REHABILITACION DEL C.S. DE CARCAIXENT;BAGNOLS SUR CEZE, S/N 46740 CARCAIXENT;46740;CARCAIXENT;-0.4508517;39.12425042;Ribera Alta
UNIDAD DE ODONTOLOGIA DE CARCAIXENT;BAGNOLS SUR CEZE, S/N 46740 CARCAIXENT;46740;CARCAIXENT;-0.4508517;39.12425042;Ribera Alta
CENTRO DE SALUD DE CARCER;SEVILLA, S/N 46294 CARCER;46294;CARCER;-0.586748065;39.06079;Ribera Alta
CENTRO SANITARIO INTEGRADO DE CARLET;S.BERNARDO S/N, null 46240 CARLET;46240;CARLET;-0.524129919;39.22341003;Ribera Alta
UNIDAD BASICA DE REHABILITACION DEL C.S.I. DE CARLET;C/ SAN BERNARDO, S/N 46000 CARLET;46000;CARLET;-0.517775863;39.2256973;Ribera Alta
UNIDAD DE ODONTOLOGIA DE CARLET;SAN BERNARDO, S/N 46240 CARLET;46240;CARLET;-0.517775863;39.2256973;Ribera Alta
CENTRO DE SALUD SEXUAL Y REPRODUCTIVA DE CARLET;CAMINO SAN BERNARDO, 2 46240 CARLET;46240;CARLET;-0.531602078;39.23259173;Ribera Alta
CENTRO DE SALUD MENTAL DE CARLET;CAMI SAN BERNAT, S/N 46240 CARLET;46240;CARLET;-0.539313366;39.2333967;Ribera Alta
CONSULTORIO AUXILIAR DE CARRICOLA;PZA. CONSTITUCION, 5 46869 CARRICOLA;46869;CARRICOLA;-0.471869968;38.84014001;La Vall d'Albaida
CONSULTORIO AUXILIAR DE CASAS ALTAS;DIPUTACION, 34 46147 CASAS ALTAS;46147;CASAS ALTAS;-1.263560001;40.04020998;Racó d'Ademús
CONSULTORIO AUXILIAR DE CASAS BAJAS;REAL, 10 46146 CASAS BAJAS;46146;CASAS BAJAS;-1.259611359;40.02367699;Racó d'Ademús
CONSULTORIO AUXILIAR DE CASINOS;LAS BALSAS, 59 46171 CASINOS;46171;CASINOS;-0.70608004;39.69816999;Camp de Túria
CENTRO DE SALUD DE CASTALLA;COLÓN, 44-46 3420 CASTALLA;3420;CASTALLA;-0.68393545;38.55329;L'Alcoià
UNIDAD DE ODONTOLOGIA DE CASTALLA;COLON, 44-46 3420 CASTALLA;3420;CASTALLA;-0.668610756;38.59297068;L'Alcoià
CONSULTORIO AUXILIAR DE CASTELL DE CABRES;C/MAYOR, S/N 12319 CASTELL DE CABRES;12319;CASTELL DE CABRES;0.04311407;40.66130535;Baix Maestrat
CONSULTORIO AUXILIAR DE CASTELL DE CASTELLS;C/ DENIA, S/N 3793 CASTELL DE CASTELLS;3793;CASTELL DE CASTELLS;-0.19533297;38.72528364;Marina Alta
CONSULTORIO AUXILIAR DE GUADALEST;AV. DE ALICANTE, 7 3517 CASTELL DE GUADALEST (EL);3517;CASTELL DE GUADALEST (EL);-0.198670365;38.67551265;La Marina Baixa
CONSULTORIO AUXILIAR DE CASTELLFORT;ENSEÑANZA, S/N 12159 CASTELLFORT;12159;CASTELLFORT;-0.191620935;40.50256384;Els Ports
CONSULTORIO AUXILIAR DE CASTELLNOVO;SECANO, 1 12413 CASTELLNOVO;12413;CASTELLNOVO;-0.459469948;39.86200498;Alt Palància
CONSORCIO HOSPITALARIO PROVINCIAL DE CASTELLON;DOCTOR CLARA, 19 12002 CASTELLO DE LA PLANA;12002;CASTELLO DE LA PLANA;-0.044954461;39.98500321;Plana Alta
HOSPITAL GENERAL UNIVERSITARIO DE CASTELLON;AV. BENICASSIM, S/N 12004 CASTELLO DE LA PLANA;12004;CASTELLO DE LA PLANA;-0.038761794;39.99798212;Plana Alta
CENTRO SANITARIO INTEGRADO DE CASTELLO DE LA PLANA GRAO;PASEO JUAN SEBASTIAN ELCANO, S/N 12100 CASTELLO DE LA PLANA;12100;CASTELLO DE LA PLANA;0.014850809;39.97652548;Plana Alta
CENTRO DE ESPECIALIDADES DE CASTELLON DE LA PLANA JAUME I;TRULLOLS, 3 12001 CASTELLO DE LA PLANA;12001;CASTELLO DE LA PLANA;-0.040832753;39.98676752;Plana Alta
CENTRO DE SALUD DE CASTELLO DE LA PLANA FERNANDO EL CATOLICO;FERNANDO EL CATOLICO, ESQ C/CARCAGENTE, null 12005 CASTELLO DE LA PLANA;12005;CASTELLO DE LA PLANA;-0.030499902;39.97996002;Plana Alta
CENTRO DE SALUD DE CASTELLO DE LA PLANA PALLETER;C/ PALLETER, S/N 12005 CASTELLO DE LA PLANA;12005;CASTELLO DE LA PLANA;-0.049904336;39.97478895;Plana Alta
CENTRO DE SALUD DE CASTELLO DE LA PLANA RAFALAFENA;MONCOFAR, 39 12003 CASTELLO DE LA PLANA;12003;CASTELLO DE LA PLANA;-0.028720004;39.98812002;Plana Alta
CENTRO DE SALUD DE CASTELLO DE LA PLANA GRAN VIA;GRAN VIA TARREGA MONTEBLANCO, S/N 12006 CASTELLO DE LA PLANA;12006;CASTELLO DE LA PLANA;-0.054389438;39.97780053;Plana Alta
CENTRO DE SALUD DE CASTELLO DE LA PLANA 9 D'OCTUBRE;TRULLOLS, 3 12001 CASTELLO DE LA PLANA;12001;CASTELLO DE LA PLANA;-0.040832753;39.98676752;Plana Alta
CENTRO DE SALUD DE CASTELLO DE LA PLANA PINTOR SOROLLA;PZA. PINTOR SOROLLA, 1 12006 CASTELLO DE LA PLANA;12006;CASTELLO DE LA PLANA;-0.049560014;39.98648001;Plana Alta
CENTRO DE SALUD DE CASTELLO DE LA PLANA RAVAL UNIVERSITAT;CERAMISTA MANOLO SAFONT, 6 12006 CASTELLO DE LA PLANA;12006;CASTELLO DE LA PLANA;-0.058975768;39.99186561;Plana Alta
CENTRO DE SALUD DE CASTELLO DE LA PLANA ILLES COLUMBRETES;PLAZA ILLES COLUMBRETES, S/N 12004 CASTELLO DE LA PLANA;12004;CASTELLO DE LA PLANA;-0.038260436;39.99226664;Plana Alta
CENTRO DE SALUD DE CASTELLO DE LA PLANA SAN AGUSTIN;AV. DIPUTACION, S/N 12004 CASTELLO DE LA PLANA;12004;CASTELLO DE LA PLANA;-0.046305914;40.00084176;Plana Alta
CENTRO DE SALUD DE CASTELLO DE LA PLANA BARRANQUET;C/ LARGA, 70 12004 CASTELLO DE LA PLANA;12004;CASTELLO DE LA PLANA;-0.061419988;39.95806;Plana Alta
CONSULTORIO AUXILIAR DE CASTELLO DE LA PLANA EL GRAO;C/ CHURRUCA, 13 12100 CASTELLO DE LA PLANA;12100;CASTELLO DE LA PLANA;0.01228912;39.97104475;Plana Alta
CONSULTORIO AUXILIAR DE CASTELLO DE LA PLANA PZ. CONSTITUCION;COVES DE VINROMA, S/N 12005 CASTELLO DE LA PLANA;12005;CASTELLO DE LA PLANA;-0.042174931;39.97929967;Plana Alta
CONSULTORIO AUXILIAR DE CASTELLO DE LA PLANA GRUPO REYES;C/ MAESTRO GUERRERO, S/N 12006 CASTELLO DE LA PLANA;12006;CASTELLO DE LA PLANA;-0.076647386;39.99036365;Plana Alta
CONSULTORIO AUXILIAR DE CASTELLO DE LA PLANA LA SALERA;CTRA. LA ALCORA, S/N 12006 CASTELLO DE LA PLANA;12006;CASTELLO DE LA PLANA;-0.085615619;39.99075879;Plana Alta
CONSULTORIO AUXILIAR DE CASTELLO DE LA PLANA SAN LORENZO;C/ TOSSAL DEL REI, 7 12006 CASTELLO DE LA PLANA;12006;CASTELLO DE LA PLANA;-0.069369972;39.98217;Plana Alta
CONSULTORIO AUXILIAR DE CASTELLO DE LA PLANA BENADRESA;C/ CUADRA BREVA, S/N 12006 CASTELLO DE LA PLANA;12006;CASTELLO DE LA PLANA;-0.104030006;39.98425974;Plana Alta
UNIDAD BÁSICA DE REHABILITACIÓN DEL C.S.I. DE CASTELLON DE LA PLANA GRAO;PASEO JUAN SEBASTIAN ELCANO, S/N 12100 CASTELLO DE LA PLANA;12100;CASTELLO DE LA PLANA;0.014850809;39.97652548;Plana Alta
UNIDAD BASICA DE REHABILITACION DEL C.S. DE CASTELLON DE LA PLANA FERNANDO EL CATOLICO;FERNANDO EL CATOLICO ESQ C/ CARCAGENTE, null 12005 CASTELLO DE LA PLANA;12005;CASTELLO DE LA PLANA;-0.030499902;39.97996002;Plana Alta
UNIDAD BÁSICA DE REHABILITACIÓN DEL C.S. DE CASTELLON DE LA PLANA ILLES COLUMBRETES;Passeig de la Universitat, 27-29 12004 CASTELLO DE LA PLANA;12004;CASTELLO DE LA PLANA;-0.061150007;39.99182;Plana Alta
UNIDAD DE ODONTOLOGIA DE CASTELLON DE LA PLANA GRAO;JUAN SEBASTIAN EL CANO, 36 12100 CASTELLO DE LA PLANA;12100;CASTELLO DE LA PLANA;0.015280042;39.97709002;Plana Alta
UNIDAD DE ODONTOLOGÍA DE CASTELLÓN DE LA PLANA RAFALAFENA;MONCOFAR, 39 12003 CASTELLO DE LA PLANA;12003;CASTELLO DE LA PLANA;-0.028720004;39.98812002;Plana Alta
UNIDAD DE ODONTOLOGÍA DE CASTELLÓN DE LA PLANA CSI GRAN VÍA;AVDA.TARREGA MONTEBLANCO, S/N 12006 CASTELLO DE LA PLANA;12006;CASTELLO DE LA PLANA;-0.054389438;39.97780053;Plana Alta
UNIDAD DE ODONTOLOGÍA PREVENTIVA DE CASTELLÓN DE LA PLANA C.S. 9 D'OCTUBRE;TRULLOLS, 3 12001 CASTELLO DE LA PLANA;12001;CASTELLO DE LA PLANA;-0.040832753;39.98676752;Plana Alta
CENTRO DE SALUD SEXUAL Y REPRODUCTIVA DE CASTELLON DE LA PLANA III;GRAN VIA TARREGA MONTEBLANCO, S/N 12006 CASTELLO DE LA PLANA;12006;CASTELLO DE LA PLANA;-0.054389438;39.97780053;Plana Alta
UNIDAD DE SALUD SEXUAL Y REPRODUCTIVA DE CASTELLÓN DE LA PLANA II;MONCOFAR, null 12006 CASTELLO DE LA PLANA;12006;CASTELLO DE LA PLANA;-0.029024678;39.98693566;Plana Alta
UNIDAD DE SALUD SEXUAL Y REPRODUCTIVA DE CASTELLÓN DE LA PLANA I;CERAMISTA MANOLO SAFONT, null 12003 CASTELLO DE LA PLANA;12003;CASTELLO DE LA PLANA;-0.058975768;39.99186561;Plana Alta
CENTRO DE SALUD MENTAL DE CASTELLO DE LA PLANA ILLES COLUMBRETES;PLAZA ILLES COLUMBRETES, S/N 12004 CASTELLO DE LA PLANA;12004;CASTELLO DE LA PLANA;-0.038260436;39.99226664;Plana Alta
CENTRO DE SALUD MENTAL DE CASTELLÓN DE LA PLANA GRAO;PASEO JUAN SEBASTIAN EL CANO, S/N 12100 CASTELLO DE LA PLANA;12100;CASTELLO DE LA PLANA;0.014850809;39.97652548;Plana Alta
CENTRO DE SALUD MENTAL INFANTIL DE CASTELLON DE LA PLANA II;USERAS, 1 12002 CASTELLO DE LA PLANA;12002;CASTELLO DE LA PLANA;-0.05156002;39.98610002;Plana Alta
CENTRO DE SALUD MENTAL DE CASTELLÓN DE LA PLANA III;CARDENAL COSTA, null 12002 CASTELLO DE LA PLANA;12002;CASTELLO DE LA PLANA;-0.048912;39.99114089;Plana Alta
CENTRO DE SALUD MENTAL DE CASTELLÓN DE LA PLANA I;MONCOFAR, 39 12005 CASTELLO DE LA PLANA;12005;CASTELLO DE LA PLANA;-0.028720004;39.98812002;Plana Alta
CENTRO DE SALUD MENTAL INFANTIL DE CASTELLÓN DE LA PLANA I;GRAN VIA TARREGA MONTEBLANCO, S/N 12002 CASTELLO DE LA PLANA;12002;CASTELLO DE LA PLANA;-0.052431625;39.97975873;Plana Alta
CENTRO DE CONDUCTAS ADICTIVAS DE CASTELLON DE LA PLANA H. PROVINCIAL;AV. DR. CLARA, 19 12002 CASTELLO DE LA PLANA;12002;CASTELLO DE LA PLANA;-0.044954461;39.98500321;Plana Alta
UNIDAD DE CONDUCTAS ADICTIVAS DE CASTELLÓN DE LA PLANA;AVDA. DIPUTACIÓN, S/N 12004 CASTELLO DE LA PLANA;12004;CASTELLO DE LA PLANA;-0.046305914;40.00084176;Plana Alta
CENTRO DE PREVENCION DE CANCER DE MAMA DE CASTELLON DE LA PLANA I;SAN VICENTE, 48 12002 CASTELLO DE LA PLANA;12002;CASTELLO DE LA PLANA;-0.042300029;39.98563998;Plana Alta
CENTRO DE SALUD SEXUAL Y REPRODUCTIVA DE VILA-REAL;ILLES COLUMBRETES, S/N 12540 CASTELLO DE LA PLANA;12540;CASTELLO DE LA PLANA;-0.038260436;39.99226664;Plana Alta
CENTRO DE PREVENCION DE CANCER DE MAMA DE CASTELLON DE LA PLANA II;SANT VICENT, 48 12002 CASTELLO DE LA PLANA;12002;CASTELLO DE LA PLANA;-0.042300029;39.98563998;Plana Alta
CENTRO DE SALUD DE CASTELLO DE RUGAT;CAMI DEL RAFOL, 2, 2 46841 CASTELLO DE RUGAT;46841;CASTELLO DE RUGAT;-0.38441998;38.87291999;La Vall d'Albaida
CONSULTORIO AUXILIAR DE CASTELLONET DE LA CONQUESTA;PZA. PALAU, 1 46726 CASTELLONET DE LA CONQUESTA;46726;CASTELLONET DE LA CONQUESTA;-0.263470039;38.91491999;La Safor
CONSULTORIO AUXILIAR DE CASTIELFABIB LOS SANTOS;LA IGLESIA, 21 46141 CASTIELFABIB;46141;CASTIELFABIB;-1.313199979;40.14654;Racó d'Ademús
CONSULTORIO AUXILIAR DE CASTIELFABIB - ARROYO CEREZO;ARROYO CEREZO ABAJO, 130 46141 CASTIELFABIB;46141;CASTIELFABIB;-1.419310012;40.12106002;Racó d'Ademús
CONSULTORIO AUXILIAR DE CASTIELFABIB - CUESTA DEL RATO;PLAZA DE LA CUESTA DEL RATO, 16 46141 CASTIELFABIB;46141;CASTIELFABIB;-1.312019975;40.14719001;Racó d'Ademús
CONSULTORIO AUXILIAR DE CASTIELFABIB - MAS DE JACINTO;ERAS BAJAS, 44 46141 CASTIELFABIB;46141;CASTIELFABIB;-1.250739964;40.12881998;Racó d'Ademús
CONSULTORIO AUXILIAR DE CASTIELFABIB;VILLA, 1 46141 CASTIELFABIB;46141;CASTIELFABIB;-1.30396002;40.13103;Racó d'Ademús
CONSULTORIO AUXILIAR DE CASTILLO DE VILLAMALEFA;C/HORNO, S/N 12123 CASTILLO DE VILLAMALEFA;12123;CASTILLO DE VILLAMALEFA;-0.379813281;40.13064589;Alt Millars
CENTRO DE SALUD DE CATADAU;DIPUTACION, 23 46196 CATADAU;46196;CATADAU;-0.567640001;39.27538001;Ribera Alta
CENTRO DE ESPECIALIDADES DE CATARROJA;EMILIANO FERRER, 5-BJ 46470 CATARROJA;46470;CATARROJA;-0.402379967;39.40420999;Horta Sud
CENTRO DE SALUD DE CATARROJA;AVDA. RAMBLETA, 63 46470 CATARROJA;46470;CATARROJA;-0.405700039;39.40760998;Horta Sud
UNIDAD BÁSICA DE REHABILITACIÓN DEL C.S. DE CATARROJA;AVDA. RAMBLETA, 63 46470 CATARROJA;46470;CATARROJA;-0.405700039;39.40760998;Horta Sud
UNIDAD DE ODONTOLOGIA DE CATARROJA;AVDA. RAMBLETA, S/N 46470 CATARROJA;46470;CATARROJA;-0.406038655;39.40607903;Horta Sud
UNIDAD DE SALUD SEXUAL Y REPRODUCTIVA DE CATARROJA;AVDA. RAMBLETA, S/N 46470 CATARROJA;46470;CATARROJA;-0.406038655;39.40607903;Horta Sud
CENTRO DE SALUD MENTAL INFANTIL DE CATARROJA;AVDA. RAMBLETA, S/N 46470 CATARROJA;46470;CATARROJA;-0.406038655;39.40607903;Horta Sud
CENTRO DE SALUD MENTAL DE CATARROJA;AVDA. RAMBLETA, S/N 46470 CATARROJA;46470;CATARROJA;-0.406038655;39.40607903;Horta Sud
CENTRO DE CONDUCTAS ADICTIVAS DE CATARROJA;AVDA. RAMBLETA, S/N 46470 CATARROJA;46470;CATARROJA;-0.406038655;39.40607903;Horta Sud
CONSULTORIO AUXILIAR DE CATI;ESCUELAS, 13 12513 CATI;12513;CATI;0.02175;40.48797936;Alt Maestrat
CONSULTORIO AUXILIAR DE CATRAL;LA PALMERA, S/N 3158 CATRAL;3158;CATRAL;-0.800969084;38.15640714;Baix Segura
UNIDAD DE ODONTOLOGIA DE CATRAL;LA PALMERA, S/N 3158 CATRAL;3158;CATRAL;-0.800969084;38.15640714;Baix Segura
CENTRO DE SALUD DE CAUDETE DE LAS FUENTES;VIÑAS, BAJO, 6 46315 CAUDETE DE LAS FUENTES;46315;CAUDETE DE LAS FUENTES;-1.28901895;39.54795;La Plana d'Utiel-Requena
CONSULTORIO AUXILIAR DE CAUDIEL;NICASIO BENLLOCH, 1 12440 CAUDIEL;12440;CAUDIEL;-0.568250036;39.94788998;Alt Palància
CONSULTORIO AUXILIAR DE CERDA;CONSULTORIO MEDICO, S/N 46800 CERDA;46800;CERDA;-0.57479;38.98581;La Costera
CONSULTORIO AUXILIAR DE CERVERA DEL MAESTRE;LOLITA BESALDUCH, S/N 12578 CERVERA DEL MAESTRE;12578;CERVERA DEL MAESTRE;0.278189827;40.44645;Baix Maestrat
CENTRO DE SALUD DE CHELLA;PINTOR PALLAS, 25 46821 CHELLA;46821;CHELLA;-0.65754002;39.04004999;La Canal de Navarrés
CENTRO DE SALUD DE CHELVA;AVDA.MANCOMUNIDAD ALTO TURIA, S/N 46176 CHELVA;46176;CHELVA;-1.01507;39.75828757;Els serrans
UNIDAD BASICA DE REHABILITACION DEL C.S. DE CHELVA;AVDA. MANCOMUNIDAD ALTO TURIA, S/N 46176 CHELVA;46176;CHELVA;-1.01507;39.75828757;Els serrans
CONSULTORIO AUXILIAR DE CHERA;ANTONIO SANCHEZ PLA, 5 46350 CHERA;46350;CHERA;-0.973670036;39.59308;La Plana d'Utiel-Requena
CENTRO DE SALUD DE CHESTE;ESPERANTISTA ENRIQUE ARNAU, S/N 46380 CHESTE;46380;CHESTE;-0.685834171;39.49756319;La Foia de Bunyol
UNIDAD BÁSICA DE REHABILITACIÓN DEL C.S. DE CHESTE;ESPERANTISTA ENRIQUE ARNAU, S/N 46380 CHESTE;46380;CHESTE;-0.685834171;39.49756319;La Foia de Bunyol
CONSULTORIO AUXILIAR DE LA PLAYA DE CHILCHES/XILXES;GRAVINA, 30 12592 CHILCHES/XILXES;12592;CHILCHES/XILXES;-0.158029972;39.76724999;Plana Baixa
CONSULTORIO AUXILIAR DE XILXES / CHILCHES;CRISTO DELA JONQUERA, S/N 12592 CHILCHES/XILXES;12592;CHILCHES/XILXES;-0.19003;39.78259;Plana Baixa
CENTRO DE SALUD DE CHIVA;ALCALDE URBINO BLAY MAÑEZ, 4 46370 CHIVA;46370;CHIVA;-0.71256998;39.46934001;La Foia de Bunyol
CONSULTORIO AUXILIAR DE CHIVA URB. SIERRA PERENCHIZA;JUAN CARLOS I, S/N 46370 CHIVA;46370;CHIVA;-0.601118519;39.44009676;La Foia de Bunyol
CONSULTORIO AUXILIAR DE CHIVA URB. CALICANTO;AV BUENOS AIRES, 113 46370 CHIVA;46370;CHIVA;-0.552152994;39.43252966;La Foia de Bunyol
UNIDAD BÁSICA DE REHABILITACIÓN DEL C.S. DE CHIVA;ALCALDE URBINO BAY MAÑEZ, 4 46370 CHIVA;46370;CHIVA;-0.71256998;39.46934001;La Foia de Bunyol
CONSULTORIO AUXILIAR DE XODOS / CHODOS;ESGLESIA, S/N 12134 CHODOS/XODOS;12134;CHODOS/XODOS;-0.286234655;40.24450365;L'Alcalatén
CONSULTORIO AUXILIAR DE CHOVAR;POZO, 3 12499 CHOVAR;12499;CHOVAR;-0.320300013;39.85085001;Alt Palància
CONSULTORIO AUXILIAR DE CHULILLA;MAESTRO AMBLAR, 35 46167 CHULILLA;46167;CHULILLA;-0.891280035;39.65723999;Els serrans
CONSULTORIO AUXILIAR DE CINCTORRES;LES SERRES, 1 12318 CINCTORRES;12318;CINCTORRES;-0.215224782;40.57459196;Els Ports
CONSULTORIO AUXILIAR DE CIRAT EL TORMO;AVDA. PRINCIPE ESPAÑA, S/N 12232 CIRAT;12232;CIRAT;-0.428187909;40.06406404;Alt Millars
CONSULTORIO AUXILIAR DE CIRAT;C/ HERAS, 1 12231 CIRAT;12231;CIRAT;-0.461629965;40.05635001;Alt Millars
CENTRO DE SALUD DE COCENTAINA;AVGDA. REAL BLANC, 3 3820 COCENTAINA;3820;COCENTAINA;-0.436500013;38.74460999;El Comtat
UNIDAD BÁSICA DE REHABILITACIÓN DEL C.S. DE COCENTAINA;AVGDA. REAL BLANC, 3 3820 COCENTAINA;3820;COCENTAINA;-0.436500013;38.74460999;El Comtat
UNIDAD DE SALUD MENTAL INFANTIL DEL C.S. DE COCENTAINA;AVGDA. REAL BLANC, 3 3820 COCENTAINA;3820;COCENTAINA;-0.436500013;38.74460999;El Comtat
CENTRO DE SALUD DE COFRENTES;COLON, 16 46625 COFRENTES;46625;COFRENTES;-1.061220021;39.22954001;La Vall d'Aiora
CONSULTORIO AUXILIAR DE CONFRIDES;ALICANTE, 5 3517 CONFRIDES;3517;CONFRIDES;-0.269789994;38.68368001;La Marina Baixa
CONSULTORIO AUXILIAR DE CONFRIDES ABDET;ARRIBA, 35 3517 CONFRIDES;3517;CONFRIDES;-0.267563107;38.676185;La Marina Baixa
CONSULTORIO AUXILIAR DE CORBERA;C/ CALVARIO Nº11, null 46612 CORBERA;46612;CORBERA;-0.355223323;39.15620144;Ribera Baixa
CONSULTORIO AUXILIAR SAN VICENTE DE PIEDRAHITA;C/ MIGUEL GARRIDO MARIN, 1 12126 CORTES DE ARENOSO;12126;CORTES DE ARENOSO;-0.501568887;40.13839108;Alt Millars
CONSULTORIO AUXILIAR DE CORTES DE ARENOSO;C/ MAYOR S/N, null 12127 CORTES DE ARENOSO;12127;CORTES DE ARENOSO;-0.52741;40.20490972;Alt Millars
CONSULTORIO AUXILIAR DE CORTES DE PALLAS VIÑUELAS;VIÑUELAS, null 46199 CORTES DE PALLAS;46199;CORTES DE PALLAS;-0.938163202;39.217995;La Vall d'Aiora
CONSULTORIO AUXILIAR DE CORTES DE PALLAS VENTA DE GAETA;VENTA DE GAETA, null 46199 CORTES DE PALLAS;46199;CORTES DE PALLAS;-0.938163202;39.217995;La Vall d'Aiora
CONSULTORIO AUXILIAR DE CORTES DE PALLAS EL ORO;EL ORO, null 46199 CORTES DE PALLAS;46199;CORTES DE PALLAS;-0.938163202;39.217995;La Vall d'Aiora
CONSULTORIO AUXILIAR DE CORTES DE PALLAS LA CABEZUELA;LA CABEZUELA, null 46199 CORTES DE PALLAS;46199;CORTES DE PALLAS;-1.031799918;39.32238004;La Vall d'Aiora
CONSULTORIO AUXILIAR DE CORTES DE PALLAS CASTIBLANQUES;CASTIBLANQUES, null 46199 CORTES DE PALLAS;46199;CORTES DE PALLAS;-0.938163202;39.217995;La Vall d'Aiora
CONSULTORIO AUXILIAR DE CORTES DE PALLAS;C/ DOCTOR SANCHEZ URZAIZ, 1 46199 CORTES DE PALLAS;46199;CORTES DE PALLAS;-0.940586268;39.243101;La Vall d'Aiora
CONSULTORIO AUXILIAR DE COSTUR;PLAÇA MAJOR, S/N 12119 COSTUR;12119;COSTUR;-0.173453891;40.12007845;L'Alcalatén
CONSULTORIO AUXILIAR DE COTES;SANCHIS OLIAG, 7 46294 COTES;46294;COTES;-0.576279983;39.07155999;Ribera Alta
CENTRO DE SALUD DE LES COVES DE VINROMA;C/ TRAVESIA, 1 12185 COVES DE VINROMA (LES);12185;COVES DE VINROMA (LES);0.118200006;40.30848;Plana Alta
UNIDAD BÁSICA DE REHABILITACIÓN DEL C.S. DE LES COVES DE VINROMA;TRAVESIA, 1 12185 COVES DE VINROMA (LES);12185;COVES DE VINROMA (LES);0.118200006;40.30848;Plana Alta
CONSULTORIO AUXILIAR DE COX;C/ESCORIAL S/N, S/N 3350 COX;3350;COX;-0.891789972;38.14106264;Baix Segura
UNIDAD BÁSICA DE REHABILITACIÓN DEL C.A. DE COX;ESCORIAL, S/N 3350 COX;3350;COX;-0.891789972;38.14106264;Baix Segura
CENTRO SANITARIO INTEGRADO DE CREVILLENT;TRAVESIA VEREDA FOTJES Y VIAL PARQUE, S/N 3330 CREVILLENT;3330;CREVILLENT;-0.800111189;38.24915183;El Baix Vinalopo
CONSULTORIO AUXILIAR DE CREVILLENT SAN FELIPE NERI;CURA GARCIA BERNABE, S/N 3158 CREVILLENT;3158;CREVILLENT;-0.798029622;38.17674424;El Baix Vinalopo
CONSULTORIO AUXILIAR DE CREVILLENT EL REALENGO;CANAL, S/N 3339 CREVILLENT;3339;CREVILLENT;-0.81736;38.25341;El Baix Vinalopo
UNIDAD BÁSICA DE REHABILITACIÓN DEL C.S.I. DE CREVILLENT;TRAVESIA VEREDA FOTJES Y VIAL PARQUE, S/N 3330 CREVILLENT;3330;CREVILLENT;-0.800111189;38.24915183;El Baix Vinalopo
UNIDAD DE ODONTOLOGIA DE CREVILLENT;FOCHES Y VIAL PARQUE, S/N 3330 CREVILLENT;3330;CREVILLENT;-0.804640355;38.24995502;El Baix Vinalopo
CENTRO DE SALUD SEXUAL Y REPRODUCTIVA DE CREVILLENT;FOCHES Y VIAL PARQUE, S/N 3330 CREVILLENT;3330;CREVILLENT;-0.804640355;38.24995502;El Baix Vinalopo
CENTRO DE SALUD MENTAL DE CREVILLENT;FOCHES Y VIAL PARQUE, S/N 3330 CREVILLENT;3330;CREVILLENT;-0.804640355;38.24995502;El Baix Vinalopo
CONSULTORIO AUXILIAR PLA DE LES VINYES (CULLA);MASIA PIO, 2 12163 CULLA;12163;CULLA;-0.125596618;40.291375;Alt Maestrat
CONSULTORIO AUXILIAR DE CULLA;C/SAULONS, S/N 12163 CULLA;12163;CULLA;-0.165647487;40.33687497;Alt Maestrat
CENTRO SANITARIO INTEGRADO DE CULLERA;AV. DIAGONAL PAIS València, 4 46400 CULLERA;46400;CULLERA;-0.253660027;39.16207998;Ribera Baixa
CENTRO DE SALUD DE CULLERA RAVAL;València, 119 46400 CULLERA;46400;CULLERA;-0.259257765;39.17052541;Ribera Baixa
CONSULTORIO AUXILIAR DE CULLERA MARENY DE SANT LLORENÇ;GOMEZ TRENOR, 4 46408 CULLERA;46408;CULLERA;-0.25418004;39.21971998;Ribera Baixa
CONSULTORIO AUXILIAR DE CULLERA EL RACO;C/ CIUDADES UNIDAS, S/N 46400 CULLERA;46400;CULLERA;-0.231854925;39.18140004;Ribera Baixa
CONSULTORIO AUXILIAR DE CULLERA OASIS;PLZA CONSTITUCION, S/N 46400 CULLERA;46400;CULLERA;-0.24219292;39.16591417;Ribera Baixa
CONSULTORIO AUXILIAR DE CULLERA EL FARO;DR FLEMING, S/N 46400 CULLERA;46400;CULLERA;-0.264835;39.1726638;Ribera Baixa
CONSULTORIO DE VERANO DE CULLERA EL BROSQUIL;C/ LA ERMITA, S/N 46400 CULLERA;46400;CULLERA;-0.254447811;39.18570838;Ribera Baixa
UNIDAD BASICA DE REHABILITACION DEL C.S.I. DE CULLERA;AVDA. PAIS València, S/N 46400 CULLERA;46400;CULLERA;-0.244575013;39.16169866;Ribera Baixa
UNIDAD DE ODONTOLOGIA DE CULLERA;AVDA. DIAGONAL PAIS VALENÇIA, 4 46400 CULLERA;46400;CULLERA;-0.253660027;39.16207998;Ribera Baixa
CENTRO DE SALUD SEXUAL Y REPRODUCTIVA DE CULLERA;València, 119 46400 CULLERA;46400;CULLERA;-0.259257765;39.17052541;Ribera Baixa
CONSULTORIO AUXILIAR DE DAIMUS PLAYA;MISTRAL, 3 46710 DAIMUS;46710;DAIMUS;-0.147854299;38.97246;La Safor
CONSULTORIO AUXILIAR DE DAIMUS;JOSE MORAN, 2 46710 DAIMUS;46710;DAIMUS;-0.153180035;38.96848999;La Safor
CONSULTORIO AUXILIAR DE DAYA NUEVA;GENERALÍSIMO, 5 3159 DAYA NUEVA;3159;DAYA NUEVA;-0.762139969;38.11410999;Baix Segura
CONSULTORIO AUXILIAR DE DAYA VIEJA;AVDA.PRESIDENTE ADOLFO SUAREZ, 12 3177 DAYA VIEJA;3177;DAYA VIEJA;-0.73731998;38.10440001;Baix Segura
HOSPITAL DE DENIA;PARTIDA DE BENIATLA, S/N 3700 DENIA;3700;DENIA;0.068267018;38.8368208;Marina Alta
CENTRO SANITARIO INTEGRADO DE DENIA;PARTIDA PLANA EST, 4 3700 DENIA;3700;DENIA;0.089399061;38.83696972;Marina Alta
CENTRO SANITARIO INTEGRADO DENIA II;C/ MESTRE CARDONA, S/N 3700 DENIA;3700;DENIA;0.111715095;38.83770005;Marina Alta
CONSULTORIO AUXILIAR DE JESUS POBRE;PLAÇA POU DE LA MURTERA, 3 BJ 3749 DENIA;3749;DENIA;0.085054186;38.79862;Marina Alta
CONSULTORIO AUXILIAR DE DENIA LA XARA;METGE SERRANO, 2 3700 DENIA;3700;DENIA;0.108080031;38.83723002;Marina Alta
CONSULTORIO DE VERANO DENIA LES MARINES;CARRETERA LES MARINES, 194 3700 DENIA;3700;DENIA;0.059249997;38.85857001;Marina Alta
UNIDAD BÁSICA DE REHABILITACIÓN DEL C.S.I. DE DENIA;PARTIDA PLANA EST, null 3700 DENIA;3700;DENIA;0.088166075;38.83633465;Marina Alta
UNIDAD DE ODONTOLOGIA DE DENIA;PARTIDA PLANA EST, 4 3700 DENIA;3700;DENIA;0.089399061;38.83696972;Marina Alta
CENTRO DE SALUD SEXUAL Y REPRODUCTIVA DE DENIA;PARTIDA PLANA EST, S/N 3700 DENIA;3700;DENIA;0.088166075;38.83633465;Marina Alta
CENTRO DE SALUD MENTAL INFANTIL DE DENIA;PARTIDA PLANA EST, 4 3802 DENIA;3802;DENIA;0.089399061;38.83696972;Marina Alta
CENTRO DE SALUD MENTAL DE DENIA;C/ MESTRE CARDONA, S/N 3700 DENIA;3700;DENIA;0.111715095;38.83770005;Marina Alta
CENTRO DE CONDUCTAS ADICTIVAS DE DENIA;AVDA. JOAN FUSTER, 14 3700 DENIA;3700;DENIA;0.108777447;38.83576321;Marina Alta
CENTRO DE PREVENCION DE CANCER DE MAMA DE DENIA;PLAZA JAUME I, 5 3700 DENIA;3700;DENIA;0.102240024;38.83549002;Marina Alta
CENTRO DE SALUD DE DOLORES;C/22 DE DICIEMBRE, 3 3150 DOLORES;3150;DOLORES;-0.771442116;38.13954958;Baix Segura
UNIDAD BÁSICA DE REHABILITACIÓN DEL C.S. DE DOLORES;22 DE DICIEMBRE, 3 3150 DOLORES;3150;DOLORES;-0.771442116;38.13954958;Baix Segura
CONSULTORIO AUXILIAR DE DOMEÑO;TURIA, S/N 46174 DOMEÑO;46174;DOMEÑO;-0.672852571;39.66022324;Els serrans
CONSULTORIO AUXILIAR DE DOS AGUAS;AVDA MARQUES DE DOS AGUAS, 1 46198 DOS AGUAS;46198;DOS AGUAS;-0.800270001;39.28890002;La Foia de Bunyol
HOSPITAL GENERAL UNIVERSITARIO DE ELCHE;CAMINO DE LA ALMAZARA, 11 3203 ELCHE/ELX;3203;ELCHE/ELX;-0.688526948;38.25972733;El Baix Vinalopo
CENTRO DE SALUD DE ELX / ELCHE L'ALTET;AV. DAMA DE ELCHE, 32 3195 ELCHE/ELX;3195;ELCHE/ELX;-0.537219979;38.27210999;El Baix Vinalopo
CENTRO DE SALUD DE ELX / ELCHE SAN FERMIN;JORGE JUAN, 46 3201 ELCHE/ELX;3201;ELCHE/ELX;-0.70665001;38.26867002;El Baix Vinalopo
CENTRO DE SALUD DE ELX / ELCHE PLA;C/ MANUEL ALCARAZ MORA, 13 3204 ELCHE/ELX;3204;ELCHE/ELX;-0.703111082;38.25473965;El Baix Vinalopo
CENTRO DE SALUD DE ELX / ELCHE ALTABIX;C/ ANTONIO MORA FERRÁNDEZ, 51 3202 ELCHE/ELX;3202;ELCHE/ELX;-0.681609996;38.27311;El Baix Vinalopo
CENTRO DE SALUD DE ELX / ELCHE EL RAVAL;CAMI DE FELIP, S/N 3203 ELCHE/ELX;3203;ELCHE/ELX;-0.694817875;38.25876984;El Baix Vinalopo
CONSULTORIO AUXILIAR DE ELX / ELCHE PERLETA MAITINO;AVD. DE PERLETA, 16 3295 ELCHE/ELX;3295;ELCHE/ELX;-0.652398566;38.27742159;El Baix Vinalopo
CONSULTORIO AUXILIAR DE ELX / ELCHE TORRELLANO;PL. MAESTRO ANTONIO CUTILLAS, 1 3320 ELCHE/ELX;3320;ELCHE/ELX;-0.584825182;38.295855;El Baix Vinalopo
CONSULTORIO AUXILIAR DE ELX / ELCHE LOS ARENALES;SAN BARTOLOME DE TIRAJANA, S/N 3195 ELCHE/ELX;3195;ELCHE/ELX;-0.517054356;38.25051767;El Baix Vinalopo
CONSULTORIO AUXILIAR DE ELX / ELCHE VALVERDE;AVDA. DE VALVERDE, 17 3139 ELCHE/ELX;3139;ELCHE/ELX;-0.595136979;38.23718735;El Baix Vinalopo
CONSULTORIO AUXILIAR DE ELX / ELCHE LA FOIA;TRANSFORMADOR, S/N 3294 ELCHE/ELX;3294;ELCHE/ELX;-0.687123306;38.21189893;El Baix Vinalopo
CONSULTORIO AUXILIAR DE ELX / ELCHE MARINA;PTDA. LA MARINA, P-0, 283 3194 ELCHE/ELX;3194;ELCHE/ELX;-0.635605954;38.14132332;El Baix Vinalopo
CONSULTORIO AUXILIAR DE ELX / ELCHE LES BAIES;LA CASILLA, 2 3292 ELCHE/ELX;3292;ELCHE/ELX;-0.638681286;38.2184575;El Baix Vinalopo
UNIDAD BÁSICA DE REHABILITACIÓN DEL C.S. DE ELX / ELCHE L'ALTET;AVDA. DAMADE ELCHE, 32 3195 ELCHE/ELX;3195;ELCHE/ELX;-0.537219979;38.27210999;El Baix Vinalopo
UNIDAD BÁSICA DE REHABILITACIÓN DEL C.S. DE ELX / ELCHE ALTABIX;ANTONIO MORA FERNANDEZ, 51 3202 ELCHE/ELX;3202;ELCHE/ELX;-0.681609996;38.27311;El Baix Vinalopo
UNIDAD BÁSICA DE REHABILITACIÓN DEL C.S. DE ELX / ELCHE EL RAVAL;CAMI DE FELIP, S/N 3203 ELCHE/ELX;3203;ELCHE/ELX;-0.694817875;38.25876984;El Baix Vinalopo
UNIDAD DE ODONTOLOGIA DE ELCHE/ELX L'ALTET;AV. DAMA DE ELCHE, 32 3195 ELCHE/ELX;3195;ELCHE/ELX;-0.537219979;38.27210999;El Baix Vinalopo
UNIDAD DE ODONTOLOGIA DE EXL/ELCHE SAN FERMIN;JORGE JUAN, 46 3201 ELCHE/ELX;3201;ELCHE/ELX;-0.70665001;38.26867002;El Baix Vinalopo
UNIDAD DE ODONTOLOGIA DE ELX/ELCHE ALTABIX;ANTONIO MORA FERRANDEZ, 51 3202 ELCHE/ELX;3202;ELCHE/ELX;-0.681609996;38.27311;El Baix Vinalopo
UNIDAD DE ODONTOLOGIA DE ELX / ELCHE EL PLA;MANUEL ALCARAZ MORA, 13 3204 ELCHE/ELX;3204;ELCHE/ELX;-0.703111082;38.25473965;El Baix Vinalopo
UNIDAD DE ODONTOLOGIA DE ELX / ELCHE RAVAL;CAMINO FELIP, S/N 3203 ELCHE/ELX;3203;ELCHE/ELX;-0.694817875;38.25876984;El Baix Vinalopo
CENTRO DE SALUD SEXUAL Y REPRODUCTIVA DE ELX/ELCHE L'ALTET;AV. DAMA DE ELCHE, 32 3195 ELCHE/ELX;3195;ELCHE/ELX;-0.537219979;38.27210999;El Baix Vinalopo
CENTRO DE SALUD SEXUAL Y REPRODUCTIVA DE ELX/ELCHE SAN FERMIN;JORGE JUAN, 46 3201 ELCHE/ELX;3201;ELCHE/ELX;-0.70665001;38.26867002;El Baix Vinalopo
CENTRO DE SALUD SEXUAL Y REPRODUCTIVA DE ELX / ELCHE ALTABIX;C/ ANTONIO MORA FERRANDEZ, 51 3202 ELCHE/ELX;3202;ELCHE/ELX;-0.681609996;38.27311;El Baix Vinalopo
CENTRO DE SALUD MENTAL INFANTIL DE ELX / ELCHE II;CAMINO FELIP, S/N 3203 ELCHE/ELX;3203;ELCHE/ELX;-0.694817875;38.25876984;El Baix Vinalopo
CENTRO DE SALUD MENTAL DE ELX / ELCHE RAVAL;CAMINO FELIP, S/N 3203 ELCHE/ELX;3203;ELCHE/ELX;-0.694817875;38.25876984;El Baix Vinalopo
CENTRO DE SALUD MENTAL DE ELX / ELCHE ALTABIX;ANTONIO MORA FERRANDEZ, S/N 3202 ELCHE/ELX;3202;ELCHE/ELX;-0.687445384;38.27107619;El Baix Vinalopo
CENTRO DE ALCOHOLOGIA DE ELX / ELCHE;ANTONIO MORA FERRANDEZ, 51 3202 ELCHE/ELX;3202;ELCHE/ELX;-0.681609996;38.27311;El Baix Vinalopo
CENTRO DE CONDUCTAS ADICTIVAS DE ELX/ELCHE SAN FERMIN;ANTONIO MORA FERNÁNDEZ, 51 3202 ELCHE/ELX;3202;ELCHE/ELX;-0.681609996;38.27311;El Baix Vinalopo
CENTRO DE PREVENCION DE CANCER DE MAMA DE ELX / ELCHE;ANTONIO MORA FERRANDEZ,, 51 3202 ELCHE/ELX;3202;ELCHE/ELX;-0.681609996;38.27311;El Baix Vinalopo
HOSPITAL UNIVERSITARIO VINALOPO;TONICO SANSANO MORA, 14 3293 ELCHE/ELX;3293;ELCHE/ELX;-0.710690003;38.27619999;El Baix Vinalopo
CENTRO DE SALUD DE ELX / ELCHE DR. SAPENA;DR. SAPENA, 91 3201 ELCHE/ELX;3201;ELCHE/ELX;-0.711619975;38.26232002;El Baix Vinalopo
CENTRO DE SALUD DE ELX / ELCHE CARRUS;C/ ALFREDO SÁNCHEZ TORRES, 8 3206 ELCHE/ELX;3206;ELCHE/ELX;-0.710439971;38.27826998;El Baix Vinalopo
CENTRO DE SALUD DE ELX / ELCHE EL TOSCAR;C/ VICENTE FUENTES SANSANO, 36 3205 ELCHE/ELX;3205;ELCHE/ELX;-0.715581561;38.26950055;El Baix Vinalopo
CENTRO DE SALUD DE ELX / ELCHE PLA-VINALOPO;TONICO SANSANO MORA, 14 3293 ELCHE/ELX;3293;ELCHE/ELX;-0.710690003;38.27619999;El Baix Vinalopo
CONSULTORIO AUXILIAR DE ELX / ELCHE DOCTOR ALBERTO GARCIA;C/ ANDREU CASTILLEJOS, 27 3201 ELCHE/ELX;3201;ELCHE/ELX;-0.703980414;38.26351017;El Baix Vinalopo
UNIDAD BÁSICA DE REHABILITACIÓN DEL C.S. DE ELX / ELCHE DR. SAPENA;DR. SAPENA, 91 3201 ELCHE/ELX;3201;ELCHE/ELX;-0.711619975;38.26232002;El Baix Vinalopo
UNIDAD BÁSICA DE REHABILITACIÓN DEL C.S. DE ELX / ELCHE CARRUS;ALFREDO SANCHEZ TORRES, 8 3206 ELCHE/ELX;3206;ELCHE/ELX;-0.710439971;38.27826998;El Baix Vinalopo
UNIDAD BÁSICA DE REHABILITACIÓN DEL C.S. DE ELX / ELCHE EL TOSCAR;VICENTE FUENTES SANSANO, 36 3205 ELCHE/ELX;3205;ELCHE/ELX;-0.715581561;38.26950055;El Baix Vinalopo
UNIDAD DE ODONTOLOGIA DE ELX/ELCHE TOSCAR;VICENTE FUENTES SANSANO, 36 3205 ELCHE/ELX;3205;ELCHE/ELX;-0.715581561;38.26950055;El Baix Vinalopo
UNIDAD DE ODONTOLOGIA DE ELX / ELCHE DOCTOR SAPENA;DR. SAPENA, 91 3201 ELCHE/ELX;3201;ELCHE/ELX;-0.711619975;38.26232002;El Baix Vinalopo
UNIDAD DE ODONTOLOGIA DE ELX / ELCHE CARRUS;ALFREDO SANCHEZ TORRES, 8 3206 ELCHE/ELX;3206;ELCHE/ELX;-0.710439971;38.27826998;El Baix Vinalopo
CENTRO DE SALUD SEXUAL Y REPRODUCTIVA DE ELX / ELCHE SAPENA 2;DR. SAPENA, 91 3201 ELCHE/ELX;3201;ELCHE/ELX;-0.711619975;38.26232002;El Baix Vinalopo
CENTRO DE SALUD MENTAL DE ELX / ELCHE TOSCAR;VICENTE FUENTES SANSANO, 36 3205 ELCHE/ELX;3205;ELCHE/ELX;-0.715581561;38.26950055;El Baix Vinalopo
CENTRO DE CONDUCTAS ADICTIVAS DE ELX / ELCHE TOSCAR;VICENTE FUENTES SANSANO, 36 3205 ELCHE/ELX;3205;ELCHE/ELX;-0.715581561;38.26950055;El Baix Vinalopo
HOSPITAL GENERAL UNIVERSITARIO DE ELDA - VIRGEN DE LA SALUD;CTRA. ELDA-SAX, PTDA. LA TORRETA, S/N 3600 ELDA;3600;ELDA;-0.799538487;38.49356346;Vinalopó Mitjà
CENTRO DE ESPECIALIDADES DE ELDA;PADRE MANJON, 5 3600 ELDA;3600;ELDA;-0.795440013;38.47513;Vinalopó Mitjà
CENTRO DE SALUD DE ELDA ACACIAS;AVDA. LAS ACACIAS, 31 3600 ELDA;3600;ELDA;-0.787929995;38.47327999;Vinalopó Mitjà
CENTRO DE SALUD DE ELDA MARINA ESPAÑOLA;C/ MARINA ESPAÑOLA, S/N 3600 ELDA;3600;ELDA;-0.799961339;38.47508255;Vinalopó Mitjà
CONSULTORIO AUXILIAR DE ELDA AVDA. SAX;AVDA SAX, S/N 3600 ELDA;3600;ELDA;-0.79824637;38.48385642;Vinalopó Mitjà
UNIDAD BÁSICA DE REHABILITACIÓN DEL C.S. DE ELDA MARINA ESPAÑOLA;MARINA ESPAÑOL, S/N 3600 ELDA;3600;ELDA;-0.824898292;38.47171;Vinalopó Mitjà
UNIDAD DE ODONTOLOGIA DE ELDA;AVDA. DE LAS ACACIAS, 31 3600 ELDA;3600;ELDA;-0.787929995;38.47327999;Vinalopó Mitjà
CENTRO DE SALUD SEXUAL Y REPRODUCTIVA DE ELDA;AVDA. ACACIAS, 31 3600 ELDA;3600;ELDA;-0.787929995;38.47327999;Vinalopó Mitjà
CENTRO DE SALUD MENTAL INFANTIL DE ELDA;AVDA. DE LAS ACACIAS, 31-3ª 3600 ELDA;3600;ELDA;-0.787929995;38.47327999;Vinalopó Mitjà
CENTRO DE SALUD MENTAL DE ELDA;AVDA. LAS ACACIAS, 31 3600 ELDA;3600;ELDA;-0.787929995;38.47327999;Vinalopó Mitjà
CENTRO DE CONDUCTAS ADICTIVAS DE ELDA;MAESTRO GRANADOS, 22 3600 ELDA;3600;ELDA;-0.799605105;38.48450756;Vinalopó Mitjà
CENTRO DE PREVENCION DE CANCER DE MAMA DE ELDA;MAGALLANES, 16 3600 ELDA;3600;ELDA;-0.78834954;38.4734552;Vinalopó Mitjà
CENTRO DE SALUD DE L'ELIANA;C/ROSALES, 23 46183 ELIANA (L');46183;ELIANA (L');-0.534099983;39.56286001;Camp de Túria
CENTRO DE SALUD SEXUAL Y REPRODUCTIVA DE L'ELIANA;LOS ROSALES, 23 46183 ELIANA (L');46183;ELIANA (L');-0.534099983;39.56286001;Camp de Túria
CONSULTORIO AUXILIAR DE EMPERADOR;PLAÇA DE L'AJUNTAMENT, 2 46135 EMPERADOR;46135;EMPERADOR;-0.33877004;39.55454998;Horta Nord
CENTRO DE SALUD DE ENGUERA;AV. CONSTITUCIÓN, S/N 46810 ENGUERA;46810;ENGUERA;-0.684788274;38.98339662;La Canal de Navarrés
CONSULTORIO AUXILIAR DE ENGUERA NAVALON;PLAZA VIRGEN DE BELEN, S/N 46810 ENGUERA;46810;ENGUERA;-0.68894931;38.9785638;La Canal de Navarrés
CONSULTORIO AUXILIAR DE L'ENOVA;CERVANTES, 42 46669 ENOVA (L');46669;ENOVA (L');-0.479739988;39.04380001;Ribera Alta
CONSULTORIO AUXILIAR DE ESLIDA;FRANCISCO MONDRAGÓN, 2 12528 ESLIDA;12528;ESLIDA;-0.307790022;39.88134999;Plana Baixa
CONSULTORIO AUXILIAR DE ESPADILLA;ABADIA, 1 12230 ESPADILLA;12230;ESPADILLA;-0.354849966;40.02664999;Alt Millars
CENTRO DE SALUD DE ESTIVELLA;SEGORBE, S/N 46590 ESTIVELLA;46590;ESTIVELLA;-0.348806706;39.71403857;Camp de Morvedre
CENTRO DE SALUD MENTAL DE ESTIVELLA;SEGORBE, S/N 46590 ESTIVELLA;46590;ESTIVELLA;-0.348806706;39.71403857;Camp de Morvedre
CONSULTORIO AUXILIAR DE ESTUBENY;CORAZON DE JESUS, S/N 46820 ESTUBENY;46820;ESTUBENY;-0.62366181;39.01794876;La Costera
CONSULTORIO AUXILIAR DE FACHECA;PZA. LA IGLESIA, S/N 3813 FACHECA;3813;FACHECA;-0.267761252;38.73449981;El Comtat
CONSULTORIO AUXILIAR DE FAMORCA;FORN, 1 3813 FAMORCA;3813;FAMORCA;-0.246600034;38.73123;El Comtat
CONSULTORIO AUXILIAR DE FANZARA;TURIO, S/N 12230 FANZARA;12230;FANZARA;-0.317504942;40.01841006;Alt Millars
CENTRO DE SALUD DE FAURA;DR. FLEMING, 7 46511 FAURA;46511;FAURA;-0.270129964;39.7274;Camp de Morvedre
CONSULTORIO AUXILIAR DE FAVARA;LEPANTO, 2 46614 FAVARA;46614;FAVARA;-0.29046924;39.12849107;Ribera Baixa
CONSULTORIO AUXILIAR DE FIGUEROLES;L'ALCORA, 14 12122 FIGUEROLES;12122;FIGUEROLES;-0.237389999;40.11701001;L'Alcalatén
CONSULTORIO AUXILIAR DE FINESTRAT LA CALA;AVDA. MARINA BAIXA, 27 3502 FINESTRAT;3502;FINESTRAT;-0.168199986;38.53167;La Marina Baixa
CONSULTORIO AUXILIAR DE FINESTRAT;CARRER SERRA CORTINA Nº 5, 5 3509 FINESTRAT;3509;FINESTRAT;-0.213372763;38.56835016;La Marina Baixa
CENTRO DE SALUD DE FOIOS;AUSIAS MARCH, S/N 46134 FOIOS;46134;FOIOS;-0.352507572;39.53546729;Horta Nord
UNIDAD BASICA DE REHABILITACION DEL C.S. DE FOIOS;AUSIAS MARCH, S/N 46134 FOIOS;46134;FOIOS;-0.352507572;39.53546729;Horta Nord
CENTRO DE SALUD MENTAL DE FOIOS;AVDA. AUSIAS MARCH, S/N 46134 FOIOS;46134;FOIOS;-0.352507572;39.53546729;Horta Nord
CONSULTORIO AUXILIAR DE HONDON DE LAS NIEVES LA CANALOSA;AVDA. DEL SALVADOR, S/N 3689 FONDO DE LES NEUS (EL)/HONDON DE LAS NIEVES;3689;FONDO DE LES NEUS (EL)/HONDON DE LAS NIEVES;-0.85481;38.30874;Vinalopó Mitjà
CONSULTORIO AUXILIAR DE HONDON DE LAS NIEVES;VIRGEN DE LAS NIEVES, S/N 3688 FONDO DE LES NEUS (EL)/HONDON DE LAS NIEVES;3688;FONDO DE LES NEUS (EL)/HONDON DE LAS NIEVES;-0.851735987;38.30877239;Vinalopó Mitjà
CONSULTORIO AUXILIAR DE LA FONT DE LA FIGUERA;HISTORIADOR ROS, 4 46630 FONT DE LA FIGUERA (LA);46630;FONT DE LA FIGUERA (LA);-0.879249992;38.80439999;La Costera
CONSULTORIO AUXILIAR DE LA FONT D'EN CARROS;C/SAN ISIDRO, 10 46717 FONT D'EN CARROS (LA);46717;FONT D'EN CARROS (LA);-0.172850015;38.91590001;La Safor
CONSULTORIO AUXILIAR DE FONTANARS DELS ALFORINS;CONDE SALVATIERRA, 37 46635 FONTANARS DELS ALFORINS;46635;FONTANARS DELS ALFORINS;-0.784360288;38.781559;La Vall d'Albaida
CENTRO DE SALUD DE FORCALL;C/ EXTRAMUROS, S/N 12310 FORCALL;12310;FORCALL;-0.201371098;40.64490209;Els Ports
CONSULTORIO AUXILIAR DE FORMENTERA DEL SEGURA LOS PALACIOS;BENIJOFAR, 9 3179 FORMENTERA DEL SEGURA;3179;FORMENTERA DEL SEGURA;-0.727786073;38.08942291;Baix Segura
CONSULTORIO AUXILIAR DE FORMENTERA DEL SEGURA;PL CAUDILLO 1, null 3160 FORMENTERA DEL SEGURA;3160;FORMENTERA DEL SEGURA;-0.74661;38.08638;Baix Segura
CONSULTORIO AUXILIAR DE FORTALENY;CAMINAT, 1 46418 FORTALENY;46418;FORTALENY;-0.316460012;39.18359;Ribera Baixa
CONSULTORIO AUXILIAR DE FUENTE LA REINA;MAYOR, 3 12428 FUENTE LA REINA;12428;FUENTE LA REINA;-0.609290013;40.06411999;Alt Millars
CONSULTORIO AUXILIAR DE FUENTERROBLES;SANTIAGO, 31 46314 FUENTERROBLES;46314;FUENTERROBLES;-1.362769968;39.58590002;La Plana d'Utiel-Requena
CONSULTORIO AUXILIAR DE FUENTES DE AYODAR;CARRETERA AYODAR, S/N 12225 FUENTES DE AYODAR;12225;FUENTES DE AYODAR;-0.421257726;40.02078006;Alt Millars
CONSULTORIO AUXILIAR DE GAIANES;EL FORN, 1 3840 GAIANES;3840;GAIANES;-0.408059964;38.81250001;El Comtat
CONSULTORIO AUXILIAR DE GAIBIEL;CONSTITUCION, 3 12415 GAIBIEL;12415;GAIBIEL;-0.495399982;39.92600999;Alt Palància
HOSPITAL FRANCESC DE BORJA DE GANDIA;AVDA. DE LA MEDICINA, 6 46702 GANDIA;46702;GANDIA;-0.170149087;38.96510044;La Safor
CENTRO DE ESPECIALIDADES DE GANDIA;AVINGUDA DE LA MEDICINA, 6 46700 GANDIA;46700;GANDIA;-0.170149087;38.96510044;La Safor
CENTRO DE SALUD DE GANDIA GRAU;C/LA GOLETA, 17, S/N 46730 GANDIA;46730;GANDIA;-0.162965681;38.99114244;La Safor
CENTRO DE SALUD DE GANDIA BENIOPA;AV. BENIOPA, 33, 33 46702 GANDIA;46702;GANDIA;-0.186909987;38.96986999;La Safor
CENTRO DE SALUD DE GANDIA COREA;BENISSUAI, 22, 22 46701 GANDIA;46701;GANDIA;-0.178740439;38.97465943;La Safor
CONSULTORIO AUXILIAR DE BENIPEIXCAR;SANTS DE LA PEDRA, S/N 46702 GANDIA;46702;GANDIA;-0.188495966;38.96091089;La Safor
CONSULTORIO AUXILIAR DE GANDIA BENIOPA;MAESTRO MICHAVILA, 1 46702 GANDIA;46702;GANDIA;-0.193000026;38.96993;La Safor
CONSULTORIO AUXILIAR DE GANDIA RAVAL;DELS PELLERS, 66 46702 GANDIA;46702;GANDIA;-0.182110006;38.96121002;La Safor
UNIDAD DE ODONTOLOGIA DE GANDIA BENISSUAI;BENISSUAI, 22 46700 GANDIA;46700;GANDIA;-0.178740439;38.97465943;La Safor
CENTRO DE SALUD SEXUAL Y REPRODUCTIVA DE GANDIA;BENISSUAI, 22 46700 GANDIA;46700;GANDIA;-0.178740439;38.97465943;La Safor
CENTRO DE SALUD MENTAL INFANTIL DE GANDIA;AVINGUDA DE LAMEDICINA, 6 46700 GANDIA;46700;GANDIA;-0.170149087;38.96510044;La Safor
CENTRO DE SALUD MENTAL DE GANDIA 1;AVINGUDA DE LA MEDICINA, 6 46700 GANDIA;46700;GANDIA;-0.170149087;38.96510044;La Safor
CENTRO DE ALCOHOLOGIA DE GANDIA;BENISSUAI, 22 46700 GANDIA;46700;GANDIA;-0.178740439;38.97465943;La Safor
CENTRO DE CONDUCTAS ADICTIVAS DE GANDIA;BENISSUAI, 22 46700 GANDIA;46700;GANDIA;-0.178740439;38.97465943;La Safor
CENTRO DE PREVENCION DE CANCER DE MAMA DE GANDIA;AVINGUDA DE LA MEDICINA, 6 46700 GANDIA;46700;GANDIA;-0.170149087;38.96510044;La Safor
CENTRO DE SALUD DE GATA DE GORGOS;CAMI DE LES SORTS, S/N 3740 GATA DE GORGOS;3740;GATA DE GORGOS;0.088927306;38.77669121;Marina Alta
CONSULTORIO AUXILIAR DE GATOVA;PARQUE CORTES ValènciaNAS, S/N 46169 GATOVA;46169;GATOVA;-0.527253402;39.76642987;Camp de Túria
CONSULTORIO AUXILIAR DE GAVARDA;CALLE 3, 1 46267 GAVARDA;46267;GAVARDA;-0.545689976;39.09013999;Ribera Alta
CONSULTORIO AUXILIAR DE GELDO;CASTELLON, S/N 12412 GELDO;12412;GELDO;-0.467398795;39.83556605;Alt Palància
CONSULTORIO AUXILIAR DE EL GENOVES;SAN ISIDRO, S/N 46894 GENOVES (EL);46894;GENOVES (EL);-0.466735946;38.98946877;La Costera
CONSULTORIO AUXILIAR DE GESTALGAR;ACEQUIA, 2 46166 GESTALGAR;46166;GESTALGAR;-0.836110013;39.60343999;Els serrans
CONSULTORIO AUXILIAR DE GILET;CANÓNIGO GIMENO, 5 46149 GILET;46149;GILET;-0.322400015;39.67886002;Camp de Morvedre
CENTRO DE SALUD DE GODELLA;C/ SAN SEBASTIAN, S/N 46110 GODELLA;46110;GODELLA;-0.415581387;39.52193628;Horta Oest
UNIDAD BASICA DE REHABILITACION DEL C.S. DE GODELLA;SAN SEBASTIAN, S/N 46110 GODELLA;46110;GODELLA;-0.415581387;39.52193628;Horta Oest
CENTRO DE SALUD MENTAL DE GODELLA;SAN SEBASTIAN, S/N 46110 GODELLA;46110;GODELLA;-0.415581387;39.52193628;Horta Oest
CONSULTORIO AUXILIAR DE GODELLETA;COMUNIDAD ValènciaNA, S/N 46388 GODELLETA;46388;GODELLETA;-0.685745712;39.4246713;La Foia de Bunyol
CONSULTORIO AUXILIAR DE GORGA;CRTA. CUATRETONDETA, 2 3811 GORGA;3811;GORGA;-0.357469982;38.72077999;El Comtat
CONSULTORIO AUXILIAR DE LA GRANJA DE LA COSTERA;PL/ DE LA IGLESIA, S/N 46813 GRANJA DE LA COSTERA (LA);46813;GRANJA DE LA COSTERA (LA);-0.557016525;38.9960163;La Costera
CONSULTORIO AUXILIAR DE GRANJA DE ROCAMORA;ALCALDE HORACIO MORA, 35 3348 GRANJA DE ROCAMORA;3348;GRANJA DE ROCAMORA;-0.895573487;38.15552332;Baix Segura
CONSULTORIO AUXILIAR DE GUADASSÉQUIES;PLAZA MAYOR, S/N 46839 GUADASSÉQUIES;46839;GUADASSÉQUIES;-0.487037722;38.92492103;La Vall d'Albaida
CENTRO DE SALUD DE GUADASSUAR;GRAN VIA, 81 46610 GUADASSUAR;46610;GUADASSUAR;-0.476910006;39.18828998;Ribera Alta
CONSULTORIO AUXILIAR DE GUARDAMAR DE LA SAFOR;MOLINO, 10 46711 GUARDAMAR DE LA SAFOR;46711;GUARDAMAR DE LA SAFOR;-0.149199972;38.96146001;La Safor
CENTRO SANITARIO INTEGRADO DE GUARDAMAR DEL SEGURA;MOLIVENT, 1 3140 GUARDAMAR DEL SEGURA;3140;GUARDAMAR DEL SEGURA;-0.655700025;38.08832;Baix Segura
CONSULTORIO AUXILIAR DE GUARDAMAR DEL SEGURA EL CAMPO;CTRA. GUARDAMAR/LOS MONTESINOS, 1111 3140 GUARDAMAR DEL SEGURA;3140;GUARDAMAR DEL SEGURA;-0.670138111;38.09298;Baix Segura
UNIDAD DE ODONTOLOGIA DE GUARDAMAR;MOLIVENT, null 3140 GUARDAMAR DEL SEGURA;3140;GUARDAMAR DEL SEGURA;-0.655508564;38.08686376;Baix Segura
CONSULTORIO AUXILIAR DE HERBES;SOL, 1 12317 HERBES;12317;HERBES;-0.004026518;40.72057711;Els Ports
CONSULTORIO AUXILIAR DE HIGUERAS;PZA IGLESIA, S/N 12449 HIGUERAS;12449;HIGUERAS;-0.50310738;39.98371627;Alt Palància
CONSULTORIO AUXILIAR DE HIGUERUELAS;DIPUTACION, 18 46170 HIGUERUELAS;46170;HIGUERUELAS;-0.862019984;39.78917999;Els serrans
CONSULTORIO AUXILIAR DE HONDON DE LOS FRAILES;ENRIQUE PASTOR, 55 3689 HONDON DE LOS FRAILES;3689;HONDON DE LOS FRAILES;-0.925735289;38.27436309;Vinalopó Mitjà
CENTRO SANITARIO INTEGRADO DE IBI II;AV. JAIME I EL CONQUISTADOR, 100 3440 IBI;3440;IBI;-0.573229976;38.62090001;L'Alcoià
CENTRO DE SALUD DE IBI;C/RIU DE LES CAIXES, 8 3440 IBI;3440;IBI;-0.577368979;38.62566938;L'Alcoià
UNIDAD BÁSICA DE REHABILITACIÓN DEL C.S.I. DE IBI II;AVDA. JAIME I EL CONQUISTADOR, 100 3440 IBI;3440;IBI;-0.573229976;38.62090001;L'Alcoià
UNIDAD DE ODONTOLOGIA DE IBI;RIU DE LES CAIXES, 8 3440 IBI;3440;IBI;-0.577368979;38.62566938;L'Alcoià
CENTRO DE SALUD SEXUAL Y REPRODUCTIVA DE IBI;AVDA. JAIME I EL CONQUISTADOR, 100 3440 IBI;3440;IBI;-0.573229976;38.62090001;L'Alcoià
CENTRO DE SALUD MENTAL INFANTIL DE IBI;JAIME I, 90-PB 3440 IBI;3440;IBI;-0.574852557;38.62124185;L'Alcoià
CENTRO DE SALUD MENTAL DE IBI;JAIME I, 90-1ª 3440 IBI;3440;IBI;-0.574852557;38.62124185;L'Alcoià
CONSULTORIO AUXILIAR DE JACARILLA;AVDA. DE LA PAZ, S/N 3310 JACARILLA;3310;JACARILLA;-0.868973094;38.06114052;Baix Segura
CONSULTORIO AUXILIAR DE JALANCE;ISABEL LA CATOLICA, 10 46624 JALANCE;46624;JALANCE;-1.077359962;39.19018002;La Vall d'Aiora
CONSULTORIO AUXILIAR DE LA JANA;XERT, 50 12340 JANA (LA);12340;JANA (LA);0.251219971;40.51193;Baix Maestrat
CONSULTORIO AUXILIAR DE JARAFUEL;C/BOTANICO LORENTE, 1 46623 JARAFUEL;46623;JARAFUEL;-1.073639401;39.14074744;La Vall d'Aiora
CENTRO SANITARIO INTEGRADO XABIA / JAVEA;PL. CONSTITUCIÓ, S/N 3730 JAVEA/XABIA;3730;JAVEA/XABIA;0.161030944;38.78990095;Marina Alta
CENTRO DE SALUD DE XABIA / JAVEA ADUANAS;AVDA. DEL BOTÀNIC CABANILLES, 15 3730 JAVEA/XABIA;3730;JAVEA/XABIA;0.174652614;38.79246448;Marina Alta
CONSULTORIO DE VERANO DE XABIA / JAVEA ARENAL;AVDA. PARIS, 18 3730 JAVEA/XABIA;3730;JAVEA/XABIA;0.138673383;38.787175;Marina Alta
UNIDAD BÁSICA DE REHABILITACIÓN DEL C.S.I. DE XABIA / JAVEA;PL. CONSTITUCIO, S/N 3730 JAVEA/XABIA;3730;JAVEA/XABIA;0.161030944;38.78990095;Marina Alta
UNIDAD DE ODONTOLOGIA DE XABIA / JAVEA;PL. CONSTITUCIÓ, S/N 3730 JAVEA/XABIA;3730;JAVEA/XABIA;0.161030944;38.78990095;Marina Alta
CONSULTORIO AUXILIAR DE JERICA NOVALICHES;NOVALICHES, S/N 12450 JERICA;12450;JERICA;-0.547470055;39.91347789;Alt Palància
CONSULTORIO AUXILIAR DE JERICA;ARENACHOS, S/N 12450 JERICA;12450;JERICA;-0.569007074;39.91287541;Alt Palància
CENTRO DE SALUD DE XIXONA / JIJONA;CORTS ValènciaNES, S/N 3100 JIJONA/XIXONA;3100;JIJONA/XIXONA;-0.505278991;38.53251443;L'Alacantí
UNIDAD BÁSICA DE REHABILITACIÓN DEL C.S. DE XIXONA / JIJONA;CORTS ValènciaNES, S/N null  JIJONA/XIXONA;null ;JIJONA/XIXONA;-0.505278991;38.53251443;L'Alacantí
CONSULTORIO AUXILIAR DE LLANERA DE RANES;CTRA. MADRID, 31 46814 LLANERA DE RANES;46814;LLANERA DE RANES;-0.572569985;38.99194;La Costera
CONSULTORIO AUXILIAR DE LLAURI;C/SAN VICENTE S/N, null 46613 LLAURI;46613;LLAURI;-0.325299944;39.14376504;Ribera Baixa
CONSULTORIO AUXILIAR DE LLIBER;PLAÇA PUBLICA, S/N 3729 LLIBER;3729;LLIBER;0.011035;38.7428267;Marina Alta
HOSPITAL DE LLIRIA;PARATGE CABEÇO DE L'AGUILA, CV-35, S/N 46160 LLIRIA;46160;LLIRIA;-0.635822787;39.69259;Camp de Túria
CENTRO SANITARIO INTEGRADO DE LLIRIA;JOSE PEREZ MARTINEZ, S/N 46160 LLIRIA;46160;LLIRIA;-0.590909925;39.63396504;Camp de Túria
UNIDAD BASICA DE REHABILITACION DEL C.S.I. DE LLIRIA;JOSE PEREZ MARTINEZ, S/N 46160 LLIRIA;46160;LLIRIA;-0.590909925;39.63396504;Camp de Túria
UNIDAD DE ODONTOLOGIA DE LLIRIA;JOSE PEREZ MARTINEZ, S/N 46160 LLIRIA;46160;LLIRIA;-0.590909925;39.63396504;Camp de Túria
CENTRO DE SALUD SEXUAL Y REPRODUCTIVA DE LLIRIA;C/ JOSE PEREZ MARTINEZ, S/N 46160 LLIRIA;46160;LLIRIA;-0.590909925;39.63396504;Camp de Túria
CENTRO DE SALUD MENTAL DE LLIRIA;PLA DE L'ARC, S/N 46160 LLIRIA;46160;LLIRIA;-0.591294908;39.63443505;Camp de Túria
CONSULTORIO AUXILIAR DE LLOCNOU DE SANT JERONI;MONASTERIO DE COTALBA, 1 46668 LLOCNOU DE SANT JERONI;46668;LLOCNOU DE SANT JERONI;-0.285819965;38.91230999;La Safor
CONSULTORIO AUXILIAR DE LLOC NOU D'EN FENOLLET;PLAZA NUEVA, S/N 46668 LLOCNOU D'EN FENOLLET;46668;LLOCNOU D'EN FENOLLET;-0.467617366;39.01436826;La Costera
CONSULTORIO AUXILIAR DE LLOMBAI;FRANCISCO CERDA REIG, 3 46195 LLOMBAI;46195;LLOMBAI;-0.570030017;39.28140002;Ribera Alta
CONSULTORIO AUXILIAR DE LA LLOSA;SAN FELIPE NERI, 5 12591 LLOSA (LA);12591;LLOSA (LA);-0.207220009;39.76882998;Plana Baixa
CENTRO DE SALUD DE LA LLOSA DE RANES;ALACANT, S/N 46815 LLOSA DE RANES (LA);46815;LLOSA DE RANES (LA);-0.529682474;39.01974509;La Costera
CENTRO DE SALUD DE LLUCENA/ LUCENA DEL CID;PZA. ESPAÑA, 22 12120 LLUCENA/LUCENA DEL CID;12120;LLUCENA/LUCENA DEL CID;-0.280220015;40.13799;L'Alcalatén
CENTRO DE SALUD DE LLUTXENT;SAN ANTONIO, S/N 46838 LLUTXENT;46838;LLUTXENT;-0.355279916;38.94063504;La Vall d'Albaida
CONSULTORIO AUXILIAR DE L'ORXA / LORCHA;MESTRE SERRANO, 20, 3860 LORCHA/ORXA (L');3860;LORCHA/ORXA (L');-0.311470013;38.84244;El Comtat
CONSULTORIO AUXILIAR DE LORIGUILLA;AVDA. OESTE, 13 46393 LORIGUILLA;46393;LORIGUILLA;-0.571800024;39.4895;Camp de Túria
CONSULTORIO AUXILIAR DE LOSA DEL OBISPO;REYES CATOLICOS, 22 46173 LOSA DEL OBISPO;46173;LOSA DEL OBISPO;-0.87123002;39.69577;Els serrans
CONSULTORIO AUXILIAR DE LUDIENTE GIRABA DE ABAJO;LA GIRABA DE ABAJO, S/N 12123 LUDIENTE;12123;LUDIENTE;-0.382050473;40.10073911;Alt Millars
CONSULTORIO AUXILIAR DE LUDIENTE;MAESTRO BALLESTER, 3 12123 LUDIENTE;12123;LUDIENTE;-0.371749979;40.08684002;Alt Millars
CONSULTORIO AUXILIAR DE MACASTRE;HOYA DE BUNYOL, 5 46368 MACASTRE;46368;MACASTRE;-0.785690016;39.38303998;La Foia de Bunyol
HOSPITAL DE MANISES;AVDA. GENERALITAT ValènciaNA, 50 46940 MANISES;46940;MANISES;-0.451990022;39.48569998;Horta Sud
CENTRO DE SALUD DE MANISES;DR PESET ALEIXANDRE, S/N 46940 MANISES;46940;MANISES;-0.457398155;39.48887776;Horta Sud
CONSULTORIO AUXILIAR DE MANISES ELS XIPRERETS;CERAMISTA ALFONS BLAT, 6 46940 MANISES;46940;MANISES;-0.470344177;39.4978233;Horta Sud
CONSULTORIO AUXILIAR DE MANISES EL CARMEN;PATERNA, 6-8 46940 MANISES;46940;MANISES;-0.451790029;39.48651998;Horta Sud
UNIDAD DE ODONTOLOGIA DE MANISES;DR. PESET ALEIXANDRE, S/N 46940 MANISES;46940;MANISES;-0.457398155;39.48887776;Horta Sud
CENTRO DE SALUD SEXUAL Y REPRODUCTIVA DE MANISES;PATERNA, 6-8 46940 MANISES;46940;MANISES;-0.451790029;39.48651998;Horta Sud
CENTRO DE SALUD MENTAL DE MANISES;PESET ALEIXANDRE, S/N 46940 MANISES;46940;MANISES;-0.457398155;39.48887776;Horta Sud
CENTRO DE CONDUCTAS ADICTIVAS DE MANISES;PESET ALEIXANDRE, S/N 46940 MANISES;46940;MANISES;-0.457398155;39.48887776;Horta Sud
CONSULTORIO AUXILIAR DE MANUEL;PIO XII, S/N 46669 MANUEL;46669;MANUEL;-0.494017847;39.05060035;Ribera Alta
CONSULTORIO AUXILIAR DE MARINES;PLAZA HERMANO VICENTE COLL, S/N 46163 MARINES;46163;MARINES;-0.561307062;39.6757284;Camp de Túria
CONSULTORIO AUXILIAR DE MASSALAVES;REYES CATOLICOS, 23 46292 MASSALAVES;46292;MASSALAVES;-0.521659982;39.14359;Ribera Alta
CONSULTORIO AUXILIAR DE MASSALFASSAR;MAESTRO SERRANO, 36 46560 MASSALFASSAR;46560;MASSALFASSAR;-0.325801232;39.55705801;Horta Nord
CENTRO DE SALUD DE MASSAMAGRELL;C/ MIGUEL SERVET, 48 46130 MASSAMAGRELL;46130;MASSAMAGRELL;-0.331030023;39.57266998;Horta Nord
CONSULTORIO AUXILIAR DE MASSAMAGRELL BARRIO DE LA MAGDALENA;SAN FELIX, 1 46130 MASSAMAGRELL;46130;MASSAMAGRELL;-0.34335997;39.58050002;Horta Nord
CENTRO DE SALUD SEXUAL Y REPRODUCTIVA DE MASSAMAGRELL;DR. MIGUEL SERVET, 48 46130 MASSAMAGRELL;46130;MASSAMAGRELL;-0.331030023;39.57266998;Horta Nord
CENTRO DE CONDUCTAS ADICTIVAS DE MASSAMAGRELL;METGE MIGUEL SERVET, 23-2º 46130 MASSAMAGRELL;46130;MASSAMAGRELL;-0.331149968;39.57261998;Horta Nord
CENTRO DE SALUD DE MASSANASSA;C/ DR.GIL LOPEZ, S/N 46470 MASSANASSA;46470;MASSANASSA;-0.398547495;39.41114979;Horta Sud
CONSULTORIO AUXILIAR DE LA MATA;CTRA.CANTAVIEJA, 3 12312 MATA DE MORELLA (LA);12312;MATA DE MORELLA (LA);-0.280516348;40.61381485;Els Ports
CONSULTORIO AUXILIAR DE MATET;SAN MIGUEL, 16 12415 MATET;12415;MATET;-0.467829975;39.93764;Alt Palància
CENTRO DE SALUD DE MELIANA;C/ EDUARDO ROMERO, 1 46133 MELIANA;46133;MELIANA;-0.347450003;39.52890002;Horta Nord
CONSULTORIO AUXILIAR DE MELIANA BARRIO ROCA;CAMINO EL CASSO DE ROCA, S/N 46133 MELIANA;46133;MELIANA;-0.334927413;39.525075;Horta Nord
CONSULTORIO AUXILIAR DE MILLARES;HNOS.SAEZ MERINO, 21 46199 MILLARES;46199;MILLARES;-0.773269963;39.23894002;La Canal de Navarrés
CONSULTORIO AUXILIAR DE MILLENA;PZA. IGLESIA, 1 3812 MILLENA;3812;MILLENA;-0.363869261;38.73066032;El Comtat
CONSULTORIO AUXILIAR DE MIRAMAR PLAYA;AVDA. MEDITERRANEO, S/N 46711 MIRAMAR;46711;MIRAMAR;-0.125145914;38.95885607;La Safor
CONSULTORIO AUXILIAR DE MIRAMAR;C/ ALQUERIETA, 5 46711 MIRAMAR;46711;MIRAMAR;-0.139660025;38.95220002;La Safor
HOSPITAL DE CRONICOS DE MISLATA (ANTIGUO HOSPITAL MILITAR DE València);DOLORES IBARRURI, 3 46920 MISLATA;46920;MISLATA;-0.424084381;39.47927475;Horta Sud
CENTRO DE ESPECIALIDADES DE MISLATA;DOLORES IBARRURI, 3 46920 MISLATA;46920;MISLATA;-0.424084381;39.47927475;Horta Sud
CENTRO DE SALUD DE MISLATA;AVDA. BUENOS AIRES, 2 46920 MISLATA;46920;MISLATA;-0.416069962;39.47855001;Horta Sud
CONSULTORIO AUXILIAR DE MISLATA;ORTEGA Y GASSET, 3 46920 MISLATA;46920;MISLATA;-0.417739973;39.47254002;Horta Sud
UNIDAD DE ODONTOLOGIA DE MISLATA;AVDA. BUENOS AIRES, 2 46920 MISLATA;46920;MISLATA;-0.416069962;39.47855001;Horta Sud
CENTRO DE SALUD SEXUAL Y REPRODUCTIVA DE MISLATA;DOLORES IBARRURI, 1 46920 MISLATA;46920;MISLATA;-0.424084381;39.47927475;Horta Sud
CENTRO DE SALUD MENTAL DE MISLATA;BUENOS AIRES, S/N 46980 MISLATA;46980;MISLATA;-0.415911304;39.47861089;Horta Sud
CENTRO DE PREVENCION DE CANCER DE MAMA DE MANISES;DOLORES IBARRURI, 1 46920 MISLATA;46920;MISLATA;-0.424084381;39.47927475;Horta Sud
CENTRO DE SALUD DE MOIXENT / MOGENTE;C/ RIU CANYOLES, 2 46640 MOGENTE/MOIXENT;46640;MOGENTE/MOIXENT;-0.754740006;38.87390998;La Costera
UNIDAD BÁSICA DE REHABILITACIÓN DEL C.S. DE MOIXENT / MOGENTE;RIU CANYOLES, 2 46640 MOGENTE/MOIXENT;46640;MOGENTE/MOIXENT;-0.754740006;38.87390998;La Costera
CENTRO DE SALUD DE MONCADA;AV/ MEDITERRANEO, 2 46113 MONCADA;46113;MONCADA;-0.397433882;39.54422432;Horta Nord
CONSULTORIO AUXILIAR DE MONCADA SAN ISIDRO DE BENAGEBER;CRUZ DE RULLA, S/N 46113 MONCADA;46113;MONCADA;-0.399571668;39.551195;Horta Nord
UNIDAD BASICA DE REHABILITACION DEL C.S. DE MONCADA;AVDA. MEDITERRANEO, 2 46113 MONCADA;46113;MONCADA;-0.397433882;39.54422432;Horta Nord
CENTRO DE SALUD SEXUAL Y REPRODUCTIVA DE MONCADA;AVDA. DEL MEDITERRANEO, S/N 46113 MONCADA;46113;MONCADA;-0.398066948;39.54375203;Horta Nord
CENTRO DE CONDUCTAS ADICTIVAS DE MONCADA;AVDA. DELA MEDITERRANIA, S/N 46113 MONCADA;46113;MONCADA;-0.398066948;39.54375203;Horta Nord
CONSULTORIO AUXILIAR DE MONCOFA;AV. DIPUTACION S/N, null 12593 MONCOFA;12593;MONCOFA;-0.14850395;39.8058056;Plana Baixa
CONSULTORIO DE VERANO DE MONCOFA;AVDA. MARE NOSTRUM, 143 12593 MONCOFA;12593;MONCOFA;-0.130990036;39.79961001;Plana Baixa
CENTRO DE SALUD DE MONFORTE DEL CID;C/ AGOST, S/N 3670 MONFORTE DEL CID;3670;MONFORTE DEL CID;-0.727271;38.38048555;Vinalopó Mitjà
UNIDAD DE ODONTOLOGIA DE MONFORTE DEL CID;AGOST, null 3670 MONFORTE DEL CID;3670;MONFORTE DEL CID;-0.727271;38.38048555;Vinalopó Mitjà
CENTRO DE SALUD DE MONOVER / MONOVAR;C/ DOCTOR RICO JARA, 3 3640 MONOVAR/MONOVER;3640;MONOVAR/MONOVER;-0.835991958;38.43558491;Vinalopó Mitjà
CONSULTORIO AUXILIAR DE MONOVER / MONOVAR CASES DEL SENYOR;PARCELA XB67, S/N 3640 MONOVAR/MONOVER;3640;MONOVAR/MONOVER;-0.82979;38.42902908;Vinalopó Mitjà
UNIDAD BÁSICA DE REHABILITACIÓN DEL C.S. DE MONOVER / MONOVAR;DOCTOR RICO JARA, 3 3640 MONOVAR/MONOVER;3640;MONOVAR/MONOVER;-0.835991958;38.43558491;Vinalopó Mitjà
UNIDAD DE ODONTOLOGIA DE MONOVER / MONOVAR;ASTRONOMO PEREZ VERDU, S/N 3640 MONOVAR/MONOVER;3640;MONOVAR/MONOVER;-0.83548203;38.43542258;Vinalopó Mitjà
CENTRO DE SALUD SEXUAL Y REPRODUCTIVA DE MONOVER / MONOVAR;DR. RICO JARA, 1 3640 MONOVAR/MONOVER;3640;MONOVAR/MONOVER;-0.8371;38.43600998;Vinalopó Mitjà
CENTRO DE SALUD MENTAL DE MONOVAR;DR. RICO JARA, 3 3640 MONOVAR/MONOVER;3640;MONOVAR/MONOVER;-0.837079967;38.43590001;Vinalopó Mitjà
CONSULTORIO AUXILIAR DE MONTAN;PLAZA DEL AYUNTAMIENTO, 1-BJ 12447 MONTAN;12447;MONTAN;-0.55458;40.03504;Alt Millars
CENTRO DE SALUD DE MONTANEJOS;CTRA. València, 50 12448 MONTANEJOS;12448;MONTANEJOS;-0.525079966;40.06738001;Alt Millars
CONSULTORIO AUXILIAR DE MONTAVERNER;CARRER NOU, S/N 46892 MONTAVERNER;46892;MONTAVERNER;-0.494952404;38.88808377;La Vall d'Albaida
CONSULTORIO AUXILIAR DE MONTESA;SILVERIO PERFECTO, 19 46692 MONTESA;46692;MONTESA;-0.649749963;38.94879001;La Costera
CONSULTORIO AUXILIAR DE LOS MONTESINOS;DIEGO MONTESINOS, 10 3187 MONTESINOS (LOS);3187;MONTESINOS (LOS);-0.747310035;38.02544999;Baix Segura
CONSULTORIO AUXILIAR DE MONTITXELVO / MONTICHELVO;PINTOR SOROLLA, 25 46842 MONTITXELVO/MONTICHELVO;46842;MONTITXELVO/MONTICHELVO;-0.340822467;38.89038934;La Vall d'Albaida
CONSULTORIO AUXILIAR DE MONTROI/MONTROY;BLASCO IBAÑEZ, 18 46193 MONTROI/MONTROY;46193;MONTROI/MONTROY;-0.613179971;39.33844;Ribera Alta
CENTRO DE SALUD DE MONTSERRAT;València, 47 46192 MONTSERRAT;46192;MONTSERRAT;-0.599770015;39.35872002;Ribera Alta
CENTRO DE SALUD DE MORELLA;C/ SANT MIQUEL, S/N 12300 MORELLA;12300;MORELLA;-0.098923248;40.62137369;Els Ports
CONSULTORIO AUXILIAR DE XIVA DE MORELLA;MAYOR, X/N 12314 MORELLA;12314;MORELLA;-0.125669801;40.65856662;Els Ports
CONSULTORIO AUXILIAR DE MORELLA ORTELLS;PLAZA, S/N 12311 MORELLA;12311;MORELLA;-0.126226095;40.65937487;Els Ports
UNIDAD BASICA DE REHABILITACION DEL C.S. DE MORELLA;VIRGEN VALLIVANA, 2 12300 MORELLA;12300;MORELLA;-0.100909984;40.61866;Els Ports
UNIDAD DE ODONTOLOGIA DE MORELLA;SANT MIGUEL, S/N 12300 MORELLA;12300;MORELLA;-0.098923248;40.62137369;Els Ports
CENTRO DE SALUD MENTAL DE MORELLA;SAN MIGUEL, S/N 12300 MORELLA;12300;MORELLA;-0.098923248;40.62137369;Els Ports
CONSULTORIO AUXILIAR DE MURLA;DIPUTACION, S/N 3792 MURLA;3792;MURLA;-0.08316242;38.75971194;Marina Alta
CENTRO DE SALUD DE MURO DE ALCOY;DENTELL, S/N 3830 MURO DE ALCOY;3830;MURO DE ALCOY;-0.437934911;38.78092505;El Comtat
UNIDAD DE SALUD MENTAL INFANTIL DEL C.S. DE MURO DE ALCOY;DENTELL, S/N 3830 MURO DE ALCOY;3830;MURO DE ALCOY;-0.437934911;38.78092505;El Comtat
CENTRO DE SALUD DE MUSEROS;AV.PAIS València, S/N 46136 MUSEROS;46136;MUSEROS;-0.340288852;39.56230776;Horta Nord
CENTRO DE SALUD DE MUTXAMEL;C/ DEL MAR, S/N 3110 MUTXAMEL;3110;MUTXAMEL;-0.442577181;38.41373877;L'Alacantí
CONSULTORIO AUXILIAR DE MUTXAMEL LA HUERTA;URBANIZACION LA HUERTA C/ EL PINO S/N, null 3110 MUTXAMEL;3110;MUTXAMEL;-0.477862702;38.444055;L'Alacantí
CONSULTORIO AUXILIAR DE NAQUERA;CONSTITUCIO, 2 46118 NAQUERA;46118;NAQUERA;-0.425504865;39.65734875;Camp de Túria
CONSULTORIO AUXILIAR DE NAVAJAS;VICENTE MORTES, S/N 12470 NAVAJAS;12470;NAVAJAS;-0.506258814;39.87881414;Alt Palància
CENTRO DE SALUD DE NAVARRES;ALEGRIA DE LA HUERTA, 55 46823 NAVARRES;46823;NAVARRES;-0.696083439;39.10191001;La Canal de Navarrés
UNIDAD BÁSICA DE REHABILITACIÓN DEL C.S. DE NAVARRES;ALEGRIA DE LA HUERA, 55 46823 NAVARRES;46823;NAVARRES;-0.696083439;39.10191001;La Canal de Navarrés
CENTRO SANITARIO INTEGRADO DE NOVELDA;VIRGEN DEL REMEDIO, 114 3660 NOVELDA;3660;NOVELDA;-0.7582123;38.38356617;Vinalopó Mitjà
UNIDAD BÁSICA DE REHABILITACIÓN DEL C.S.I. DE NOVELDA;VIRGEN DEL REMEDIO, 114 3660 NOVELDA;3660;NOVELDA;-0.7582123;38.38356617;Vinalopó Mitjà
UNIDAD DE ODONTOLOGIA DE NOVELDA;VIRGEN DEL REMEDIO, 114 3660 NOVELDA;3660;NOVELDA;-0.7582123;38.38356617;Vinalopó Mitjà
CENTRO DE SALUD SEXUAL Y REPRODUCTIVA DE NOVELDA;VIRGEN DEL REMEDIO, 114 3660 NOVELDA;3660;NOVELDA;-0.7582123;38.38356617;Vinalopó Mitjà
CENTRO DE SALUD MENTAL DE NOVELDA;VIRGEN DEL REMEDIO, 114 3660 NOVELDA;3660;NOVELDA;-0.7582123;38.38356617;Vinalopó Mitjà
CONSULTORIO AUXILIAR DE NOVETLE / NOVELE;SIMARRO OLTRA, 2 46800 NOVELE/NOVETLE;46800;NOVELE/NOVETLE;-0.545580006;38.98163001;La Costera
CENTRO SANITARIO INTEGRADO DE LA NUCIA;ERMITA, 41-43 3530 NUCIA (LA);3530;NUCIA (LA);-0.125550013;38.61535002;La Marina Baixa
CENTRO DE SALUD DE LA NUCIA;AVDA. PORT VILLA, S/N 3530 NUCIA (LA);3530;NUCIA (LA);-0.121113392;38.62055156;La Marina Baixa
CONSULTORIO AUXILIAR DE LA NUCIA PINAR DE GARAITA;MURILLO, S/N 3530 NUCIA (LA);3530;NUCIA (LA);-0.127113401;38.57429537;La Marina Baixa
UNIDAD BASICA DE REHABILITACION DE LA NUCIA;L'ERMITA, 41-43 3530 NUCIA (LA);3530;NUCIA (LA);-0.125550013;38.61535002;La Marina Baixa
UNIDAD DE ODONTOLOGIA NUCIA;AV. PORVILLA, 36 3530 NUCIA (LA);3530;NUCIA (LA);-0.122649958;38.62000998;La Marina Baixa
CENTRO DE SALUD SEXUAL Y REPRODUCTIVA DE LA NUCIA;L'ERMITA, 41-43 3530 NUCIA (LA);3530;NUCIA (LA);-0.125550013;38.61535002;La Marina Baixa
CENTRO DE SALUD MENTAL INFANTIL DE LA NUCIA;CALLE ERMITA, 41-43 3530 NUCIA (LA);3530;NUCIA (LA);-0.125550013;38.61535002;La Marina Baixa
UNIDAD DE SALUD MENTAL DE LA NUCIA;L'ERMITA, 41-43 3530 NUCIA (LA);3530;NUCIA (LA);-0.125550013;38.61535002;La Marina Baixa
CENTRO DE SALUD DE NULES;AVDA. JAIME I, S/N 12520 NULES;12520;NULES;-0.162802665;39.8480162;Plana Baixa
CONSULTORIO AUXILIAR DE NULES MASCARELL;MAYOR, 8 12529 NULES;12529;NULES;-0.140689993;39.86022999;Plana Baixa
CONSULTORIO DE VERANO DE NULES;AVDA. DE MALLORCA, 109 12529 NULES;12529;NULES;-0.107690021;39.83012001;Plana Baixa
UNIDAD BÁSICA DE REHABILITACIÓN DEL C.S. DE NULES;AVDA. JAIME I, S/N 12520 NULES;12520;NULES;-0.162802665;39.8480162;Plana Baixa
CENTRO SANITARIO INTEGRADO DE OLIVA;C/ HISTORIADOR BERNARDINO LLORCA, S/N, S/N 46780 OLIVA;46780;OLIVA;-0.124817244;38.92488949;La Safor
CONSULTORIO AUXILIAR DE OLIVA PLAYA;LA ANGUILA, 13 46780 OLIVA;46780;OLIVA;-0.091470033;38.92200002;La Safor
CONSULTORIO AUXILIAR DE OLIVA SAN FRANCESC;CARRETERA DE PEGO, 9 46780 OLIVA;46780;OLIVA;-0.114735282;38.91478365;La Safor
UNIDAD DE ODONTOLOGIA DE OLIVA;HISTORIADOR BERNARDINO LLORCA, S/N 46780 OLIVA;46780;OLIVA;-0.124817244;38.92488949;La Safor
CENTRO DE SALUD SEXUAL Y REPRODUCTIVA DE OLIVA;HISTORIADOR BERNARDINO LLORCA, S/N 46780 OLIVA;46780;OLIVA;-0.124817244;38.92488949;La Safor
CENTRO DE SALUD MENTAL DE OLIVA;HISTORIADOR BERNARDINO LLORCA, S/N 46780 OLIVA;46780;OLIVA;-0.124817244;38.92488949;La Safor
CENTRO DE SALUD DE L'OLLERIA;PZA VIRGEN DE LORETO, S/N 46850 OLLERIA (L');46850;OLLERIA (L');-0.549356784;38.91385601;La Vall d'Albaida
UNIDAD BÁSICA DE REHABILITACIÓN DEL C.S. DE L'OLLERIA;PZA VIRGEN DE LORETO, S/N 46850 OLLERIA (L');46850;OLLERIA (L');-0.549356784;38.91385601;La Vall d'Albaida
CONSULTORIO AUXILIAR DE OLOCAU;C/ MAYOR, 33 / C/JOSE ANTONIO 83, null 46169 OLOCAU;46169;OLOCAU;-0.531509975;39.70107998;Camp de Túria
CONSULTORIO AUXILIAR DE OLOCAU DEL REY;PZA. CONSTITUCION, 1 12312 OLOCAU DEL REY;12312;OLOCAU DEL REY;-0.339649972;40.63756002;Els Ports
CENTRO SANITARIO INTEGRADO DE ONDA II;SICILIA, ESQUINA ALFONSO EL MAGNÁNIMO, S/N 12200 ONDA;12200;ONDA;-0.256769881;39.96704003;Plana Baixa
CENTRO DE SALUD DE ONDA I;BALMES, S/N 12200 ONDA;12200;ONDA;-0.268271869;39.96284416;Plana Baixa
UNIDAD BÁSICA DE REHABILITACIÓN DEL C.S. DE ONDA I;BALMES, S/N 12200 ONDA;12200;ONDA;-0.268271869;39.96284416;Plana Baixa
UNIDAD DE ODONTOLOGIA DE ONDA;BALMES, S/N 12200 ONDA;12200;ONDA;-0.268271869;39.96284416;Plana Baixa
UNIDAD DE SALUD SEXUAL Y REPRODUCTIVA DEL C.S.I ONDA II;SICILIA, ESQUINA ALFONSO EL MAGNANIMO, S/N 12200 ONDA;12200;ONDA;-0.256769881;39.96704003;Plana Baixa
CENTRO DE SALUD DE ONDARA;AV.MARINA ALTA, S/N 3760 ONDARA;3760;ONDARA;0.022922056;38.82660424;Marina Alta
UNIDAD BÁSICA DE REHABILITACIÓN DEL C.S. DE ONDARA;AVDA. MARINA ALTA, S/N 3760 ONDARA;3760;ONDARA;0.022922056;38.82660424;Marina Alta
CENTRO DE SALUD DE ONIL;BIAR, S/N 3430 ONIL;3430;ONIL;-0.677516454;38.62829847;L'Alcoià
UNIDAD DE ODONTOLOGIA DE ONIL;BIAR, S/N 3430 ONIL;3430;ONIL;-0.677516454;38.62829847;L'Alcoià
UNIDAD DE SALUD MENTAL DEL C.S. DE ONIL;BIAR, S/N 3430 ONIL;3430;ONIL;-0.677516454;38.62829847;L'Alcoià
HOSPITAL GENERAL DE ONTINYENT;AV. FRANCESC CERDA, 3 46870 ONTINYENT;46870;ONTINYENT;-0.603510021;38.82602999;La Vall d'Albaida
CENTRO DE ESPECIALIDADES DE ONTINYENT;JOSEP SIMO MARIN, S/N 46870 ONTINYENT;46870;ONTINYENT;-0.60322194;38.82138166;La Vall d'Albaida
CENTRO DE SALUD DE ONTINYENT EL BARRANQUET;PL. CORONACION, S/N 46870 ONTINYENT;46870;ONTINYENT;-0.607860148;38.820062;La Vall d'Albaida
CENTRO DE SALUD DE ONTINYENT AVDA. ALBAIDA;AV. ALBAIDA, S/N 46870 ONTINYENT;46870;ONTINYENT;-0.59893172;38.82308489;La Vall d'Albaida
CENTRO DE SALUD DE ONTINYENT SAN RAFAEL;LES TREBANELLES, S/N 46870 ONTINYENT;46870;ONTINYENT;-0.64420713;38.80877;La Vall d'Albaida
UNIDAD DE ODONTOLOGIA DE ONTINYENT;AV. ALBAIDA, S/N 46870 ONTINYENT;46870;ONTINYENT;-0.59893172;38.82308489;La Vall d'Albaida
CENTRO DE SALUD SEXUAL Y REPRODUCTIVA DE ONTINYENT;AVDA. ALBAIDA, S/N 46870 ONTINYENT;46870;ONTINYENT;-0.59893172;38.82308489;La Vall d'Albaida
CENTRO DE SALUD MENTAL DE ONTINYENT;AVDA ALBAIDA, S/N 46870 ONTINYENT;46870;ONTINYENT;-0.59893172;38.82308489;La Vall d'Albaida
CENTRO DE SALUD DE ORBA;ALTER, S/N 3790 ORBA;3790;ORBA;-0.061255525;38.78069718;Marina Alta
HOSPITAL VEGA BAJA DE ORIHUELA;CARRETERA ORIHUELA-ALMORADI SIN NUMERO, S/N 3314 ORIHUELA;3314;ORIHUELA;-0.854617452;38.09006172;Baix Segura
CENTRO DE ESPECIALIDADES DE ORIHUELA;AVDA. TEODOMIRO, 16 3300 ORIHUELA;3300;ORIHUELA;-0.945489994;38.08129999;Baix Segura
CENTRO DE SALUD DE ORIHUELA ALVAREZ DE LA RIVA;AVDA. PRINCIPE DE ASTURIAS, S/N 3300 ORIHUELA;3300;ORIHUELA;-0.939454433;38.08346391;Baix Segura
CENTRO DE SALUD DE ORIHUELA PZ. DE LA SALUD;AVENIDA ACALDE ESCUDERO, 2 3300 ORIHUELA;3300;ORIHUELA;-0.951505326;38.08675466;Baix Segura
CONSULTORIO AUXILIAR DE ORIHUELA CORRENTIAS BAJAS;VEREDA DON FAUSTINO, 14 3310 ORIHUELA;3310;ORIHUELA;-0.926194087;38.07659813;Baix Segura
CONSULTORIO AUXILIAR DE ORIHUELA HURCHILLO;CONSULTORIO MEDICO, S/N 3313 ORIHUELA;3313;ORIHUELA;-0.94601;38.0806;Baix Segura
CONSULTORIO AUXILIAR DE ORIHUELA MOLINS;PZA. DE LA IGLESIA, S/N 3310 ORIHUELA;3310;ORIHUELA;-0.922917421;38.05918281;Baix Segura
CONSULTORIO AUXILIAR DE ORIHUELA LOS DESAMPARADOS;PZA. DE LA IGLESIA, S/N 3312 ORIHUELA;3312;ORIHUELA;-0.922917421;38.05918281;Baix Segura
CONSULTORIO AUXILIAR DE ORIHUELA L'ARNEVA;AVDA DE ARNEVA, S/N 3312 ORIHUELA;3312;ORIHUELA;-0.947477046;38.06527899;Baix Segura
CONSULTORIO AUXILIAR DE ORIHUELA MEDIA LEGUA;CAMINO VIEJO DE CALLOSA, S/N 3300 ORIHUELA;3300;ORIHUELA;-0.939110715;38.08953121;Baix Segura
CONSULTORIO AUXILIAR DE ORIHUELA VIRGEN DEL CAMINO;VIRGEN DEL CAMINO, S/N 3315 ORIHUELA;3315;ORIHUELA;-0.954013101;38.09291983;Baix Segura
CONSULTORIO AUXILIAR DE ORIHUELA RINCON DE BONANZA;LA CARRETERA, S/N 3311 ORIHUELA;3311;ORIHUELA;-0.974664825;38.08928142;Baix Segura
CONSULTORIO AUXILIAR DE ORIHUELA LA MATANZA;LOS GARCIAS, S/N 3316 ORIHUELA;3316;ORIHUELA;-1.006791171;38.12738501;Baix Segura
CONSULTORIO AUXILIAR DE ORIHUELA ESCORRATEL;CRTA ORIHUELA - CALLOSA, S/N 3317 ORIHUELA;3317;ORIHUELA;-0.951074898;38.09565006;Baix Segura
CONSULTORIO AUXILIAR DE ORIHUELA LA MURADA;PTDA. DE DOÑA GLORIA, S/N 3315 ORIHUELA;3315;ORIHUELA;-0.951663532;38.08821137;Baix Segura
CONSULTORIO AUXILIAR DE ORIHUELA LA APARECIDA;ESCUELAS, S/N 3311 ORIHUELA;3311;ORIHUELA;-0.975976659;38.08845362;Baix Segura
CONSULTORIO AUXILIAR DE ORIHUELA SAN BARTOLOME;PARTIDA TRINITARIO FERRANDEZ, 1 3314 ORIHUELA;3314;ORIHUELA;-0.867614153;38.0962145;Baix Segura
CONSULTORIO AUXILIAR DE ORIHUELA LA CAMPANETA;CNO VIEJO DE ALMORADI, 51 3300 ORIHUELA;3300;ORIHUELA;-0.93808037;38.0868843;Baix Segura
CONSULTORIO AUXILIAR DE ORIHUELA EL MUDAMIENTO;PARAJE LOS SORIANOS, S/N 3369 ORIHUELA;3369;ORIHUELA;-0.835659557;38.11946664;Baix Segura
UNIDAD BÁSICA DE REHABILITACIÓN DEL C.S. DE ORIHUELA ALVAREZ DE LA RIVA;AVDA. PRINCIPE DE ASTURIAS, S/N 3300 ORIHUELA;3300;ORIHUELA;-0.939454433;38.08346391;Baix Segura
UNIDAD DE ODONTOLOGIA DE ORIHUELA;AVDA PRINCIPE DE ASTURIAS, S/N 3300 ORIHUELA;3300;ORIHUELA;-0.939454433;38.08346391;Baix Segura
CENTRO DE SALUD SEXUAL Y REPRODUCTIVA DE ORIHUELA;PLAZA DE LA SALUD, 22 3300 ORIHUELA;3300;ORIHUELA;-0.951074414;38.08726692;Baix Segura
CENTRO DE SALUD MENTAL INFANTIL DE ORIHUELA;CARRETERA DE ALMORADI-ORIHUELA, S/N 3314 ORIHUELA;3314;ORIHUELA;-0.854617452;38.09006172;Baix Segura
CENTRO DE SALUD MENTAL DE ORIHUELA II;PRINCIPE DE ASTURIAS, S/N 3300 ORIHUELA;3300;ORIHUELA;-0.939454433;38.08346391;Baix Segura
CENTRO DE CONDUCTAS ADICTIVAS DE ORIHUELA;AVENIDA PRINCIPE DE ASTURIAS, S/N 3300 ORIHUELA;3300;ORIHUELA;-0.939454433;38.08346391;Baix Segura
CENTRO DE PREVENCION DE CANCER DE MAMA DE ORIHUELA;AVDA. TEODOMIRO,, 22 3300 ORIHUELA;3300;ORIHUELA;-0.945420005;38.08088999;Baix Segura
CENTRO DE SALUD DE ORIHUELA COSTA;MAR, 1 3189 ORIHUELA;3189;ORIHUELA;-0.947329989;38.07824001;Baix Segura
CONSULTORIO AUXILIAR DE ORIHUELA TORREMENDO;AV. ORIHUELA 17, null 3193 ORIHUELA;3193;ORIHUELA;-0.950722698;38.09570736;Baix Segura
CONSULTORIO AUXILIAR DE ORIHUELA BARBARROJA;ELX, S/N 3689 ORIHUELA;3689;ORIHUELA;-0.94187;38.08102;Baix Segura
CENTRO DE SALUD DE ORPESA / OROPESA DEL MAR;TORREBLANCA, 14 12594 OROPESA DEL MAR/ORPESA;12594;OROPESA DEL MAR/ORPESA;0.137000028;40.09548;Plana Alta
CONSULTORIO DE VERANO DE ORPESA / OROPESA DEL MAR AVENIDA DEL MAR;AVDA. DEL MAR, 31-33 12594 OROPESA DEL MAR/ORPESA;12594;OROPESA DEL MAR/ORPESA;0.140428865;40.09449204;Plana Alta
CONSULTORIO DE VERANO DE ORPESA / OROPESA DEL MAR LA MARINA;EDIFICIO TIMON, AVDA. LA MARINA, S/N 12594 OROPESA DEL MAR/ORPESA;12594;OROPESA DEL MAR/ORPESA;0.149360241;40.10708916;Plana Alta
CONSULTORIO DE VERANO DE ORPESA / OROPESA DEL MAR LA CONCHA;AVDA. LA PLANA, 59 12594 OROPESA DEL MAR/ORPESA;12594;OROPESA DEL MAR/ORPESA;0.134110032;40.09124999;Plana Alta
CONSULTORIO AUXILIAR DE ORXETA;C/ ASAGADOR, 44 3579 ORXETA;3579;ORXETA;-0.261970014;38.56423998;La Marina Baixa
CONSULTORIO AUXILIAR DE OTOS;SAN JOSE, 6 46844 OTOS;46844;OTOS;-0.443450036;38.85322998;La Vall d'Albaida
CENTRO SANITARIO INTEGRADO DE PAIPORTA;C/CATARROJA ESQ. C/MAESTRO SERRANO, null 46200 PAIPORTA;46200;PAIPORTA;-0.415779948;39.42490004;Horta Sud
UNIDAD BÁSICA DE REHABILITACIÓN DEL C.S.I. DE PAIPORTA;CATARROJA ESQ. C/ MAESTRO SERRANO, null 46200 PAIPORTA;46200;PAIPORTA;-0.415779948;39.42490004;Horta Sud
UNIDAD DE ODONTOLOGIA DE PAIPORTA;CATARROJA ESQ. C/MAESTRO SERRANO, S/N 46200 PAIPORTA;46200;PAIPORTA;-0.415779948;39.42490004;Horta Sud
CENTRO DE SALUD SEXUAL Y REPRODUCTIVA DE PAIPORTA;CATARROJA ESQ. C/MAESTRO SERRANO, S/N 46200 PAIPORTA;46200;PAIPORTA;-0.415779948;39.42490004;Horta Sud
CONSULTORIO AUXILIAR DE PALANQUES;EL COLL, 3 12311 PALANQUES;12311;PALANQUES;-0.17865004;40.71716999;Els Ports
CONSULTORIO AUXILIAR DE PALMA DE GANDIA;LUIS VIVES, 1 46724 PALMA DE GANDIA;46724;PALMA DE GANDIA;-0.222780006;38.92353998;La Safor
CONSULTORIO AUXILIAR DE PALMERA;PLAZA DE ESPAÑA, 1 46714 PALMERA;46714;PALMERA;-0.152369924;38.94216506;La Safor
CONSULTORIO AUXILIAR DE EL PALOMAR;SANTO DOMINGO, 27 46891 PALOMAR (EL);46891;PALOMAR (EL);-0.500259977;38.85422999;La Vall d'Albaida
CONSULTORIO AUXILIAR DE PARCENT;AVDA BENIDORM, S/N 3792 PARCENT;3792;PARCENT;-0.068002423;38.74473971;Marina Alta
CENTRO SANITARIO INTEGRADO DE PATERNA C/València;València, 3 46980 PATERNA;46980;PATERNA;-0.430200007;39.49591002;Horta Oest
CENTRO DE SALUD DE PATERNA;PLAZA CLOT DE JOAN, S/N 46980 PATERNA;46980;PATERNA;-0.447674546;39.500775;Horta Oest
CONSULTORIO AUXILIAR DE PATERNA CAMPAMENTO;AV. PAIS ValènciaNO, 28 46980 PATERNA;46980;PATERNA;-0.430031062;39.4966459;Horta Oest
CONSULTORIO AUXILIAR PATERNA LLOMA LLARGA;LLENTISCLE, 7 46980 PATERNA;46980;PATERNA;-0.434258305;39.51409164;Horta Oest
CONSULTORIO AUXILIAR DE PATERNA LA COMA;PLZA/PUZOL, S/N 46980 PATERNA;46980;PATERNA;-0.447674546;39.500775;Horta Oest
CONSULTORIO AUXILIAR DE PATERNA LA CAÑADA;CALLE 30, S/N 46182 PATERNA;46182;PATERNA;-0.485805929;39.52666489;Horta Oest
CONSULTORIO AUXILIAR DE PATERNA TERRAMELAR;ALGINET, 8 46035 PATERNA;46035;PATERNA;-0.430515239;39.50633456;Horta Oest
UNIDAD BASICA DE REHABILITACION DEL C.S.I. DE PATERNA C/València;València, 3 46980 PATERNA;46980;PATERNA;-0.430200007;39.49591002;Horta Oest
UNIDAD BASICA DE REHABILITACION DEL C.A. DE PATERNA-LA CAÑADA;CALLE 30, S/N 46182 PATERNA;46182;PATERNA;-0.485805929;39.52666489;Horta Oest
UNIDAD BASICA DE REHABILITACION DEL C.S. DE PATERNA;PLAZA CLOT DE JOAN, S/N 46980 PATERNA;46980;PATERNA;-0.447674546;39.500775;Horta Oest
UNIDAD DE ODONTOLOGIA DE PATERNA CLOT DE JOAN;PLAZA CLOT DE JOAN, S/N 46980 PATERNA;46980;PATERNA;-0.447674546;39.500775;Horta Oest
CENTRO DE SALUD SEXUAL Y REPRODUCTIVA DE PATERNA CALLE València;C/ València, S/N 46980 PATERNA;46980;PATERNA;-0.43001704;39.49734685;Horta Oest
CENTRO DE SALUD MENTAL INFANTIL DE PATERNA CALLE València;València, 3 46980 PATERNA;46980;PATERNA;-0.430200007;39.49591002;Horta Oest
CENTRO DE SALUD MENTAL DE PATERNA LA COMA;PZ. PUJOL, S/N 46980 PATERNA;46980;PATERNA;-0.447674546;39.500775;Horta Oest
CENTRO DE SALUD MENTAL DE PATERNA CLOT DE JOAN;PLAZA DEL CLOT DE JOAN, S/N 46980 PATERNA;46980;PATERNA;-0.447674546;39.500775;Horta Oest
CENTRO DE CONDUCTAS ADICTIVAS DE PATERNA-LA COMA;PLAZA PUZOL, S/N 46980 PATERNA;46980;PATERNA;-0.447674546;39.500775;Horta Oest
CENTRO DE CONDUCTAS ADICTIVAS DE PATERNA;PL. PUZOL, S/N 46980 PATERNA;46980;PATERNA;-0.447674546;39.500775;Horta Oest
CONSULTORIO AUXILIAR DE PAVIAS;MAYOR, 16 12449 PAVIAS;12449;PAVIAS;-0.482150037;39.97343999;Alt Palància
CENTRO DE SALUD DE PEDRALBA;BUGARRA, S/N 46164 PEDRALBA;46164;PEDRALBA;-0.730443615;39.60649464;Els serrans
CENTRO DE SALUD DE PEDREGUER;C/ ROSAL, S/N 3750 PEDREGUER;3750;PEDREGUER;0.030969334;38.79370584;Marina Alta
CENTRO DE SALUD DE PEGO;C/ DENIA, 50 3780 PEGO;3780;PEGO;-0.114000002;38.84285;Marina Alta
UNIDAD BÁSICA DE REHABILITACIÓN DEL C.S. DE PEGO;DENIA, 50 3780 PEGO;3780;PEGO;-0.114000002;38.84285;Marina Alta
UNIDAD DE ODONTOLOGIA DE PEGO;CARRETERA A DENIA, S/N 3780 PEGO;3780;PEGO;-0.110989975;38.84334503;Marina Alta
CONSULTORIO AUXILIAR DE PENAGUILA;TERRAT DELS POBRES, 20 3815 PENAGUILA;3815;PENAGUILA;-0.377055;38.65714411;L'Alcoià
CENTRO DE SALUD DE PENISCOLA/PEÑISCOLA;DOCTOR MARCELINO ROCA, S/N 12598 PENISCOLA/PEÑISCOLA;12598;PENISCOLA/PEÑISCOLA;0.405199331;40.35855638;Baix Maestrat
CONSULTORIO DE VERANO DE PENISCOLA/PEÑISCOLA SOROLLA;AVDA. PAPA LUNA, S/N 12598 PENISCOLA/PEÑISCOLA;12598;PENISCOLA/PEÑISCOLA;0.403643102;40.36705372;Baix Maestrat
CONSULTORIO DE VERANO DE PENISCOLA/PEÑISCOLA PEÑISMAR;URB. PEÑISMAR, B1 3-D-8, null 12598 PENISCOLA/PEÑISCOLA;12598;PENISCOLA/PEÑISCOLA;0.356765;40.36904974;Baix Maestrat
CENTRO DE SALUD DE PETRER 2;PLAZA LOPEZ PINA, 5 3610 PETRER;3610;PETRER;-0.7825008;38.48115182;Vinalopó Mitjà
CENTRO DE SALUD DE PETRER 1;C/ JESUS ZARAGOZA, 3 3610 PETRER;3610;PETRER;-0.777759981;38.48433002;Vinalopó Mitjà
UNIDAD BÁSICA DE REHABILITACIÓN DEL C.S. DE PETRER 1;JESUS ZARAGOZA, 3 3610 PETRER;3610;PETRER;-0.777759981;38.48433002;Vinalopó Mitjà
UNIDAD DE ODONTOLOGIA DE PETRER;JESUS ZARAGOZA, 3 3610 PETRER;3610;PETRER;-0.777759981;38.48433002;Vinalopó Mitjà
CENTRO DE SALUD SEXUAL Y REPRODUCTIVA DE PETRER;JESUS ZARAGOZA, S/N 3610 PETRER;3610;PETRER;-0.777702609;38.48419275;Vinalopó Mitjà
CENTRO DE SALUD MENTAL DE PETRER;JESUS ZARAGOZA, 3 3610 PETRER;3610;PETRER;-0.777759981;38.48433002;Vinalopó Mitjà
CONSULTORIO AUXILIAR DE PETRES;SAGUNTO, 3 46501 PETRES;46501;PETRES;-0.310454616;39.6849;Camp de Morvedre
CENTRO DE SALUD DE PICANYA;PLAZA DE LA CONSTITUCIÓN, 2 46210 PICANYA;46210;PICANYA;-0.434759403;39.43630164;Horta Sud
CENTRO DE SALUD DE PICASSENT;MAJOR, S/N 46220 PICASSENT;46220;PICASSENT;-0.460310661;39.36154556;Horta Sud
UNIDAD BÁSICA DE REHABILITACIÓN DEL C.S. DE PICASSENT;MAJOR, S/N 46220 PICASSENT;46220;PICASSENT;-0.460310661;39.36154556;Horta Sud
UNIDAD DE ODONTOLOGIA DE PICASSENT;MAJOR, S/N 46220 PICASSENT;46220;PICASSENT;-0.460310661;39.36154556;Horta Sud
CENTRO SANITARIO INTEGRADO DE PILAR DE LA HORADADA;C/ VICENTE BLASCO IBAÑEZ S/N, S/N 3190 PILAR DE LA HORADADA;3190;PILAR DE LA HORADADA;-0.787523082;37.86336212;Baix Segura
CONSULTORIO AUXILIAR DE PILAR DE LA HORADADA PINAR DE CAMPOVERDE;AVDA. DEL PINO,, 45 3190 PILAR DE LA HORADADA;3190;PILAR DE LA HORADADA;-0.78853625;37.864235;Baix Segura
CONSULTORIO AUXILIAR DE PILAR DE LA HORADADA MIL PALMERAS;MIL PALMERAS, 12 3190 PILAR DE LA HORADADA;3190;PILAR DE LA HORADADA;-0.78853625;37.864235;Baix Segura
CONSULTORIO AUXILIAR DE PILAR DE LA HORADADA TORRE DE LA HORADADA;C/ MANUEL MOLINO, S/N 3190 PILAR DE LA HORADADA;3190;PILAR DE LA HORADADA;-0.758401462;37.86989914;Baix Segura
CONSULTORIO AUXILIAR DE PILES;C/PADRE PONS, 1 46712 PILES;46712;PILES;-0.134350006;38.94096998;La Safor
CONSULTORIO DE VERANO DE PILES;AVDA. PAIS València, 4B 46712 PILES;46712;PILES;-0.115792165;38.94835543;La Safor
CONSULTORIO AUXILIAR DE PINA DE MONTALGRAO;PZA MAYOR, 1B 12429 PINA DE MONTALGRAO;12429;PINA DE MONTALGRAO;-0.654852399;40.02096553;Alt Palància
CONSULTORIO AUXILIAR DE PINET;PLAZA DEL AYUNTAMIENTO, 1 46838 PINET;46838;PINET;-0.330745971;38.98258448;La Vall d'Albaida
CENTRO DE SALUD DE EL PINOS / PINOSO;MEDICO JOSEPEREZ OCHOA, 2 3650 PINOS (EL)/PINOSO;3650;PINOS (EL)/PINOSO;-1.03480001;38.40631001;Vinalopó Mitjà
CONSULTORIO AUXILIAR DE PLANES MARGARIDA;ABADIA, 1 3828 PLANES;3828;PLANES;-0.335414521;38.790775;El Comtat
CONSULTORIO AUXILIAR DE PLANES CATAMARRUCH;SAN JOSE, S/N 3828 PLANES;3828;PLANES;-0.335414521;38.790775;El Comtat
CONSULTORIO AUXILIAR DE PLANES BENIALFAQUI;COOPERATIVA AGRARIA, null 3828 PLANES;3828;PLANES;-0.335414521;38.790775;El Comtat
CONSULTORIO AUXILIAR DE PLANES;SAN BLAI, 3, 3828 PLANES;3828;PLANES;-0.335414521;38.790775;El Comtat
CONSULTORIO AUXILIAR DE LA POBLA DE BENIFASSA BOJAR;DEL SOL, S/N 12599 POBLA DE BENIFASSA (LA);12599;POBLA DE BENIFASSA (LA);0.177014178;40.68382;Baix Maestrat
CONSULTORIO AUXILIAR DE LA POBLA DE BENIFASSA BALLESTAR;TRAS CASAS, 2 12599 POBLA DE BENIFASSA (LA);12599;POBLA DE BENIFASSA (LA);0.175580001;40.66427;Baix Maestrat
CONSULTORIO AUXILIAR DE LA POBLA DE BENIFASSA FREDES;MAYOR, 3 12599 POBLA DE BENIFASSA (LA);12599;POBLA DE BENIFASSA (LA);0.157940034;40.65677;Baix Maestrat
CONSULTORIO AUXILIAR DE LA POBLA DE BENIFASSA;MAJOR, 9 12599 POBLA DE BENIFASSA (LA);12599;POBLA DE BENIFASSA (LA);0.157729983;40.65670998;Baix Maestrat
CONSULTORIO AUXILIAR DE LA POBLA DE FARNALS PLAYA;AVDA.NEPTUNO(ED.SABAS A.BAJO), S/Nº 46137 POBLA DE FARNALS (LA);46137;POBLA DE FARNALS (LA);-0.2849821;39.56326973;Horta Nord
CONSULTORIO AUXILIAR DE LA POBLA DE FARNALS;JOSEP RENAU I BERENGUER, 2 46137 POBLA DE FARNALS (LA);46137;POBLA DE FARNALS (LA);-0.326694441;39.57562632;Horta Nord
CENTRO DE SALUD DE LA POBLA DE VALLBONA;AVDA. CERVANTES, 46 46185 POBLA DE VALLBONA (LA);46185;POBLA DE VALLBONA (LA);-0.551919993;39.59593001;Camp de Túria
UNIDAD BASICA DE REHABILITACION DEL C.S. DE LA POBLA DE VALLBONA;AVDA. CERVANTES, 46 46185 POBLA DE VALLBONA (LA);46185;POBLA DE VALLBONA (LA);-0.551919993;39.59593001;Camp de Túria
CONSULTORIO AUXILIAR DE LA POBLA DEL DUC;LEVANTE, 8 46840 POBLA DEL DUC (LA);46840;POBLA DEL DUC (LA);-0.41894001;38.90403999;La Vall d'Albaida
CENTRO DE SALUD DE LA POBLA LLARGA;SAN VICENTE, 37 46670 POBLA LLARGA (LA);46670;POBLA LLARGA (LA);-0.474700034;39.08616999;Ribera Alta
CENTRO DE SALUD MENTAL DE LA POBLA LLARGA;SAN VICENT, 37 46670 POBLA LLARGA (LA);46670;POBLA LLARGA (LA);-0.474700034;39.08616999;Ribera Alta
CONSULTORIO AUXILIAR DE LA POBLA TORNESA;MOLI DE FOC, 10 12191 POBLA TORNESA (LA);12191;POBLA TORNESA (LA);-0.001065432;40.10006774;Plana Alta
CONSULTORIO AUXILIAR DE ELS POBLETS;C/ AUSIAS MARCH, S/N 3779 POBLETS (ELS);3779;POBLETS (ELS);0.016810116;38.84900504;Marina Alta
CONSULTORIO AUXILIAR DE POLINYA DE XUQUER;PASEO COLÓN, 1 46688 POLINYA DE XUQUER;46688;POLINYA DE XUQUER;-0.368207714;39.19005;Ribera Baixa
CONSULTORIO AUXILIAR DE POLOP;AVDA. SAGIBARBA, S/N 3520 POLOP;3520;POLOP;-0.130281344;38.62218768;La Marina Baixa
CONSULTORIO AUXILIAR DE PORTELL DE MORELLA;AVDA. SAN ISIDRO, S/N 12318 PORTELL DE MORELLA;12318;PORTELL DE MORELLA;-0.261621681;40.53370204;Els Ports
CONSULTORIO AUXILIAR DE POTRIES;ERMITA, S/N 46721 POTRIES;46721;POTRIES;-0.192368946;38.91374075;La Safor
CENTRO DE SALUD DE PUÇOL;CAMINAS, S/N 46530 PUÇOL;46530;PUÇOL;-0.308424148;39.620055;Horta Nord
CONSULTORIO DE VERANO DE PUÇOL PLAYA;AVDA. MEDITERRANEO, ESQ C/ MARJAL EDIFICIO VORAMAR, 8 46530 PUÇOL;46530;PUÇOL;-0.308424148;39.620055;Horta Nord
UNIDAD BÁSICA DE REHABILITACIÓN DEL C.S. DE PUÇOL;CAMINAS, S/N 46530 PUÇOL;46530;PUÇOL;-0.308424148;39.620055;Horta Nord
UNIDAD DE ODONTOLOGIA DE PUÇOL;CAMINAS, 69 46530 PUÇOL;46530;PUÇOL;-0.308250021;39.61548998;Horta Nord
CENTRO DE SALUD MENTAL DE PUÇOL;CAMINAS, 69 46530 PUÇOL;46530;PUÇOL;-0.308250021;39.61548998;Horta Nord
CONSULTORIO AUXILIAR PUEBLA DE ARENOSO LOS CALPES;AV. ARENOS, 14 12428 PUEBLA DE ARENOSO;12428;PUEBLA DE ARENOSO;-0.582520373;40.07202734;Alt Millars
CONSULTORIO AUXILIAR DE PUEBLA DE ARENOSO;SAN MIGUEL, 1 12428 PUEBLA DE ARENOSO;12428;PUEBLA DE ARENOSO;-0.591500011;40.10365001;Alt Millars
CONSULTORIO AUXILIAR DE PUEBLA DE SAN MIGUEL;ABADIA, 6 46140 PUEBLA DE SAN MIGUEL;46140;PUEBLA DE SAN MIGUEL;-1.144779968;40.04484002;Racó d'Ademús
CENTRO DE SALUD DEL PUIG DE SANTA MARIA;PROGRES, 15 46540 PUIG DE SANTA MARIA (EL);46540;PUIG DE SANTA MARIA (EL);-0.300960029;39.58874999;Horta Nord
CONSULTORIO DE VERANO DEL PUIG DE SANTA MARIA;URBANIZACION PUIGVAL, S/N 46540 PUIG DE SANTA MARIA (EL);46540;PUIG DE SANTA MARIA (EL);-0.280331637;39.57110507;Horta Nord
CENTRO DE SALUD MENTAL DEL PUIG DE SANTA MARIA;PROGRES, 15 46540 PUIG DE SANTA MARIA (EL);46540;PUIG DE SANTA MARIA (EL);-0.300960029;39.58874999;Horta Nord
CONSULTORIO AUXILIAR DE QUART DE LES VALLS;SANTISIMO CRISTO, 74 46510 QUART DE LES VALLS;46510;QUART DE LES VALLS;-0.275177923;39.74072957;Camp de Morvedre
CENTRO DE SALUD DE QUART DE POBLET;TRAFALGAR ESQ. VILLALBA DE LUGO, S/N 46930 QUART DE POBLET;46930;QUART DE POBLET;-0.447719945;39.48292004;Horta Sud
CONSULTORIO AUXILIAR DE QUART DE POBLET - SANTA CECILIA;SANTA CECILIA ESQ. REVERENDO PADRE JOSE PALACIOS, null 46930 QUART DE POBLET;46930;QUART DE POBLET;-0.436739945;39.47925004;Horta Sud
UNIDAD BÁSICA DE REHABILITACIÓN DEL C.S. DE QUART DE POBLET;TRAFALGAR ESQ. VILLALBA DE LUGO, S/N 46930 QUART DE POBLET;46930;QUART DE POBLET;-0.447719945;39.48292004;Horta Sud
UNIDAD DE ODONTOLOGIA DE QUART DE POBLET;TRAFALGAR, S/N 46930 QUART DE POBLET;46930;QUART DE POBLET;-0.449355279;39.48310746;Horta Sud
CENTRO DE SALUD SEXUAL Y REPRODUCTIVA DE QUART DE POBLET;AVDA. TRAFALGAR, S/N 46930 QUART DE POBLET;46930;QUART DE POBLET;-0.449355279;39.48310746;Horta Sud
CONSULTORIO AUXILIAR DE QUARTELL;SAN JOSE, 30 46510 QUARTELL;46510;QUARTELL;-0.263789976;39.73913998;Camp de Morvedre
CONSULTORIO AUXILIAR DE QUATRETONDA;LLUTXENT, 1 46837 QUATRETONDA;46837;QUATRETONDA;-0.400049966;38.94493001;La Vall d'Albaida
CONSULTORIO AUXILIAR DE QUATRETONDETA;TRINQUET, 15, 3811 QUATRETONDETA;3811;QUATRETONDETA;-0.315549988;38.72463;El Comtat
CONSULTORIO AUXILIAR DE QUESA;València, 50 46824 QUESA;46824;QUESA;-0.738460003;39.11743;La Canal de Navarrés
CONSULTORIO AUXILIAR DE RAFAL;DR. MAZON, 12 3369 RAFAL;3369;RAFAL;-0.851053093;38.10432151;Baix Segura
CENTRO DE SALUD DE RAFELBUNYOL;JOSE MARÍA LLOPIS, 26 46138 RAFELBUNYOL;46138;RAFELBUNYOL;-0.334280022;39.58604;Horta Nord
CONSULTORIO AUXILIAR DE RAFELCOFER;C/ LA PAU, 16 46716 RAFELCOFER;46716;RAFELCOFER;-0.168052695;38.93262691;La Safor
CONSULTORIO AUXILIAR DE RAFELGUARAF TOSSAL NOU;C/ SAN JOSE, 1 46668 RAFELGUARAF;46668;RAFELGUARAF;-0.468760031;39.04639002;Ribera Alta
CONSULTORIO AUXILIAR DE RAFELGUARAF;JUAN SILVESTRE, S/N 46666 RAFELGUARAF;46666;RAFELGUARAF;-0.454644948;39.05196503;Ribera Alta
CONSULTORIO AUXILIAR DE EL RAFOL D'ALMUNIA;C/ MAJOR, 42 3769 RAFOL D'ALMUNIA (EL);3769;RAFOL D'ALMUNIA (EL);-0.05072996;38.82095002;Marina Alta
CONSULTORIO AUXILIAR DE RAFOL DE SALEM;LA ERMITA, S/N 46843 RAFOL DE SALEM;46843;RAFOL DE SALEM;-0.39701525;38.86409473;La Vall d'Albaida
CONSULTORIO AUXILIAR DE REAL;JAIME I, 11 46194 REAL;46194;REAL;-0.609030007;39.33529;Ribera Alta
CONSULTORIO AUXILIAR DE REAL DE GANDIA;C/GERMANIAS, 1 46727 REAL DE GANDIA (EL);46727;REAL DE GANDIA (EL);-0.189620024;38.94908002;La Safor
CONSULTORIO AUXILIAR DE REDOVAN BARRIO SAN CARLOS;C/ COLEGIO Nº 3 BAJO, 11 3370 REDOVAN;3370;REDOVAN;-0.93134;38.13736998;Baix Segura
CONSULTORIO AUXILIAR DE REDOVAN;LAS ESCUELAS,, 2 3370 REDOVAN;3370;REDOVAN;-0.907251041;38.11356114;Baix Segura
CONSULTORIO AUXILIAR DE RELLEU;EVARISTO MANERO, S/N 3578 RELLEU;3578;RELLEU;-0.310609946;38.58660717;La Marina Baixa
HOSPITAL GENERAL DE REQUENA;PARATGE CASABLANCA, S/N 46340 REQUENA;46340;REQUENA;-1.091087922;39.48580366;La Plana d'Utiel-Requena
CENTRO DE SALUD DE REQUENA;CONSTITUCION, 47 46340 REQUENA;46340;REQUENA;-1.096779993;39.48782002;La Plana d'Utiel-Requena
CONSULTORIO AUXILIAR DE REQUENA LOS RUICES;OLMO, 1 46353 REQUENA;46353;REQUENA;-1.25542;39.47482999;La Plana d'Utiel-Requena
CONSULTORIO AUXILIAR DE REQUENA EL REBOLLAR;ENRIQUE CARCEL, S/N 46391 REQUENA;46391;REQUENA;-1.011762074;39.46937713;La Plana d'Utiel-Requena
CONSULTORIO AUXILIAR DE REQUENA SAN JUAN;VEREDA, S/N 46390 REQUENA;46390;REQUENA;-1.090563159;39.48485506;La Plana d'Utiel-Requena
CONSULTORIO AUXILIAR DE REQUENA LOS COJOS;MAYOR, 42 46354 REQUENA;46354;REQUENA;-1.307170038;39.42363002;La Plana d'Utiel-Requena
CONSULTORIO AUXILIAR DE REQUENA CASAS DEL RIO;EL CURA, 1 46356 REQUENA;46356;REQUENA;-1.133730021;39.29662;La Plana d'Utiel-Requena
CONSULTORIO AUXILIAR DE REQUENA LOS DUQUES;LA ESTRELLA, S/N 46352 REQUENA;46352;REQUENA;-1.205801298;39.43427378;La Plana d'Utiel-Requena
CONSULTORIO AUXILIAR DE REQUENA LA PORTERA;PLAZA SAN JOSE, S/N 46357 REQUENA;46357;REQUENA;-1.101101155;39.4021786;La Plana d'Utiel-Requena
CONSULTORIO AUXILIAR DE REQUENA BARRIO ARROYO;ESCUELAS, S/N 46390 REQUENA;46390;REQUENA;-1.164494916;39.51582004;La Plana d'Utiel-Requena
CONSULTORIO AUXILIAR DE REQUENA CASAS DE EUFEMIA;AVDA. LOS DUQUES, 1 46352 REQUENA;46352;REQUENA;-1.21212001;39.44899999;La Plana d'Utiel-Requena
CONSULTORIO AUXILIAR DE REQUENA CAMPO ARCIS;PORTERA, 8 46352 REQUENA;46352;REQUENA;-1.167559969;39.42977999;La Plana d'Utiel-Requena
CONSULTORIO AUXILIAR DE REQUENA LOS PEDRONES;CARRETERA, 20 46355 REQUENA;46355;REQUENA;-1.098580007;39.48339001;La Plana d'Utiel-Requena
CONSULTORIO AUXILIAR DE REQUENA LOS ISIDROS;ALBACETE, 25 46354 REQUENA;46354;REQUENA;-1.295569987;39.41997999;La Plana d'Utiel-Requena
CONSULTORIO AUXILIAR DE REQUENA SAN ANTONIO;PLZA. SALVADOR ZAHONERO, 5 46340 REQUENA;46340;REQUENA;-1.100759972;39.48613999;La Plana d'Utiel-Requena
UNIDAD DE ODONTOLOGIA DE REQUENA;CONSTITUCION, 47 46340 REQUENA;46340;REQUENA;-1.096779993;39.48782002;La Plana d'Utiel-Requena
CENTRO DE SALUD SEXUAL Y REPRODUCTIVA DE UTIEL;ESCUELAS PIAS, 1 46300 REQUENA;46300;REQUENA;-1.153320037;39.49406001;La Plana d'Utiel-Requena
CENTRO DE SALUD MENTAL DE REQUENA;AV. CONSTITUCION, 47 46340 REQUENA;46340;REQUENA;-1.096779993;39.48782002;La Plana d'Utiel-Requena
CENTRO DE CONDUCTAS ADICTIVAS DE REQUENA;CONSTITUCION, 28 46340 REQUENA;46340;REQUENA;-1.098039961;39.48822;La Plana d'Utiel-Requena
CENTRO DE PREVENCION DE CANCER DE MAMA DE REQUENA;PARATGE CASA BLANCA, S/N 46340 REQUENA;46340;REQUENA;-1.091087922;39.48580366;La Plana d'Utiel-Requena
CENTRO DE SALUD DE RIBA-ROJA DE TURIA;COLON, S/N 46190 RIBA-ROJA DE TURIA;46190;RIBA-ROJA DE TURIA;-0.559713906;39.532115;Camp de Túria
UNIDAD BASICA DE REHABILITACION DEL C.S. DE RIBA-ROJA DE TURIA;GARELLI Y PASTOR, 7 46190 RIBA-ROJA DE TURIA;46190;RIBA-ROJA DE TURIA;-0.567660034;39.54771999;Camp de Túria
CONSULTORIO AUXILIAR DE RIBESALBES;CASTELLON, 5 12210 RIBESALBES;12210;RIBESALBES;-0.276960042;40.02349999;Plana Baixa
CONSULTORIO AUXILIAR DE RIOLA;PLAZA CONSTITUCIÓN, 1 46418 RIOLA;46418;RIOLA;-0.334770028;39.19770998;Ribera Baixa
CONSULTORIO AUXILIAR DE ROCAFORT;BARON DE TERRATEIG, 5 46111 ROCAFORT;46111;ROCAFORT;-0.411109971;39.52858;Horta Oest
CENTRO SANITARIO INTEGRADO DE ROJALES;CONSTITUCION, S/N 3170 ROJALES;3170;ROJALES;-0.729461111;38.08491721;Baix Segura
CENTRO DE SALUD DE ROJALES II - LO MARABU;AVDA. HUELVA (URB. DOÑA PEPA), 1 3170 ROJALES;3170;ROJALES;-0.71678202;38.05654152;Baix Segura
CONSULTORIO AUXILIAR DE LA ROMANA L'ALGAYAT;PARAJE L'ALGAYAT, null 3669 ROMANA (LA);3669;ROMANA (LA);-0.902648118;38.35853;Vinalopó Mitjà
CONSULTORIO AUXILIAR DE LA ROMANA;CERVANTES, 20 3640 ROMANA (LA);3640;ROMANA (LA);-0.896150005;38.36518001;Vinalopó Mitjà
CONSULTORIO AUXILIAR DE ROSSELL;MAESTRA SAINZ, 31 12510 ROSSELL;12510;ROSSELL;0.221479973;40.61871;Baix Maestrat
CONSULTORIO AUXILIAR DE ROTGLA I CORBERA;CARRETERA DE MADRID, 62 46816 ROTGLA I CORBERA;46816;ROTGLA I CORBERA;-0.566659989;39.00349001;La Costera
CONSULTORIO AUXILIAR DE ROTOVA;JAUME I, 84 46725 ROTOVA;46725;ROTOVA;-0.256120032;38.93170999;La Safor
CONSULTORIO AUXILIAR DE RUGAT;AUSIAS MARCH, 2 46842 RUGAT;46842;RUGAT;-0.361747854;38.87998577;La Vall d'Albaida
CONSULTORIO AUXILIAR DE SACAÑET;NUEVA, 4 12469 SACAÑET;12469;SACAÑET;-0.714799986;39.85147002;Alt Palància
CONSULTORIO AUXILIAR DE SAGRA;ABDON Y SENENT, S/N 3795 SAGRA;3795;SAGRA;-0.065879915;38.81085003;Marina Alta
HOSPITAL DE SAGUNTO;AV. RAMON Y CAJAL, S/N 46520 SAGUNTO/SAGUNT;46520;SAGUNTO/SAGUNT;-0.234746362;39.67105413;Camp de Morvedre
CENTRO DE ESPECIALIDADES DE PUERTO DE SAGUNT / SAGUNTO;AV. HISPANITAT, S/N 46520 SAGUNTO/SAGUNT;46520;SAGUNTO/SAGUNT;-0.228405852;39.66486256;Camp de Morvedre
CENTRO DE SALUD DE SAGUNT / SAGUNTO;SANTOS PATRONOS, 81 46500 SAGUNTO/SAGUNT;46500;SAGUNTO/SAGUNT;-0.28807;39.67373182;Camp de Morvedre
CENTRO DE SALUD DE PUERTO DE SAGUNTO II;SAGASTA, S/N 46520 SAGUNTO/SAGUNT;46520;SAGUNTO/SAGUNT;-0.27183;39.67598;Camp de Morvedre
CENTRO DE SALUD DE PUERTO DE SAGUNTO;PERIODISTA AZZATI, S/N 46520 SAGUNTO/SAGUNT;46520;SAGUNTO/SAGUNT;-0.225445954;39.66712398;Camp de Morvedre
CONSULTORIO AUXILIAR DE SAGUNT / SAGUNTO ALMARDA;CATARROJA, 9B 46529 SAGUNTO/SAGUNT;46529;SAGUNTO/SAGUNT;-0.200710083;39.70349446;Camp de Morvedre
CONSULTORIO AUXILIAR DE SAGUNT / SAGUNTO RAVAL;PZA. BLASCO IBAÑEZ, 4 46500 SAGUNTO/SAGUNT;46500;SAGUNTO/SAGUNT;-0.271869963;39.67794002;Camp de Morvedre
CONSULTORIO AUXILIAR DE PORT DE SAGUNT / PUERTO DE SAGUNTO EL BALADRE;GENERALITAT, S/N 46520 SAGUNTO/SAGUNT;46520;SAGUNTO/SAGUNT;-0.234748218;39.645954;Camp de Morvedre
UNIDAD BÁSICA DE REHABILITACIÓN DEL C.S. DE SAGUNT / SAGUNTO;SANTOS PATRONOS, 81 46500 SAGUNTO/SAGUNT;46500;SAGUNTO/SAGUNT;-0.28807;39.67373182;Camp de Morvedre
UNIDAD DE ODONTOLOGIA DE PUERTO DE SAGUNTO;PERIODISTA AZZATI, 2 46520 SAGUNTO/SAGUNT;46520;SAGUNTO/SAGUNT;-0.227675929;39.6626201;Camp de Morvedre
UNIDAD DE ODONTOLOGIA DE SAGUNT / SAGUNTO;SANTS DE LA PEDRA, 83 46500 SAGUNTO/SAGUNT;46500;SAGUNTO/SAGUNT;-0.280680014;39.68272001;Camp de Morvedre
CENTRO DE SALUD SEXUAL Y REPRODUCTIVA DE PUERTO DE SAGUNTO II;SAGASTA, S/N 46520 SAGUNTO/SAGUNT;46520;SAGUNTO/SAGUNT;-0.27183;39.67598;Camp de Morvedre
CENTRO DE SALUD SEXUAL Y REPRODUCTIVA DE PUERTO DE SAGUNT/SAGUNTO;PERIODISTA AZZATI, S/N 46520 SAGUNTO/SAGUNT;46520;SAGUNTO/SAGUNT;-0.225445954;39.66712398;Camp de Morvedre
CENTRO DE SALUD MENTAL INFANTIL DE SAGUNT / SAGUNTO;PZA GENERALITAT, S/N 46520 SAGUNTO/SAGUNT;46520;SAGUNTO/SAGUNT;-0.234748218;39.645954;Camp de Morvedre
CENTRO DE SALUD MENTAL DE SAGUNT/ SAGUNTO;AVDA. SANTOS PATRONOS, 81 46500 SAGUNTO/SAGUNT;46500;SAGUNTO/SAGUNT;-0.28807;39.67373182;Camp de Morvedre
CENTRO DE CONDUCTAS ADICTIVAS DE SAGUNT/SAGUNTO;SAGASTA, S/N 46520 SAGUNTO/SAGUNT;46520;SAGUNTO/SAGUNT;-0.27183;39.67598;Camp de Morvedre
CENTRO DE PREVENCION DE CANCER DE MAMA DE SAGUNT / SAGUNTO;SAGASTA, S/N 46250 SAGUNTO/SAGUNT;46250;SAGUNTO/SAGUNT;-0.27183;39.67598;Camp de Morvedre
CONSULTORIO AUXILIAR DE SALEM;PLAZA LA PAZ, 1 46843 SALEM;46843;SALEM;-0.390576936;38.85682;La Vall d'Albaida
CONSULTORIO AUXILIAR DE SALINAS;C/ ANTONIO MACHADO, 15 3658 SALINAS;3658;SALINAS;-0.912339986;38.52006002;L'Alt Vinalopó
CONSULTORIO AUXILIAR DE LA SALZADELLA;AVDA. DANIEL MONTULL, S/N 12186 SALZADELLA (LA);12186;SALZADELLA (LA);0.176032265;40.42139161;Baix Maestrat
CONSULTORIO AUXILIAR DE SAN ANTONIO DE BENAGEBER;PURISIMA, S/N 46184 SAN ANTONIO DE BENAGEBER;46184;SAN ANTONIO DE BENAGEBER;-0.499884057;39.56009528;Camp de Túria
CONSULTORIO AUXILIAR DE SAN FULGENCIO;INFANTA LEONOR, 36, 31 3177 SAN FULGENCIO;3177;SAN FULGENCIO;-0.717559338;38.11469493;Baix Segura
CONSULTORIO AUXILIAR DE SAN FULGENCIO EL OASIS;AMSTERDAM, S/N 3177 SAN FULGENCIO;3177;SAN FULGENCIO;-0.699934381;38.120155;Baix Segura
CONSULTORIO AUXILIAR DE SAN delimiter DE SALINAS;C/ 19 DE ABRIL, 34 3193 SAN MIGUEL DE SALINAS;3193;SAN MIGUEL DE SALINAS;-0.788910007;37.97924001;Baix Segura
CONSULTORIO AUXILIAR DE SAN RAFAEL DEL RIO;SALVADOR PONS, 20 12510 SAN RAFAEL DEL RIO;12510;SAN RAFAEL DEL RIO;0.348379975;40.60574001;Baix Maestrat
CENTRO DE ESPECIALIDADES DE SAN VICENTE DEL RASPEIG;LILLO JUAN, 137 3690 SAN VICENTE DEL RASPEIG/SANT VICENT DEL RASPEIG;3690;SAN VICENTE DEL RASPEIG/SANT VICENT DEL RASPEIG;-0.529883536;38.40419829;L'Alacantí
CENTRO DE SALUD DE SAN VICENTE DEL RASPEIG II;ALICANTE, 78 3690 SAN VICENTE DEL RASPEIG/SANT VICENT DEL RASPEIG;3690;SAN VICENTE DEL RASPEIG/SANT VICENT DEL RASPEIG;-0.493503256;38.3876144;L'Alacantí
CENTRO DE SALUD DE SAN VICENTE DEL RASPEIG I;PARTIDA CANASTELL, 16 3690 SAN VICENTE DEL RASPEIG/SANT VICENT DEL RASPEIG;3690;SAN VICENTE DEL RASPEIG/SANT VICENT DEL RASPEIG;-0.535577213;38.40354317;L'Alacantí
CONSULTORIO AUXILIAR DE SAN VICENTE DEL RASPEIG COLONIA SANTA ISABEL;AVDA. HAYGON, 48 3690 SAN VICENTE DEL RASPEIG/SANT VICENT DEL RASPEIG;3690;SAN VICENTE DEL RASPEIG/SANT VICENT DEL RASPEIG;-0.502429386;38.38597004;L'Alacantí
UNIDAD BÁSICA DE REHABILITACIÓN DEL C.S. DE SANT VICENT DEL RASPEIG II;ALICANTE, 78 3690 SAN VICENTE DEL RASPEIG/SANT VICENT DEL RASPEIG;3690;SAN VICENTE DEL RASPEIG/SANT VICENT DEL RASPEIG;-0.493503256;38.3876144;L'Alacantí
UNIDAD DE ODONTOLOGIA DE SAN VICENTE DEL RASPEIG I;PARTIDA CANASTELL, 16 3690 SAN VICENTE DEL RASPEIG/SANT VICENT DEL RASPEIG;3690;SAN VICENTE DEL RASPEIG/SANT VICENT DEL RASPEIG;-0.535577213;38.40354317;L'Alacantí
UNIDAD DE ODONTOLOGIA DE SAN VICENTE DEL RASPEIG II;AVDA. ALICANTE, 78 3690 SAN VICENTE DEL RASPEIG/SANT VICENT DEL RASPEIG;3690;SAN VICENTE DEL RASPEIG/SANT VICENT DEL RASPEIG;-0.517283295;38.39235827;L'Alacantí
CENTRO DE SALUD SEXUAL Y REPRODUCTIVA DE SAN VICENTE DEL RASPEIG;PARTIDA CANASTELL, S/N 3690 SAN VICENTE DEL RASPEIG/SANT VICENT DEL RASPEIG;3690;SAN VICENTE DEL RASPEIG/SANT VICENT DEL RASPEIG;-0.532601269;38.40095792;L'Alacantí
CENTRO DE SALUD MENTAL INFANTIL DE SAN VICENTE DEL RASPEIG;ALICANTE, 78 3690 SAN VICENTE DEL RASPEIG/SANT VICENT DEL RASPEIG;3690;SAN VICENTE DEL RASPEIG/SANT VICENT DEL RASPEIG;-0.493503256;38.3876144;L'Alacantí
CENTRO DE SALUD MENTAL DE SAN VICENTE DEL RASPEIG;PARTIDA CANASTELL, 16 3690 SAN VICENTE DEL RASPEIG/SANT VICENT DEL RASPEIG;3690;SAN VICENTE DEL RASPEIG/SANT VICENT DEL RASPEIG;-0.535577213;38.40354317;L'Alacantí
CENTRO DE CONDUCTAS ADICTIVAS DE SANT VICENT DEL RASPEIG/SAN VICENTE DEL RASPEIG;PARTIDA CANASTELL, 16 3690 SAN VICENTE DEL RASPEIG/SANT VICENT DEL RASPEIG;3690;SAN VICENTE DEL RASPEIG/SANT VICENT DEL RASPEIG;-0.535577213;38.40354317;L'Alacantí
CONSULTORIO AUXILIAR DE SANET I NEGRALS;C/ AJUNTAMENT, 20 3769 SANET Y NEGRALS;3769;SANET Y NEGRALS;-0.03558998;38.81976;Marina Alta
CENTRO DOCTOR ESQUERDO;RAMON DE CAMPOAMOR, 25 3550 SANT JOAN D'ALACANT;3550;SANT JOAN D'ALACANT;-0.439450024;38.39057001;L'Alacantí
HOSPITAL UNIVERSITARIO SAN JUAN DE ALICANTE;CARRETERA DE ALICANTE-València, S/N 3550 SANT JOAN D'ALACANT;3550;SANT JOAN D'ALACANT;-0.430016603;38.39647539;L'Alacantí
CENTRO DE SALUD DE SANT JOAN D'ALACANT;AUSIAS MARCH, S/N 3550 SANT JOAN D'ALACANT;3550;SANT JOAN D'ALACANT;-0.437830112;38.39348164;L'Alacantí
UNIDAD BÁSICA DE REHABILITACIÓN DEL C.S. DE SANT JOAN D¿ALACANT;AUSIAS MARCH, S/N 3550 SANT JOAN D'ALACANT;3550;SANT JOAN D'ALACANT;-0.437830112;38.39348164;L'Alacantí
UNIDAD DE ODONTOLOGIA HOSPITAL PROVINCIAL ALICANTE;HERMANOS LOPEZ DE OSABA, S/N 3013 SANT JOAN D'ALACANT;3013;SANT JOAN D'ALACANT;-0.47598;38.35301;L'Alacantí
UNIDAD DE ODONTOLOGIA DE SANT JOAN D'ALACANT/ SAN JUAN DE ALICANTE;AUSIAS MARCH, S/N 3550 SANT JOAN D'ALACANT;3550;SANT JOAN D'ALACANT;-0.437830112;38.39348164;L'Alacantí
CENTRO DE SALUD MENTAL DE SANT JOAN D'ALACANT;PTDA. DE BEN-ALI, S/N 3550 SANT JOAN D'ALACANT;3550;SANT JOAN D'ALACANT;-0.430933222;38.406275;L'Alacantí
CENTRO DE ALCOHOLOGIA DE SANT JOAN D'ALACANT;CTRA. NACIONAL 332, S/N 3550 SANT JOAN D'ALACANT;3550;SANT JOAN D'ALACANT;-0.430933222;38.406275;L'Alacantí
CONSULTORIO AUXILIAR DE SANT JOAN DE MORO;C/ CERVANTES, 10 12130 SANT JOAN DE MORO;12130;SANT JOAN DE MORO;-0.13826997;40.05950999;Plana Alta
CONSULTORIO AUXILIAR DE SANT JOANET;VILLANUEVA DE CASTELLON, 3 46669 SANT JOANET;46669;SANT JOANET;-0.488690017;39.07105;Ribera Alta
CONSULTORIO AUXILIAR DE SAN JORGE / SANT JORDI;DIEZMO, 1 12320 SANT JORDI/SAN JORGE;12320;SANT JORDI/SAN JORGE;0.330170039;40.50887999;Baix Maestrat
CENTRO DE SALUD DE SANT MATEU;AVD. CONSTITUCIO, 29 12170 SANT MATEU;12170;SANT MATEU;0.179059999;40.46113001;Baix Maestrat
UNIDAD DE ODONTOLOGIA DE SANT MATEU;AV. CONSTITUCIO, 29 12170 SANT MATEU;12170;SANT MATEU;0.179059999;40.46113001;Baix Maestrat
CENTRO DE SALUD MENTAL DE SANT MATEU;AV. CONSTITUCION, 29 12170 SANT MATEU;12170;SANT MATEU;0.179059999;40.46113001;Baix Maestrat
CONSULTORIO AUXILIAR DE SANTA MAGDALENA DE PULPIS;LUIS TORRES MORERA, S/N 12597 SANTA MAGDALENA DE PULPIS;12597;SANTA MAGDALENA DE PULPIS;0.304990783;40.35598219;Baix Maestrat
CENTRO SANITARIO INTEGRADO DE SANTA POLA;AV. ALBACETE, S/N 3130 SANTA POLA;3130;SANTA POLA;-0.569995119;38.1939233;El Baix Vinalopo
CONSULTORIO AUXILIAR DE SANTA POLA GRAN ALACANT;AV. ESCANDINAVIA, 31 3130 SANTA POLA;3130;SANTA POLA;-0.517381438;38.2170779;El Baix Vinalopo
CONSULTORIO DE VERANO DE SANTA POLA PLAYA LISA;AV. RONDA, 2 3130 SANTA POLA;3130;SANTA POLA;-0.578590036;38.19392;El Baix Vinalopo
CONSULTORIO DE VERANO DE SANTA POLA DEL ESTE;AVDA. SANTIAGO BERNABEU (URB. PUERTO VARADERO, LOC, 43 3130 SANTA POLA;3130;SANTA POLA;-0.535476541;38.18936343;El Baix Vinalopo
CONSULTORIO DE VERANO DE SANTA POLA CASA DEL MAR;CANALEJAS, 1 3130 SANTA POLA;3130;SANTA POLA;-0.557492582;38.19093243;El Baix Vinalopo
UNIDAD BÁSICA DE REHABILITACIÓN DEL C.S.I. DE SANTA POLA;AVDA. ALBACETE, S/N 3130 SANTA POLA;3130;SANTA POLA;-0.569995119;38.1939233;El Baix Vinalopo
UNIDAD DE ODONTOLOGIA DE SANTA POLA;AVDA. DE ALBACETE, S/N 3130 SANTA POLA;3130;SANTA POLA;-0.569995119;38.1939233;El Baix Vinalopo
CENTRO DE SALUD SEXUAL Y REPRODUCTIVA DE SANTA POLA;AVD. ALBACETE, S/N, null 3130 SANTA POLA;3130;SANTA POLA;-0.569995119;38.1939233;El Baix Vinalopo
CENTRO DE SALUD MENTAL DE SANTA POLA;AVD. ALBACETE S/N, null 3130 SANTA POLA;3130;SANTA POLA;-0.569995119;38.1939233;El Baix Vinalopo
CENTRO DE SALUD DE SAX;C/ REYES CATOLICOS, 21 3630 SAX;3630;SAX;-0.817660019;38.53490001;L'Alt Vinalopó
CENTRO DE SALUD DE SEDAVI;DR GOMEZ FERRER, 3 46910 SEDAVI;46910;SEDAVI;-0.38648;39.42529999;Horta Sud
CENTRO DE SALUD MENTAL DE SEDAVI;GÓMEZ FERRER, 3 46910 SEDAVI;46910;SEDAVI;-0.38648;39.42529999;Horta Sud
CONSULTORIO AUXILIAR DE SEGART;PZA MAYOR, S/N 46592 SEGART;46592;SEGART;-0.37140174;39.6837647;Camp de Morvedre
CENTRO SANITARIO INTEGRADO ALTO PALANCIA;CRONISTA FAUS Y FAUS, S/N 12400 SEGORBE;12400;SEGORBE;-0.492472553;39.84838262;Alt Palància
CONSULTORIO AUXILIAR DE SEGORBE PEÑALBA;GELDO, S/N 12400 SEGORBE;12400;SEGORBE;-0.49021;39.85074358;Alt Palància
UNIDAD BÁSICA DE REHABILITACIÓN DEL C.S.I. DE ALTO PALANCIA;CRONISTA FAUS Y FAUS, S/N 12400 SEGORBE;12400;SEGORBE;-0.492472553;39.84838262;Alt Palància
UNIDAD DE ODONTOLOGIA DE SEGORBE;CRONISTA FAUS Y FAUS, S/N 12400 SEGORBE;12400;SEGORBE;-0.492472553;39.84838262;Alt Palància
CENTRO DE SALUD SEXUAL Y REPRODUCTIVA DE SEGORBE;C/ CRONISTA JAIME FAUS Y FAUS, S/N 12400 SEGORBE;12400;SEGORBE;-0.492472553;39.84838262;Alt Palància
CENTRO DE SALUD MENTAL DE SEGORBE;CRONISTA FAUS Y FAUS, S/N 12400 SEGORBE;12400;SEGORBE;-0.492472553;39.84838262;Alt Palància
CONSULTORIO AUXILIAR DE SELLA;PLAZA MAYOR, 8 3579 SELLA;3579;SELLA;-0.272099963;38.60841001;La Marina Baixa
CONSULTORIO AUXILIAR DE SELLENT;DIPUTACIO, 1 46295 SELLENT;46295;SELLENT;-0.587509973;39.03100001;Ribera Alta
CONSULTORIO AUXILIAR DE SEMPERE;PLAZA SAN PEDRO, 23 46839 SEMPERE;46839;SEMPERE;-0.480810022;38.91936001;La Vall d'Albaida
CONSULTORIO AUXILIAR DE SENIJA;AVDA JOSE ANTONIO, 4 3729 SENIJA;3729;SENIJA;0.048180209;38.72937697;Marina Alta
CONSULTORIO AUXILIAR DE SENYERA;DOCTOR FLEMING, S/N 46669 SENYERA;46669;SENYERA;-0.511063953;39.06466883;Ribera Alta
CONSULTORIO AUXILIAR DE SERRA;SAGUNTO, 31 46118 SERRA;46118;SERRA;-0.426480035;39.68599;Camp de Túria
CONSULTORIO AUXILIAR DE LA SERRATELLA;PLAZA, 4 12184 SERRATELLA (LA);12184;SERRATELLA (LA);0.026545;40.30264472;Plana Alta
CONSULTORIO AUXILIAR SIERRA ENGARCERAN ELS IBARSOS;PLAZA MAYOR, 3 12164 SIERRA ENGARCERAN;12164;SIERRA ENGARCERAN;-0.078229979;40.22709;Plana Alta
CONSULTORIO AUXILIAR SIERRA ENGARCERAN ELS ROSILDOS;AV. CONSTITUCION, S/N 12182 SIERRA ENGARCERAN;12182;SIERRA ENGARCERAN;-0.045169809;40.29164269;Plana Alta
CONSULTORIO AUXILIAR DE SIERRA ENGARCERAN;C/ HERMINIO SALVADOR, 3 12182 SIERRA ENGARCERAN;12182;SIERRA ENGARCERAN;-0.019690013;40.26914;Plana Alta
CONSULTORIO AUXILIAR DE SIETE AGUAS;VICENTE MASCAROS, 9 46392 SIETE AGUAS;46392;SIETE AGUAS;-0.915996982;39.47355834;La Foia de Bunyol
CENTRO DE SALUD DE SILLA;C/ AUSIAS MARCH, S/N 46460 SILLA;46460;SILLA;-0.412521112;39.35736938;Horta Sud
UNIDAD BÁSICA DE REHABILITACIÓN DEL C.S. DE SILLA;AUSIAS MARCH, S/N 46460 SILLA;46460;SILLA;-0.412521112;39.35736938;Horta Sud
UNIDAD DE ODONTOLOGIA DE SILLA;AUSIAS MARCH, S/N 46460 SILLA;46460;SILLA;-0.412521112;39.35736938;Horta Sud
CENTRO DE SALUD SEXUAL Y REPRODUCTIVA DE SILLA;AUSIAS MARCH, S/N 46460 SILLA;46460;SILLA;-0.412521112;39.35736938;Horta Sud
CONSULTORIO AUXILIAR DE SIMAT DE LA VALLDIGNA;AVENIDA DE LA VALLDIGNA, S/N 46750 SIMAT DE LA VALLDIGNA;46750;SIMAT DE LA VALLDIGNA;-0.310651393;39.04544913;La Safor
CONSULTORIO AUXILIAR DE SINARCAS;CAÑIZARES, S/N 46320 SINARCAS;46320;SINARCAS;-1.231503005;39.73207313;La Plana d'Utiel-Requena
CONSULTORIO AUXILIAR DE SOLLANA EL ROMANI;MOLI, S/N 46439 SOLLANA;46439;SOLLANA;-0.40103643;39.30101793;Ribera Baixa
CONSULTORIO AUXILIAR DE SOLLANA;PZ. JOAN FUSTER, 3 46430 SOLLANA;46430;SOLLANA;-0.383780021;39.27961002;Ribera Baixa
CENTRO DE SALUD DE SONEJA;MAYOR, 72 12480 SONEJA;12480;SONEJA;-0.431089997;39.81491;Alt Palància
CONSULTORIO AUXILIAR DE SOT DE CHERA;BLAS CERVERA, 1 46168 SOT DE CHERA;46168;SOT DE CHERA;-0.909229964;39.62285;Els serrans
CONSULTORIO AUXILIAR DE SOT DE FERRER;SAN CRISTOBAL, 6 12489 SOT DE FERRER;12489;SOT DE FERRER;-0.412059976;39.80465;Alt Palància
CENTRO DE ESPECIALIDADES DE SUECA;CAMI DOS PONTETS, 16 46410 SUECA;46410;SUECA;-0.306039965;39.20410001;Ribera Baixa
CENTRO DE SALUD DE SUECA;C/LES PALMERES, S/N 46410 SUECA;46410;SUECA;-0.305418557;39.20362228;Ribera Baixa
CONSULTORIO AUXILIAR DE SUECA EL PERELLO;BARON DE RUAYA, S/N 46412 SUECA;46412;SUECA;-0.277059912;39.27671504;Ribera Baixa
CONSULTORIO AUXILIAR DE SUECA MARENY DE BARRAQUETES;SUECA, S/N 46419 SUECA;46419;SUECA;-0.30623;39.19913;Ribera Baixa
CONSULTORIO DE VERANO DE SUECA MARENY BLAU;POLIDEPORTIVO SOCIAL M.B., null 46140 SUECA;46140;SUECA;-0.3076;39.20282;Ribera Baixa
CONSULTORIO DE VERANO DE SUECA EL POUET LA LLASTRA;PLAZA DEL SOCARRAT, S/N 46410 SUECA;46410;SUECA;-0.27365543;39.27197609;Ribera Baixa
CONSULTORIO DE VERANO DE SUECA LES PALMERETES;C/ RIU DEL CAIRE, S/N 46419 SUECA;46419;SUECA;-0.265195;39.23616513;Ribera Baixa
UNIDAD BASICA DE REHABILITACION DEL C.S. DE SUECA;C/ LES PALMERES, S/N 46000 SUECA;46000;SUECA;-0.305418557;39.20362228;Ribera Baixa
UNIDAD DE ODONTOLOGIA DE SUECA;LES PALMERES, S/N 46410 SUECA;46410;SUECA;-0.305418557;39.20362228;Ribera Baixa
CENTRO DE SALUD SEXUAL Y REPRODUCTIVA DE SUECA;LES PALMERES, S/N 46410 SUECA;46410;SUECA;-0.305418557;39.20362228;Ribera Baixa
CENTRO DE SALUD MENTAL DE SUECA;LES PALMERES, S/N 46410 SUECA;46410;SUECA;-0.305418557;39.20362228;Ribera Baixa
CONSULTORIO AUXILIAR DE SUERA / SUERAS;C/ MAYOR, 1 12223 SUERAS/SUERA;12223;SUERAS/SUERA;-0.332510015;39.95228;Plana Baixa
CONSULTORIO AUXILIAR DE SUMACARCER;PAIS València, 1 46295 SUMACARCER;46295;SUMACARCER;-0.630070009;39.09663001;Ribera Alta
CENTRO DE SALUD DE TALES;AVDA. MONTI, S/N 12221 TALES;12221;TALES;-0.306245616;39.94864957;Plana Baixa
CONSULTORIO AUXILIAR DE TARBENA;PLAZA DE SANTA ANA, S/N 3518 TARBENA;3518;TARBENA;-0.100566803;38.69276792;La Marina Baixa
CENTRO DE SALUD DE TAVERNES BLANQUES;CASTELLÓN, 17 46016 TAVERNES BLANQUES;46016;TAVERNES BLANQUES;-0.363447195;39.50812957;Horta Nord
UNIDAD BASICA DE REHABILITACION DEL C.S. DE TAVERNES BLANQUES;CASTELLON, 17 46016 TAVERNES BLANQUES;46016;TAVERNES BLANQUES;-0.363447195;39.50812957;Horta Nord
CENTRO SANITARIO INTEGRADO DE TAVERNES DE LA VALLDIGNA;PL. PRADO COMARCAL, S/N, S/N 46760 TAVERNES DE LA VALLDIGNA;46760;TAVERNES DE LA VALLDIGNA;-0.262727587;39.07174744;La Safor
CONSULTORIO AUXILIAR DE TAVERNES DE LA VALLDIGNA PLAYA;SANTA MARIA, S/N 46760 TAVERNES DE LA VALLDIGNA;46760;TAVERNES DE LA VALLDIGNA;-0.216799937;39.08854504;La Safor
UNIDAD DE ODONTOLOGIA DE TAVERNES DE VALLDIGNA;PLAZA PRADO COMARCAL, S/N 46760 TAVERNES DE LA VALLDIGNA;46760;TAVERNES DE LA VALLDIGNA;-0.262727587;39.07174744;La Safor
CENTRO DE SALUD SEXUAL Y REPRODUCTIVA DE TAVERNES DE LA VALLDIGNA;PLAZA PRADO COMARCAL, S/N 46760 TAVERNES DE LA VALLDIGNA;46760;TAVERNES DE LA VALLDIGNA;-0.262727587;39.07174744;La Safor
CENTRO DE SALUD MENTAL DE TAVERNES DE LA VALLDIGNA;PLAZA MERCADO, 1 46760 TAVERNES DE LA VALLDIGNA;46760;TAVERNES DE LA VALLDIGNA;-0.249150302;39.07688;La Safor
CONSULTORIO AUXILIAR DE TERESA;ENMEDIO, 13 12469 TERESA;12469;TERESA;-0.658479967;39.90035001;Alt Palància
CONSULTORIO AUXILIAR DE TERESA DE COFRENTES;PLZA. HISPANIDAD, S/N 46622 TERESA DE COFRENTES;46622;TERESA DE COFRENTES;-1.050739917;39.10357505;La Vall d'Aiora
CONSULTORIO AUXILIAR DE TERRATEIG;IGLESIA SAN JUAN BAUTISTA, 6 46842 TERRATEIG;46842;TERRATEIG;-0.320660016;38.89430001;La Vall d'Albaida
CENTRO DE SALUD DE TEULADA;C/ DR. PITARCH, S/N 3725 TEULADA;3725;TEULADA;0.102650274;38.72598299;Marina Alta
CONSULTORIO AUXILIAR DE TEULADA MORAIRA;CARRETERA MORAIRA-CALP, 14 3724 TEULADA;3724;TEULADA;0.132278231;38.68915334;Marina Alta
CONSULTORIO AUXILIAR DE TIBI;PARQUE DE LA ERA DEL TEULAR, S/N 3109 TIBI;3109;TIBI;-0.575215261;38.53211572;L'Alcoià
CONSULTORIO AUXILIAR DE TIRIG;C/ ENSEÑANZA S/N, null 12179 TIRIG;12179;TIRIG;0.079333409;40.4233812;Alt Maestrat
CENTRO DE SALUD DE TITAGUAS;ROJAS CLEMENTE, 2 46178 TITAGUAS;46178;TITAGUAS;-1.083140038;39.86360999;Els serrans
CONSULTORIO AUXILIAR DE TODOLELLA;DEL ARC, 5 12312 TODOLELLA;12312;TODOLELLA;-0.246580001;40.64649001;Els Ports
CONSULTORIO AUXILIAR DE TOGA;MIGUEL DE CERVANTES, S/N, 2 12230 TOGA;12230;TOGA;-0.365344032;40.04265434;Alt Millars
CONSULTORIO AUXILIAR DE TOLLOS;LIDONER, 1 3813 TOLLOS;3813;TOLLOS;-0.275079981;38.75701001;El Comtat
CONSULTORIO AUXILIAR DE TORAS;VIVER, 7 12431 TORAS;12431;TORAS;-0.686049974;39.91993001;Alt Palància
CONSULTORIO AUXILIAR DE TORMOS;C/ MAJOR, 5 3795 TORMOS;3795;TORMOS;-0.071769962;38.80193999;Marina Alta
CONSULTORIO AUXILIAR DE EL TORO;València, 3 12429 TORO (EL);12429;TORO (EL);-0.74781999;39.98231999;Alt Palància
CONSULTORIO AUXILIAR DE TORRALBA DEL PINAR;IBLESIA, 8 12225 TORRALBA DEL PINAR;12225;TORRALBA DEL PINAR;-0.438749967;39.98829;Alt Millars
CONSULTORIO AUXILIAR DE LA TORRE D'EN BESORA;C/ BAJO VILA, S/N 12161 TORRE D'EN BESORA (LA);12161;TORRE D'EN BESORA (LA);-0.083652898;40.318525;Alt Maestrat
CONSULTORIO AUXILIAR LA TORRE D'EN DOMENECH;PRIMO DE RIVERA, 1 12184 TORRE D'EN DOMENECH (LA);12184;TORRE D'EN DOMENECH (LA);0.074230862;40.26701265;Plana Alta
CONSULTORIO AUXILIAR DE TORREBAJA;FUENTECILLA, S/N 46143 TORREBAJA;46143;TORREBAJA;-1.256286302;40.09628799;Racó d'Ademús
CENTRO DE SALUD DE TORREBLANCA;C/ GALICIA, 36 12596 TORREBLANCA;12596;TORREBLANCA;0.194740025;40.21885998;Plana Alta
CONSULTORIO DE VERANO DE TORREBLANCA TORRENOSTRA;SAN JUAN, S/N 12596 TORREBLANCA;12596;TORREBLANCA;0.204794572;40.20844;Plana Alta
UNIDAD BÁSICA DE REHABILITACIÓN DEL C.S. DE TORREBLANCA;GALICIA, 36 12596 TORREBLANCA;12596;TORREBLANCA;0.194740025;40.21885998;Plana Alta
CONSULTORIO AUXILIAR DE TORRECHIVA;PZA. IGLESIA, 2 12232 TORRECHIVA;12232;TORRECHIVA;-0.397949964;40.04896002;Alt Millars
CONSULTORIO AUXILIAR DE TORRELLA;CONSULTORIO MEDICO, S/N 46800 TORRELLA;46800;TORRELLA;-0.57234;38.98873;La Costera
CONSULTORIO AUXILIAR DE LA TORRE DE LES MAÇANES / TORREMANZANAS;CASA DEL MEDICO, S/N 3108 TORREMANZANAS/TORRE DE LES MAÇANES (LA);3108;TORREMANZANAS/TORRE DE LES MAÇANES (LA);-0.404927417;38.604925;L'Alacantí
CENTRO SANITARIO INTEGRADO DE TORRENT;SANTS PATRONS, 35 46900 TORRENT;46900;TORRENT;-0.462130029;39.43481998;Horta Sud
CENTRO DE SALUD DE TORRENT;PINTOR RIBERA, 28 46900 TORRENT;46900;TORRENT;-0.474640019;39.43456002;Horta Sud
CENTRO DE SALUD DE TORRENT II;CHIRIVELLA (ESQ. C/ València), S/N 46900 TORRENT;46900;TORRENT;-0.46401074;39.43985921;Horta Sud
CONSULTORIO AUXILIAR DE TORRENT MONTE-VEDAT;FONT DE SAN LUIS, 28 46901 TORRENT;46901;TORRENT;-0.489886366;39.41853553;Horta Sud
CONSULTORIO AUXILIAR DE TORRENT;SANTOS PATRONOS, 035 46900 TORRENT;46900;TORRENT;-0.462130029;39.43481998;Horta Sud
UNIDAD BÁSICA DE REHABILITACIÓN DEL C.S. DE TORRENT II;CHIRIVELLA ESQ. C/ València, S/N 46900 TORRENT;46900;TORRENT;-0.46401074;39.43985921;Horta Sud
CENTRO DE SALUD SEXUAL Y REPRODUCTIVA DE TORRENT;C/ PINTOR RIBERA, 28 46900 TORRENT;46900;TORRENT;-0.474640019;39.43456002;Horta Sud
CENTRO DE SALUD MENTAL DE TORRENT;PINTOR RIBERA, 28 46900 TORRENT;46900;TORRENT;-0.474640019;39.43456002;Horta Sud
CENTRO DE CONDUCTAS ADICTIVAS DE TORRENT;València, S/N 46900 TORRENT;46900;TORRENT;-0.462724935;39.44132503;Horta Sud
CENTRO DE PREVENCION DE CANCER DE MAMA DE TORRENT;RAMON Y CAJAL,, 20-B 46900 TORRENT;46900;TORRENT;-0.466990024;39.43740002;Horta Sud
CONSULTORIO AUXILIAR DE TORRES TORRES;LA VIRGEN, S/N 46148 TORRES TORRES;46148;TORRES TORRES;-0.357120203;39.74366455;Camp de Morvedre
HOSPITAL UNIVERSITARIO DE TORREVIEJA;CTRA CV95 TORREVIEJA-S MIGUEL DE SALINAS.LACEÑUELA, null 3186 TORREVIEJA;3186;TORREVIEJA;-0.733136557;37.96562223;Baix Segura
CENTRO SANITARIO INTEGRADO DE TORREVIEJA LA LOMA;VIRGEN DEL MAR, S/N 3180 TORREVIEJA;3180;TORREVIEJA;-0.673483574;37.98547984;Baix Segura
CENTRO SANITARIO INTEGRADO DE TORREVIEJA EL ACEQUION;C/URBANO ARREGUI, 6 3180 TORREVIEJA;3180;TORREVIEJA;-0.693640039;37.97685;Baix Segura
CENTRO DE SALUD DE TORREVIEJA SAN LUIS;PUJOL, URB. LA SIESTA, S/N 3184 TORREVIEJA;3184;TORREVIEJA;-0.685138644;38.0155649;Baix Segura
CENTRO DE SALUD DE TORREVIEJA PATRICIO PEREZ;PATRICIO PEREZ, 36 3180 TORREVIEJA;3180;TORREVIEJA;-0.684490018;37.97817002;Baix Segura
CENTRO DE SALUD DE TORREVIEJA LA MATA;AVENIDA HOLANDA, 51 3188 TORREVIEJA;3188;TORREVIEJA;-0.65851721;38.01829276;Baix Segura
UNIDAD DE ODONTOLOGIA LA LOMA;VIRGEN DEL MAR, S/N 3180 TORREVIEJA;3180;TORREVIEJA;-0.673483574;37.98547984;Baix Segura
UNIDAD DE ODONTOLOGIA DE TORREVIEJA;CARRETERA TORREVIEJA ¿ SAN M. SALINAS CV-95, S/N 3186 TORREVIEJA;3186;TORREVIEJA;-0.768428453;37.97263174;Baix Segura
CENTRO DE SALUD SEXUAL Y REPRODUCTIVA DE TORREVIEJA;URBANO ARREGUI, 6 3180 TORREVIEJA;3180;TORREVIEJA;-0.693640039;37.97685;Baix Segura
CENTRO DE SALUD MENTAL DE TORREVIEJA;URBANO ARREGUI, 6 3180 TORREVIEJA;3180;TORREVIEJA;-0.693640039;37.97685;Baix Segura
CENTRO DE CONDUCTAS ADICTIVAS DE TORREVIEJA;RAFAL, 23 3180 TORREVIEJA;3180;TORREVIEJA;-0.693720002;37.97571999;Baix Segura
CENTRO DE PREVENCION DE CANCER DE MAMA DE TORREVIEJA;CTRA. CV95 TORREVIEJA-S MIGUEL DE SALINA. LACEÑUEL, null 3186 TORREVIEJA;3186;TORREVIEJA;-0.733136557;37.96562223;Baix Segura
CONSULTORIO AUXILIAR DE TOUS;SANTA BÁRBARA, S/N 46269 TOUS;46269;TOUS;-0.585604939;39.13916163;Ribera Alta
CENTRO DE SALUD DE TRAIGUERA;PLAÇA CONSTITUCIO, 24 12330 TRAIGUERA;12330;TRAIGUERA;0.289879991;40.52255;Baix Maestrat
UNIDAD BASICA DE REHABILITACION DEL C.S. DE TRAIGUERA;PLAÇA CONSTITUCIO, 24 12330 TRAIGUERA;12330;TRAIGUERA;0.289879991;40.52255;Baix Maestrat
UNIDAD DE ODONTOLOGIA DE TRAIGUERA;PLAZA DE LA CONSTITUCION, 24 12330 TRAIGUERA;12330;TRAIGUERA;0.289879991;40.52255;Baix Maestrat
CENTRO DE SALUD MENTAL DE TRAIGUERA;PLAÇA CONSTITUCIO, 24 12330 TRAIGUERA;12330;TRAIGUERA;0.289879991;40.52255;Baix Maestrat
CONSULTORIO AUXILIAR DE TUEJAR;AVENIDA RAMON VILLANUEVA, 35 46177 TUEJAR;46177;TUEJAR;-1.041737413;39.76728498;Els serrans
CENTRO DE SALUD DE TURIS;MUSICO JOSE VICENTE HERRERA, S/N 46389 TURIS;46389;TURIS;-0.717780374;39.38853757;Ribera Alta
UNIDAD BÁSICA DE REHABILITACIÓN DEL C.S. DE TURIS;MUSICO JOSE VICENTE HERRERA, S/N 46389 TURIS;46389;TURIS;-0.717780374;39.38853757;Ribera Alta
CONSULTORIO AUXILIAR DE LES USERES / USERAS;PZA. AYUNTAMIENTO, S/N 12118 USERAS/USERES (LES);12118;USERAS/USERES (LES);-0.16267897;40.15733896;L'Alcalatén
CENTRO DE SALUD DE UTIEL;PLAZA ESCUELAS PIAS, 1 46300 UTIEL;46300;UTIEL;-1.208199962;39.56892;La Plana d'Utiel-Requena
CONSULTORIO AUXILIAR DE UTIEL LAS CUEVAS;NUESTRA SRA. DE LORETO, 1 46300 UTIEL;46300;UTIEL;-1.280469988;39.62068001;La Plana d'Utiel-Requena
CONSULTORIO AUXILIAR DE UTIEL LAS CASAS;C/ CUENCA, 20 46300 UTIEL;46300;UTIEL;-1.209309977;39.57008999;La Plana d'Utiel-Requena
CONSULTORIO AUXILIAR DE UTIEL LOS CORRALES;C/ SAN PEDRO APOSTOL, 4 46300 UTIEL;46300;UTIEL;-1.27022001;39.59596999;La Plana d'Utiel-Requena
CONSULTORIO AUXILIAR DE UTIEL LA TORRE;NOVELISTA BLASCO IBAÑEZ, S/N 46300 UTIEL;46300;UTIEL;-1.173237152;39.59555;La Plana d'Utiel-Requena
UNIDAD BASICA DE REHABILITACION DEL C.S. DE UTIEL;ESCUELAS PIAS, 1 null  UTIEL;null ;UTIEL;-1.208199962;39.56892;La Plana d'Utiel-Requena
UNIDAD DE ODONTOLOGIA DE UTIEL;PZA. ESCUELAS PIAS, 1 46300 UTIEL;46300;UTIEL;-1.208199962;39.56892;La Plana d'Utiel-Requena
HOSPITAL LA MALVA-ROSA;ISABEL DE VILLENA, 2 46011 València;46011;València;-0.32559;39.47525999;València
HOSPITAL CLINICO UNIVERSITARIO DE València;AV BLASCO IBAÑEZ, 17 46010 València;46010;València;-0.362540027;39.47878998;València
CENTRO CASA DEL MAR (ISM DE València);AVDA. DEL PUERTO,, 300-1 46024 València;46024;València;-0.336350016;39.46092999;València
CENTRO DE ESPECIALIDADES DE València EL GRAO;PARE PORTA, 10 46024 València;46024;València;-0.335620037;39.46007001;València
CENTRO DE SALUD DE València NAZARET;MCO. FERNANDO MORAIS DE LA HORRA, 2 46024 València;46024;València;-0.331019964;39.44984999;València
CENTRO DE SALUD DE València SERRERIA 1;C/ SERRERIA, 73 46022 València;46022;València;-0.335179987;39.46829001;València
CENTRO DE SALUD DE València MALVARROSA;C/ ISABEL DE VILLENA, 2 46011 València;46011;València;-0.32559;39.47525999;València
CENTRO DE SALUD DE València TRAFALGAR;TRAFALGAR, 32 46023 València;46023;València;-0.345020006;39.46153001;València
CENTRO DE SALUD DE València REPUBLICA ARGENTINA;REPUBLICA ARGENTINA, 8 46021 València;46021;València;-0.351900039;39.47169001;València
CENTRO DE SALUD DE València SERRERIA 2;C/ PEDRO DE València, 26 46022 València;46022;València;-0.335950032;39.46849998;València
CENTRO DE SALUD DE València SALVADOR PAU;SALVADOR PAU, 42 46021 València;46021;València;-0.351659982;39.47008999;València
CENTRO DE SALUD DE València-ALFAHUIR;ACTOR ISMAEL MERLO,1 ESQ. AV. ALFAHUIR, 4 46020 València;46020;València;-0.35991155;39.49275974;València
CENTRO DE SALUD DE València BENIMACLET;C/ GUARDIA CIVIL, 13 46020 València;46020;València;-0.358480001;39.48262998;València
CONSULTORIO AUXILIAR DE València LA PUNTA;JESUS MORANTE BORRAS, 176 46012 València;46012;València;-0.343990037;39.44292;València
CONSULTORIO AUXILIAR DE València VICENTE BRULL;VICENTE BRULL, 71 46011 València;46011;València;-0.33268;39.46550001;València
CONSULTORIO AUXILIAR DE València CHILE;CHILE, 22 46021 València;46021;València;-0.35480753;39.4711544;València
UNIDAD BASICA DE REHABILITACION DEL C.S. DE València-NAZARET;MCO. FERNANDO MORAIS DE LA HORRA, 2 46024 València;46024;València;-0.331019964;39.44984999;València
UNIDAD BASICA DE REHABILITACION DEL C.S. DE València SERRERIA 1;SERRERIA, 73 46022 València;46022;València;-0.335179987;39.46829001;València
UNIDAD BASICA DE REHABILITACION DEL C.S. DE València-MALVARROSA;ISABEL DE VILLENA, 2 46011 València;46011;València;-0.32559;39.47525999;València
UNIDAD BASICA DE REHABILITACION DEL C.S. DE València-TRAFALGAR;TRAFALGAR, 32 46023 València;46023;València;-0.345020006;39.46153001;València
UNIDAD BASICA DE REHABILITACION DEL C.S. DE València-SERRERIA 2;PEDRO DE València, 26 46022 València;46022;València;-0.335950032;39.46849998;València
UNIDAD BASICA DE REHABILITACION DEL C.S. DE València-SALVADOR PAU;SALVADOR PAU, 42 46021 València;46021;València;-0.351659982;39.47008999;València
UNIDAD BASICA DE REHABILITACION DEL C.S. DE València- ALFAHUIR;ACTOR ISMAEL MERLO, 1 ESQ. AV. ALFAHUIR, 4 46020 València;46020;València;-0.35991155;39.49275974;València
UNIDAD DE ODONTOLOGIA DE NAZARET;FONTILLES, S/N 46024 València;46024;València;-0.334084692;39.4496981;València
UNIDAD DE ODONTOLOGIA DE València LA MALVARROSA;ISABEL DE VILLENA, 2 46011 València;46011;València;-0.32559;39.47525999;València
CENTRO DE SALUD SEXUAL Y REPRODUCTIVA NAZARET;FONTILLES, S/N 46024 València;46024;València;-0.334084692;39.4496981;València
CENTRO DE SALUD SEXUAL Y REPRODUCTIVA DE València LA MALVARROSA;C/ ISABEL DE VILLENA, 2 46011 València;46011;València;-0.32559;39.47525999;València
CENTRO DE SALUD SEXUAL Y REPRODUCTIVA València-ALFAHUIR;ACTOR ISMAEL MERLO ESQ. ALFAHUIR, 1 46020 València;46020;València;-0.35991155;39.49275974;València
CENTRO DE SALUD MENTAL INFANTIL DE València - MALVARROSA;ISABEL DE VILLENA, 2 46011 València;46011;València;-0.32559;39.47525999;València
CENTRO DE SALUD MENTAL DE València MALVARROSA;AVDA. MALVA-ROSA, 10 46011 València;46011;València;-0.327580031;39.47576998;València
CENTRO DE CONDUCTAS ADICTIVAS DE València PADRE PORTA;PADRE PORTA, 10 46024 València;46024;València;-0.335620037;39.46007001;València
CENTRO DE PREVENCION DE CANCER DE MAMA DE València II;PADRE PORTA, 10 46024 València;46024;València;-0.335620037;39.46007001;València
CENTRO DE PREVENCION DE CANCER DE MAMA DE València SERRERIA;PEDRO DE València, 26-5º 46022 València;46022;València;-0.335950032;39.46849998;València
HOSPITAL ARNAU DE VILANOVA;SAN CLIMENT, 12 46015 València;46015;València;-0.403440027;39.49045001;València
CENTRO DE SALUD DE València BENIMAMET;C/ INGENIERO AUBAN, 20 46035 València;46035;València;-0.420743054;39.49984813;València
CONSULTORIO AUXILIAR DE València MASARROCHOS;RECTOR BAUS, 10 46112 València;46112;València;-0.383335;39.51912508;València
HOSPITAL UNIVERSITARI I POLITECNIC LA FE;AVENIDA FERNANDO ABRIL MARTORELL, 106 46026 València;46026;València;-0.382875415;39.44647807;València
CENTRO DE ESPECIALIDADES DE València C/ALBORAYA;ALBORAYA, 21 46010 València;46010;València;-0.370840039;39.48175998;València
CENTRO DE SALUD DE València JUAN XXIII;AV. JUAN XXIII, 39 46025 València;46025;València;-0.383650018;39.49360001;València
CENTRO DE SALUD DE València SALVADOR ALLENDE;CONDE LUMIARES, 3 46019 València;46019;València;-0.372614137;39.49465504;València
CENTRO DE SALUD DE València BENICALAP MIGUEL SERVET;AMICS DEL CORPUS, 15 46015 València;46015;València;-0.395968095;39.48808025;València
CENTRO DE SALUD DE València BENICALAP AZUCENA;AZUCENA, 9 46025 València;46025;València;-0.390419997;39.49350999;València
CENTRO DE SALUD DE València TRINITAT;FLORA, 7 46010 València;46010;València;-0.370429997;39.48037001;València
CENTRO DE SALUD DE València JUST RAMIREZ;JUST RAMIREZ (ARQUITECTE), 46 46009 València;46009;València;-0.375982664;39.49022998;València
CENTRO DE SALUD DE València CAMPANAR;VICENTE RIUS ENRIQUE, 1 46015 València;46015;València;-0.400320031;39.47761999;València
CONSULTORIO AUXILIAR DE València BORBOTO;MARQUES DE LACONI, 10 46016 València;46016;València;-0.39072996;39.51456998;València
CONSULTORIO AUXILIAR DE València POBLE NOU;CNO. DE MONCADA, 205 46025 València;46025;València;-0.383569971;39.50376001;València
CONSULTORIO AUXILIAR DE València CARPESA;APOSTOL SAN PEDRO, 21 46016 València;46016;València;-0.379569959;39.51738001;València
CONSULTORIO AUXILIAR DE València BENIFARAIG;FERRER Y BIGNE, 47 46016 València;46016;València;-0.385799976;39.52887998;València
CONSULTORIO AUXILIAR DE València ARQUITECTO TOLSA;SAN VICENTE DE PAUL, 35 46019 València;46019;València;-0.367849963;39.49311;València
CONSULTORIO AUXILIAR DE València BILBAO;BILBAO, 23 46009 València;46009;València;-0.372729991;39.48713999;València
CONSULTORIO AUXILIAR DE València TENDETES;RICARDO MICO, 3 46009 València;46009;València;-0.387390023;39.48114999;València
UNIDAD BÁSICA DE REHABILITACIÓN DEL C.S. DE València JUAN XXIII;AVDA. JUAN XXIII, 39 46025 València;46025;València;-0.383650018;39.49360001;València
UNIDAD BÁSICA DE REHABILITACIÓN DEL C.S. DE València SALVADOR ALLENDE;CONDE LUMIARES, 3 46019 València;46019;València;-0.372614137;39.49465504;València
UNIDAD BÁSICA DE REHABILITACIÓN DEL C.S. DE València BENICALAP MIGUEL SERVET;AMICS DEL CORPUS, 15 46015 València;46015;València;-0.395968095;39.48808025;València
UNIDAD BÁSICA DE REHABILITACIÓN DEL C.S. DE València TRINITAT;FLORA, 7 46010 València;46010;València;-0.370429997;39.48037001;València
UNIDAD BÁSICA DE REHABILITACIÓN DEL C.S. DE València CAMPANAR;VICENTE RIUS ENRIQUE, 1 46015 València;46015;València;-0.400320031;39.47761999;València
UNIDAD DE ODONTOLOGIA DE València JUAN XXIII;AVDA. JUAN XXIII, 39 46025 València;46025;València;-0.383650018;39.49360001;València
UNIDAD DE ODONTOLOGIA DE València SALVADOR ALLENDE;CONDE LUMIARES, 3 46019 València;46019;València;-0.372614137;39.49465504;València
CENTRO DE SALUD SEXUAL Y REPRODUCTIVA DE València TRINITAT;C/ FLORA, 7 ACC 46010 València;46010;València;-0.370429997;39.48037001;València
CENTRO DE SALUD MENTAL INFANTIL DE València BENICALAP;AMICS DEL CORPUS, S/N 46015 València;46015;València;-0.395453729;39.48838413;València
CENTRO DE DIA MUSEO;BLANQUERIAS, S/N 46003 València;46003;València;-0.377006431;39.47979346;València
CENTRO DE SALUD MENTAL DE València TRINITAT;FLORA, 7 46010 València;46010;València;-0.370429997;39.48037001;València
CENTRO DE ALCOHOLOGIA DE València TRINITAT;FLORA, 7 46010 València;46010;València;-0.370429997;39.48037001;València
CENTRO DE CONDUCTAS ADICTIVAS DE València CAMPANAR;VICENTE RIUS ENRIQUE, S/N 46015 València;46015;València;-0.401122698;39.47757003;València
CENTRO DE PREVENCION DE CANCER DE MAMA DE CAMPANAR València;AV. CAMPANAR, 21 46009 València;46009;València;-0.391319962;39.48439002;València
CONSORCIO HOSPITAL GENERAL UNIVERSITARIO DE València;AVDA TRES CRUCES, S/N 46014 València;46014;València;-0.406435632;39.46855107;València
CENTRO SANITARIO INTEGRADO DE JUAN LLORENS;JUAN LLORENS, 8 46008 València;46008;València;-0.391609976;39.47374001;València
CENTRO DE SALUD DE València SAN ISIDRO;JOSE ANDREU ALABARTA, ESQUINA C/CAMPOS CRESPO, S/N 46014 València;46014;València;-0.402849941;39.45103004;València
CENTRO DE SALUD DE València VIRGEN DE LA FUENSANTA;VIRGEN DE LA FUENSANTA, 18 46014 València;46014;València;-0.407759976;39.46618;València
CENTRO DE SALUD DE València NOU MOLES;VEINTICINCO DE ABRIL, S/N 46018 València;46018;València;-0.398309925;39.47051004;València
CENTRO DE SALUD DE València GIL Y MORTE;GIL Y MORTE, 33 46007 València;46007;València;-0.382010015;39.46197002;València
CENTRO DE SALUD DE València GUILLEM DE CASTRO;GUILLEM DE CASTRO, 149 46008 València;46008;València;-0.384149999;39.47663998;València
CENTRO DE SALUD DE València NAPOLES Y SICILIA;NAPOLES Y SICILIA, 4 46003 València;46003;València;-0.372999972;39.47563998;València
CONSULTORIO AUXILIAR DE València CONVENTO DE JERUSALEN;CONVENTO DE JERUSALEN, 29 46007 València;46007;València;-0.379610025;39.46604999;València
CONSULTORIO AUXILIAR DE València JUAN LLORENS;JUAN LLORENS, 8 46008 València;46008;València;-0.391609976;39.47374001;València
UNIDAD BÁSICA DE REHABILITACIÓN DEL C.S. DE València SAN ISIDRO;JOSE ANDREU ALABARTA, ESQ. C/CAMPOS CRESPO, S/N 46014 València;46014;València;-0.402849941;39.45103004;València
UNIDAD BÁSICA DE REHABILITACIÓN DEL C.S. DE València GUILLEM DE CASTRO;GUILLEM DE CASTRO, 149 46008 València;46008;València;-0.384149999;39.47663998;València
UNIDAD DE ODONTOLOGIA DE València SAN ISIDRO;CAMPOS CRESPO, S/N 46014 València;46014;València;-0.39724557;39.45549198;València
UNIDAD DE ODONTOLOGIA DE TORRENT;CHIRIVELLA (ESQ. C/València), S/N 46900 València;46900;València;-0.46336988;39.44119002;Horta Sud
UNIDAD DE SALUD SEXUAL Y REPRODUCTIVA València-PINTOR STOLZ;PINTOR STOLZ, 35 46008 València;46008;València;-0.400260017;39.46949998;València
CENTRO DE SALUD MENTAL DE València PERE BONFILL;C/ PERE BONFILL, 8 46008 València;46008;València;-0.384640005;39.47773998;València
CENTRO DE SALUD MENTAL INFANTIL DE València PINTOR STOLZ;PINTOR STOLZ, 37 46018 València;46018;València;-0.400450034;39.46952999;València
CENTRO DE CONDUCTAS ADICTIVAS DE València GUILLEM DE CASTRO;GUILLEM DE CASTRO, 149 46008 València;46008;València;-0.384149999;39.47663998;València
CENTRO DE CONDUCTAS ADICTIVAS DE València SAN ISIDRO;CAMPOS CRESPO, 96 46014 València;46014;València;-0.402699989;39.45119998;València
HOSPITAL UNIVERSITARIO DOCTOR PESET;AVDA GASPAR AGUILAR, 90 46017 València;46017;València;-0.39268001;39.45321998;València
CENTRO DE ESPECIALIDADES DE València MONTEOLIVETE;ESCULTOR JOSE CAPUZ, 13 46006 València;46006;València;-0.36229997;39.46142;València
CENTRO DE SALUD DE València CASTELLAR;C/ VICENTE PUCHOL, 11 46026 València;46026;València;-0.363709973;39.42867001;València
CENTRO DE SALUD DE València SAN MARCELINO;C/ SAN PIO X, 33 46017 València;46017;València;-0.389990006;39.44344999;València
CENTRO DE SALUD DE València FUENTE DE SAN LUIS;C/ ARABISTA AMBROSIO HUICI, 30 46013 València;46013;València;-0.360370036;39.45659001;València
CENTRO DE SALUD DE València ING.J.BENLLOCH;C/ INGENIERO JOAQUIN BENLLOCH, 27 46026 València;46026;València;-0.376660014;39.45387;València
CENTRO DE SALUD DE València PLAZA SEGOVIA;PZA SEGOVIA, S/N 46017 València;46017;València;-0.391271712;39.44859431;València
CENTRO DE SALUD DE València PADRE JOFRE;C/ BEATO NICOLAS FACTOR, 1 46007 València;46007;València;-0.389539981;39.45982002;València
CENTRO DE SALUD DE València LUIS OLIAG-MONTEOLIVETE;ESCULTOR JOSE CAPUZ, 13 46006 València;46006;València;-0.36229997;39.46142;València
CENTRO DE SALUD DE València RUZAFA;C/ SAN VALERO, 8 46004 València;46004;València;-0.372009985;39.46399999;València
CONSULTORIO AUXILIAR DE València EL PALMAR;C/ REDOLINS, 7 46012 València;46012;València;-0.317900023;39.30947001;València
CONSULTORIO AUXILIAR DE València EL SALER;AVDA PINARES, S/N 46012 València;46012;València;-0.328953046;39.36768259;València
CONSULTORIO AUXILIAR DE València PERELLONET;AVDA LES GAVINES, S/N 46012 València;46012;València;-0.298980242;39.30817674;València
CONSULTORIO AUXILIAR DE València HORNO DE ALCEDO;C/ ALABAU, 10 46012 València;46012;València;-0.375459977;39.43256001;València
CONSULTORIO AUXILIAR DE València PINEDO;C/ MARINO VILLAMIL, 14 46012 València;46012;València;-0.338349694;39.42230118;València
CONSULTORIO AUXILIAR DE València LA TORRE;BENIDOLEIG, 9 46017 València;46017;València;-0.393219972;39.43448001;València
CONSULTORIO AUXILIAR DE València CARRETERA DE ARTES;C/ CARRETERA ARTES, 6 46013 València;46013;València;-0.36743003;39.44262002;València
CONSULTORIO AUXILIAR DE València SAFRANAR;VIRGEN DE LA CABEZA, 31-33 46025 València;46025;València;-0.397129962;39.45997001;València
CONSULTORIO AUXILIAR DE València LUIS OLIAG;LUIS OLIAG, 62 46006 València;46006;València;-0.361420037;39.46133002;València
UNIDAD BASICA DE REHABILITACION DEL C.S. València FUENTE DE SAN LUIS;ARABISTA AMBROSIO HUICI, 30 46013 València;46013;València;-0.360370036;39.45659001;València
UNIDAD BASICA DE REHABILITACION DEL C.S. DE València-SAN MARCELINO;SAN PIO X, 33 46017 València;46017;València;-0.389990006;39.44344999;València
UNIDAD BASICA DE REHABILITACION DEL C.S. DE València-PLAZA SEGOVIA;PLAZA SEGOVIA, S/N 46017 València;46017;València;-0.391271712;39.44859431;València
UNIDAD BASICA DE REHABILITACION DEL C.S. DE València-PADRE JOFRE;BEATO NICOLAS FACTOR, 1 46007 València;46007;València;-0.389539981;39.45982002;València
UNIDAD BASICA DE REHABILITACION DEL C.S. DE València-RUZAFA;SAN VALERO, 8 46004 València;46004;València;-0.372009985;39.46399999;València
UNIDAD DE ODONTOLOGIA DE València SAN MARCELINO;SAN PIO X, 32 46017 València;46017;València;-0.390189998;39.44346001;València
UNIDAD DE ODONTOLOGIA DE València FUENTE DE SAN LUIS;C/ ARABISTA AMBROSIO HUICI, 30 46013 València;46013;València;-0.360370036;39.45659001;València
CENTRO DE SALUD SEXUAL Y REPRODUCTIVA DE València HOSPITAL DR. PESET;JUAN DE GARAY, 21 46017 València;46017;València;-0.394290006;39.45434001;València
CENTRO DE SALUD SEXUAL Y REPRODUCTIVA DE València FUENTE DE SAN LUIS;C/ ARABISTA AMBROSIO HUICI, 30 46013 València;46013;València;-0.360370036;39.45659001;València
CENTRO DE SALUD MENTAL INFANTIL JESUS/FTE.S.LUIS;ARABISTA AMBROSIO HUICI, 30 46013 València;46013;València;-0.360370036;39.45659001;València
CENTRO DE SALUD MENTAL DE València FUENTE DE SAN LUIS;ARABISTA AMBROSIO HUICI, 30 46013 València;46013;València;-0.360370036;39.45659001;València
CENTRO DE SALUD MENTAL DE València SAN MARCELINO;SAN PIO X, 32 46017 València;46017;València;-0.390189998;39.44346001;València
CENTRO DE CONDUCTAS ADICTIVAS DE València SAN MARCELINO;SAN PIO X, 32 46017 València;46017;València;-0.390189998;39.44346001;València
CENTRO DE PREVENCION DE CANCER DE MAMA DE València FUENTE SAN LUIS;ARABISTA AMBROSIO HUICI, 30 46013 València;46013;València;-0.360370036;39.45659001;València
CENTRO DE SALUD DE VALL D'ALBA;C/ SENIETA, S/N 12194 VALL D'ALBA;12194;VALL D'ALBA;-0.03376718;40.17391028;Plana Alta
UNIDAD BASICA DE REHABILITACION DEL C.S. DE VALL D'ALBA;SEINETA, S/N 12194 VALL D'ALBA;12194;VALL D'ALBA;-0.03376718;40.17391028;Plana Alta
UNIDAD DE ODONTOLOGÍA DE VALL D'ALBA;SENIETA, null 12194 VALL D'ALBA;12194;VALL D'ALBA;-0.03376718;40.17391028;Plana Alta
CONSULTORIO AUXILIAR DE LA VALL D'ALCALA BENIAYA;LA FONT, 3 3786 VALL D'ALCALA (LA);3786;VALL D'ALCALA (LA);-0.269360002;38.77649999;Marina Alta
CONSULTORIO AUXILIAR DE LA VALL D'ALCALA;HOGAR DEL PENSIONISTA, null 3786 VALL D'ALCALA (LA);3786;VALL D'ALCALA (LA);-0.251;38.79627;Marina Alta
CONSULTORIO AUXILIAR DE VALL DE ALMONACID;AURELIANO GARCIA, 1 12414 VALL DE ALMONACID;12414;VALL DE ALMONACID;-0.45603999;39.9037;Alt Palància
CONSULTORIO AUXILIAR DE VALL DE GALLINERA ALPATRO;C/ PURISSIMA, 30 3786 VALL DE GALLINERA;3786;VALL DE GALLINERA;-0.261370037;38.82059001;Marina Alta
CONSULTORIO AUXILIAR DE VALL DE GALLINERA BENISSILI;IGLESIA, 28B 3788 VALL DE GALLINERA;3788;VALL DE GALLINERA;-0.243089705;38.8218903;Marina Alta
CONSULTORIO AUXILIAR DE VALL DE GALLINERA BENIRRAMA;MAJOR, 54 3787 VALL DE GALLINERA;3787;VALL DE GALLINERA;-0.2417;38.82313;Marina Alta
CONSULTORIO AUXILIAR DE VALL DE GALLINERA BENIALI;CARRETERA, 35 3787 VALL DE GALLINERA;3787;VALL DE GALLINERA;-0.221290039;38.82126002;Marina Alta
CONSULTORIO AUXILIAR DE VALL DE GALLINERA BENISSIVA;C/ OLMOS CANALDA, S/N, 2A 3787 VALL DE GALLINERA;3787;VALL DE GALLINERA;-0.225570006;38.81903999;Marina Alta
CONSULTORIO AUXILIAR DE LA VALL DE LAGUAR BENIMAURELL;C/ LLOP, 26 3791 VALL DE LAGUAR (LA);3791;VALL DE LAGUAR (LA);-0.127199991;38.77350002;Marina Alta
CONSULTORIO AUXILIAR DE LA VALL DE LAGUAR CAMPELL;C/ REI JAUME I, 24 3791 VALL DE LAGUAR (LA);3791;VALL DE LAGUAR (LA);-0.101309968;38.78051999;Marina Alta
CONSULTORIO AUXILIAR DE LA VALL DE LAGUAR FLEIX;C/ CARRETERA, S/N 3791 VALL DE LAGUAR (LA);3791;VALL DE LAGUAR (LA);-0.10902;38.77826;Marina Alta
CONSULTORIO AUXILIAR DE LA VALL D'EBO;AV. MARINA ALTA, 15 3789 VALL D'EBO (LA);3789;VALL D'EBO (LA);-0.158849973;38.80605998;Marina Alta
CENTRO SANITARIO INTEGRADO DE LA VALL D'UIXO;C/ OCTAVI TEN, S/N 12600 VALL D'UIXO (LA);12600;VALL D'UIXO (LA);-0.22461032;39.82223938;Plana Baixa
CENTRO DE SALUD DE LA VALL D'UIXO 2;CARRETERA ALFONDEGUILLA, S/N 12600 VALL D'UIXO (LA);12600;VALL D'UIXO (LA);-0.240633538;39.82569671;Plana Baixa
UNIDAD BÁSICA DE REHABILITACIÓN DEL C.S.I. DE VALL D'UIXÓ;OCTAVI TEN, S/N 12600 VALL D'UIXO (LA);12600;VALL D'UIXO (LA);-0.22461032;39.82223938;Plana Baixa
UNIDAD DE ODONTOLOGIA DE LA VALL D'UIXO;ALFONDEGUILLA, S/N 12600 VALL D'UIXO (LA);12600;VALL D'UIXO (LA);-0.240633538;39.82569671;Plana Baixa
CENTRO DE SALUD SEXUAL Y REPRODUCTIVA DE LA VALL D'UIXO;ALFONDEGUILLA, S/N 12600 VALL D'UIXO (LA);12600;VALL D'UIXO (LA);-0.240633538;39.82569671;Plana Baixa
CENTRO DE SALUD MENTAL DE LA VALL D'UIXO;AVDA JAIME I, 11 12600 VALL D'UIXO (LA);12600;VALL D'UIXO (LA);-0.24251465;39.81857096;Plana Baixa
CENTRO DE CONDUCTAS ADICTIVAS DE LA VALL D'UIXO;AVDA. JAIME I, 13 12600 VALL D'UIXO (LA);12600;VALL D'UIXO (LA);-0.24251465;39.81857096;Plana Baixa
CONSULTORIO AUXILIAR DE VALLADA;MAESTRE PERE LLUIS GALCERAN DE BORJA, 59 46691 VALLADA;46691;VALLADA;-0.693091022;38.89718081;La Costera
CONSULTORIO AUXILIAR DE VALLANCA;PZA. DE ESPAÑA, S/N 46145 VALLANCA;46145;VALLANCA;-1.339164361;40.06302782;Racó d'Ademús
CONSULTORIO AUXILIAR DE VALLAT;ERAS ALTAS, S/N 12230 VALLAT;12230;VALLAT;-0.336950052;40.03103995;Alt Millars
CONSULTORIO AUXILIAR DE VALLES;CONSULTORIO MEDICO, S/N 46800 VALLES;46800;VALLES;-0.556188516;38.98617654;La Costera
CONSULTORIO AUXILIAR DE VALLIBONA;PL. SANT ANTONIO, S/N 12315 VALLIBONA;12315;VALLIBONA;0.046184683;40.60344005;Els Ports
CONSULTORIO AUXILIAR DE VENTA DEL MORO / LOS MARCOS;NORTE, 10 46310 VENTA DEL MORO;46310;VENTA DEL MORO;-1.355939974;39.48513999;La Plana d'Utiel-Requena
CONSULTORIO AUXILIAR DE VENTA DEL MORO / LAS MONJAS;PLAZA ORENCIO PEREZ, 15 46310 VENTA DEL MORO;46310;VENTA DEL MORO;-1.301349979;39.46309998;La Plana d'Utiel-Requena
CONSULTORIO AUXILIAR DE VENTA DEL MORO / JARAGUAS;IGLESIA, 16 46311 VENTA DEL MORO;46311;VENTA DEL MORO;-1.363170036;39.52193;La Plana d'Utiel-Requena
CONSULTORIO AUXILIAR DE VENTA DEL MORO / CASAS DE PRADA;TEJAR, S/N 46310 VENTA DEL MORO;46310;VENTA DEL MORO;-1.398298583;39.443695;La Plana d'Utiel-Requena
CONSULTORIO AUXILIAR DE VENTA DEL MORO / CASAS DE MOYA;ESCUELAS, 25 46310 VENTA DEL MORO;46310;VENTA DEL MORO;-1.390690003;39.45935;La Plana d'Utiel-Requena
CONSULTORIO AUXILIAR DE VENTA DEL MORO / CASAS DEL REY;GERVASIO HAYA, S/N 46310 VENTA DEL MORO;46310;VENTA DEL MORO;-1.398298583;39.443695;La Plana d'Utiel-Requena
CONSULTORIO AUXILIAR DE VENTA DEL MORO;SAN ISIDRO, 5 46310 VENTA DEL MORO;46310;VENTA DEL MORO;-1.358550015;39.48459001;La Plana d'Utiel-Requena
CENTRO DE SALUD DE EL VERGER;C/ ESTACIÓ, 3 3770 VERGER (EL);3770;VERGER (EL);0.000205;38.85078844;Marina Alta
CONSULTORIO AUXILIAR DE VILAFAMES;HERMANOS MAS IRANZO, S/N 12192 VILAFAMES;12192;VILAFAMES;-0.052919081;40.11320239;Plana Alta
CENTRO DE SALUD DE VILALLONGA/VILLALONGA;C/REPRIMALA, 1, 1 46720 VILALLONGA/VILLALONGA;46720;VILALLONGA/VILLALONGA;-0.210519964;38.88713;La Safor
CENTRO DE SALUD DE VILAMARXANT;C/ FONT NOVA, S/N 46191 VILAMARXANT;46191;VILAMARXANT;-0.623734617;39.56731839;Camp de Túria
CONSULTORIO AUXILIAR DE VILANOVA D'ALCOLEA;MAYOR, S/N 12183 VILANOVA D'ALCOLEA;12183;VILANOVA D'ALCOLEA;0.074511477;40.23188374;Plana Alta
CONSULTORIO AUXILIAR DE VILAR DE CANES;PZA. IGLESIA, 4 12162 VILAR DE CANES;12162;VILAR DE CANES;-0.065737816;40.35732802;Alt Maestrat
HOSPITAL UNIVERSITARIO DE LA PLANA;CTRA. VILA-REAL - BURRIANA KM 0.5, S/N 12540 VILA-REAL;12540;VILA-REAL;-0.094934902;39.92638003;Plana Baixa
CENTRO SANITARIO INTEGRADO DE VILA-REAL CARINYENA;ILLES COLUMBRETES, S/N 12540 VILA-REAL;12540;VILA-REAL;-0.10459059;39.92997579;Plana Baixa
CENTRO DE ESPECIALIDADES DE VILA-REAL;TORREHERMOSA, 19 12540 VILA-REAL;12540;VILA-REAL;-0.097069982;39.93818001;Plana Baixa
CENTRO DE SALUD DE VILA-REAL EL PILAR;MARTIN L'HUMA, 13 12540 VILA-REAL;12540;VILA-REAL;-0.095011001;39.94444096;Plana Baixa
CENTRO DE SALUD DE VILA-REAL BOVILA;VILANOVA I LA GELTRU, S/N 12540 VILA-REAL;12540;VILA-REAL;-0.10650069;39.94328133;Plana Baixa
UNIDAD BÁSICA DE REHABILITACIÓN DEL C.S. DE VILA-REAL BOVILA;VILANOVA I LA GELTRU, S/N 12540 VILA-REAL;12540;VILA-REAL;-0.10650069;39.94328133;Plana Baixa
UNIDAD DE ODONTOLOGIA DE VILA-REAL;ILLES COLUMBRETES, S/N 12540 VILA-REAL;12540;VILA-REAL;-0.10459059;39.92997579;Plana Baixa
CENTRO DE SALUD MENTAL DE VILA-REAL 2;ILLES COLUMBRETES, S/N 12540 VILA-REAL;12540;VILA-REAL;-0.10459059;39.92997579;Plana Baixa
CONSULTORIO AUXILIAR DE LA VILAVELLA;CERVELLO, 10 12526 VILAVELLA (LA);12526;VILAVELLA (LA);-0.185009977;39.85636999;Plana Baixa
CENTRO DE SALUD DE VILAFRANCA DEL CID / VILLAFRANCA DEL CID;PORTELL, 1 12150 VILLAFRANCA DEL CID/VILAFRANCA;12150;VILLAFRANCA DEL CID/VILAFRANCA;-0.254766352;40.43218073;Alt Maestrat
UNIDAD DE ODONTOLOGIA DE VILLAFRANCA DEL CID;PORTELL, 1 12150 VILLAFRANCA DEL CID/VILAFRANCA;12150;VILLAFRANCA DEL CID/VILAFRANCA;-0.254766352;40.43218073;Alt Maestrat
CONSULTORIO AUXILIAR DE VILLAHERMOSA DEL RIO;PZA. IGLESIA, S/N 12124 VILLAHERMOSA DEL RIO;12124;VILLAHERMOSA DEL RIO;-0.417874584;40.20223054;Alt Millars
HOSPITAL DE LA MARINA BAIXA DE LA VILA JOIOSA;AV. ALCALDE EN JAUME BOTELLA MAJOR, 7 3570 VILLAJOYOSA/VILA JOIOSA (LA);3570;VILLAJOYOSA/VILA JOIOSA (LA);-0.232939962;38.50513;La Marina Baixa
CENTRO SANITARIO INTEGRADO DE VILA JOIOSA / VILLAJOYOSA ALMASSERA DE TONDA;AV. CARLES LLORCA I BAUS, S/N 3570 VILLAJOYOSA/VILA JOIOSA (LA);3570;VILLAJOYOSA/VILA JOIOSA (LA);-0.244176755;38.52249;La Marina Baixa
CONSULTORIO AUXILIAR CALA DE VILLAJOYOSA;AV. DEL MARINERS, S/N 3570 VILLAJOYOSA/VILA JOIOSA (LA);3570;VILLAJOYOSA/VILA JOIOSA (LA);-0.244176755;38.52249;La Marina Baixa
UNIDAD BASICA DE REHABILITACION DEL C.S.I. VILA JOIOSA / VILLAJOYOSA ALMASSERA DE TONDA;AVDA. CARLES LLORCA I BAUS, S/N 3570 VILLAJOYOSA/VILA JOIOSA (LA);3570;VILLAJOYOSA/VILA JOIOSA (LA);-0.232138778;38.50929213;La Marina Baixa
UNIDAD DE ODONTOLOGIA DE LA VILA JOIOSA / VILLAJOYOSA;AV. CARLES LLORCA I BAUS, S/N 3570 VILLAJOYOSA/VILA JOIOSA (LA);3570;VILLAJOYOSA/VILA JOIOSA (LA);-0.244176755;38.52249;La Marina Baixa
CENTRO DE SALUD SEXUAL Y REPRODUCTIVA DE LA VILA JOIOSA/ VILLAJOYOSA;C/ JUAN TONDA ARAGONES, S/N 3570 VILLAJOYOSA/VILA JOIOSA (LA);3570;VILLAJOYOSA/VILA JOIOSA (LA);-0.231074905;38.50690005;La Marina Baixa
CENTRO DE SALUD MENTAL DE LA VILA JOIOSA / VILLAJOYOSA;J. TONDA ARAGONES, S/N 3570 VILLAJOYOSA/VILA JOIOSA (LA);3570;VILLAJOYOSA/VILA JOIOSA (LA);-0.244176755;38.52249;La Marina Baixa
CENTRO DE CONDUCTAS ADICTIVAS DE LA VILA JOIOSA / VILLAJOYOSA;CONCEPCION ARAGONES, S/N 3570 VILLAJOYOSA/VILA JOIOSA (LA);3570;VILLAJOYOSA/VILA JOIOSA (LA);-0.231389939;38.51149503;La Marina Baixa
CONSULTORIO AUXILIAR DE VILLAMALUR;ENMEDIO, S/N 12224 VILLAMALUR;12224;VILLAMALUR;-0.395581194;39.96440003;Alt Millars
CENTRO DE SALUD DE VILLANUEVA DE CASTELLON;GASPAR VALENTI, S/N 46270 VILLANUEVA DE CASTELLON;46270;VILLANUEVA DE CASTELLON;-0.51287;39.08003;Ribera Alta
UNIDAD BÁSICA DE REHABILITACIÓN DEL C.S. DE VILLANUEVA DE CASTELLON;GASPAR VALENTI, null 46270 VILLANUEVA DE CASTELLON;46270;VILLANUEVA DE CASTELLON;-0.51287;39.08003;Ribera Alta
CONSULTORIO AUXILIAR DE VILLANUEVA DE VIVER;SAN ISIDRO LABRADOR, 15 12428 VILLANUEVA DE VIVER;12428;VILLANUEVA DE VIVER;-0.64823422;40.05881688;Alt Millars
CENTRO DE SALUD DE VILLAR DEL ARZOBISPO;PLZA. HUERTO DEL SEÑOR, S/N 46170 VILLAR DEL ARZOBISPO;46170;VILLAR DEL ARZOBISPO;-0.828338063;39.73341652;Els serrans
UNIDAD BASICA DE REHABILITACION DEL C.S. DE VILLAR DEL ARZOBISPO;PLAZA HUERTO DEL SEÑOR, S/N 46170 VILLAR DEL ARZOBISPO;46170;VILLAR DEL ARZOBISPO;-0.828338063;39.73341652;Els serrans
CONSULTORIO AUXILIAR DE VILLARGORDO DEL CABRIEL;CARRETERA, 60 46317 VILLARGORDO DEL CABRIEL;46317;VILLARGORDO DEL CABRIEL;-1.441539992;39.53547;La Plana d'Utiel-Requena
CENTRO SANITARIO INTEGRADO DE VILLENA;PRADO DE LA VILLA, 93 3400 VILLENA;3400;VILLENA;-0.877790032;38.64549;L'Alt Vinalopó
CENTRO DE SALUD DE VILLENA 1;C/ SAN FRANCISCO, 1 3400 VILLENA;3400;VILLENA;-0.865740041;38.63026;L'Alt Vinalopó
CENTRO DE SALUD DE VILLENA 2;AVDA. LOS TOREROS, S/N 3400 VILLENA;3400;VILLENA;-0.868709917;38.63923505;L'Alt Vinalopó
CONSULTORIO AUXILIAR DE VILLENA LA ENCINA;AV. DE LA CONSTITUCION, 80 3408 VILLENA;3408;VILLENA;-0.865639961;38.63574998;L'Alt Vinalopó
UNIDAD BÁSICA DE REHABILITACIÓN DEL C.S. DE VILLENA 1;SAN FRANCISCO, 1 3400 VILLENA;3400;VILLENA;-0.865740041;38.63026;L'Alt Vinalopó
UNIDAD DE ODONTOLOGIA DE VILLENA;SAN FRANCISCO, 1 3400 VILLENA;3400;VILLENA;-0.865740041;38.63026;L'Alt Vinalopó
CENTRO DE SALUD SEXUAL Y REPRODUCTIVA DE VILLENA;C/ SAN FRANCISCO, 1 3400 VILLENA;3400;VILLENA;-0.865740041;38.63026;L'Alt Vinalopó
CENTRO DE SALUD MENTAL DE VILLENA;SAN FRANCISCO, 1 3400 VILLENA;3400;VILLENA;-0.865740041;38.63026;L'Alt Vinalopó
CENTRO DE CONDUCTAS ADICTIVAS DE VILLENA;PICASO, S/N 3400 VILLENA;3400;VILLENA;-0.868814227;38.64022337;L'Alt Vinalopó
CONSULTORIO AUXILIAR DE VILLORES;CARRER DE DALT, S/N 12312 VILLORES;12312;VILLORES;-0.20058;40.67608;Els Ports
CONSULTORIO AUXILIAR DE VINALESA;LA YUTERA, S/N 46114 VINALESA;46114;VINALESA;-0.369525;39.53457665;Horta Nord
HOSPITAL COMARCAL DE VINAROS;AV. GIL DE ATROCILLO, S/N 12500 VINAROS;12500;VINAROS;0.454568829;40.46622436;Baix Maestrat
CENTRO DE SALUD DE VINAROS;C/ARCIPRESTE BONO, 22 12500 VINAROS;12500;VINAROS;0.47480003;40.46814;Baix Maestrat
UNIDAD DE ODONTOLOGIA DE VINAROS;ARCIPRESTE BONO, 22 12500 VINAROS;12500;VINAROS;0.47480003;40.46814;Baix Maestrat
CENTRO DE SALUD SEXUAL Y REPRODUCTIVA DE VINAROS;ARCIPRESTE BONO, 22 12500 VINAROS;12500;VINAROS;0.47480003;40.46814;Baix Maestrat
CENTRO DE SALUD MENTAL INFANTIL DE VINAROS;AV. GIL DE ATROCILLO, S/N 12500 VINAROS;12500;VINAROS;0.454568829;40.46622436;Baix Maestrat
CENTRO DE SALUD MENTAL DE VINAROS;AVDA. GIL DE ATROCILLO, S/N 12500 VINAROS;12500;VINAROS;0.454568829;40.46622436;Baix Maestrat
CENTRO DE CONDUCTAS ADICTIVAS DE VINAROS;PZA. SANT ANTONI, 19 12500 VINAROS;12500;VINAROS;0.476840018;40.46897999;Baix Maestrat
CENTRO DE PREVENCION DE CANCER DE MAMA DE VINAROS;AVDA. GIL DE ATROCILLO, S/N 12500 VINAROS;12500;VINAROS;0.454568829;40.46622436;Baix Maestrat
CONSULTORIO AUXILIAR DE VISTABELLA DEL MAESTRAT;RAMON SALVADOR, 32 12135 VISTABELLA DEL MAESTRAT;12135;VISTABELLA DEL MAESTRAT;-0.290669985;40.29323001;L'Alcalatén
CENTRO DE SALUD DE VIVER;AVDA.MARIANNE, S/N 12460 VIVER;12460;VIVER;-0.600099918;39.92162009;Alt Palància
CONSULTORIO AUXILIAR DE XALO;AVDA SANTO DOMINGO, S/N 3727 XALO;3727;XALO;-0.013448202;38.74078383;Marina Alta
HOSPITAL LLUIS ALCANYIS DE XATIVA;CRA. XATIVA-SILLA, KM 2 46800 XATIVA;46800;XATIVA;-0.52176;38.9821255;La Costera
CENTRO DE ESPECIALIDADES DE XATIVA;PL. ESPAÑOLETO, 13 46800 XATIVA;46800;XATIVA;-0.524349986;38.98770999;La Costera
CENTRO DE SALUD DE XATIVA;AUSIAS MARCH, S/N 46800 XATIVA;46800;XATIVA;-0.52632424;38.99095079;La Costera
CONSULTORIO AUXILIAR DE XATIVA ANAHUIR;SOL, 1 46800 XATIVA;46800;XATIVA;-0.52176;38.9821255;La Costera
CONSULTORIO AUXILIAR DE XATIVA TORRE LLORIS;AVENIDA DE XATIVA, S/N 46668 XATIVA;46668;XATIVA;-0.489768472;39.02923614;La Costera
CONSULTORIO AUXILIAR DE XATIVA;PLAZA DE LA SEU, 2 46800 XATIVA;46800;XATIVA;-0.52176;38.9821255;La Costera
UNIDAD DE ODONTOLOGIA DE XATIVA;AUSIAS MARCH, S/N 46800 XATIVA;46800;XATIVA;-0.52632424;38.99095079;La Costera
CENTRO DE SALUD SEXUAL Y REPRODUCTIVA DE XATIVA;AUSIAS MARCH, S/N 46800 XATIVA;46800;XATIVA;-0.52632424;38.99095079;La Costera
CENTRO DE SALUD MENTAL INFANTIL XATIVA;AVDA. AUSIAS MARCH, S/N 46800 XATIVA;46800;XATIVA;-0.52632424;38.99095079;La Costera
CENTRO DE SALUD MENTAL XATIVA;AUSIAS MARCH, S/N 46800 XATIVA;46800;XATIVA;-0.52632424;38.99095079;La Costera
CENTRO DE CONDUCTAS ADICTIVAS DE XATIVA;PLAZA CALIXTO III, S/N 46800 XATIVA;46800;XATIVA;-0.518829917;38.98768003;La Costera
CENTRO DE PREVENCION DE CANCER DE MAMA DE XATIVA;PLAZA ESPAÑOLETO, 14 46800 XATIVA;46800;XATIVA;-0.52424999;38.98767001;La Costera
CONSULTORIO AUXILIAR DE XERACO;CONSELL, 13 46770 XERACO;46770;XERACO;-0.217139991;39.03098999;La Safor
CONSULTORIO DE VERANO DE XERACO;BORRONS, S/N 46770 XERACO;46770;XERACO;-0.2290524;39.036245;La Safor
CONSULTORIO AUXILIAR DE XERESA;BARCELLA, S/N 46790 XERESA;46790;XERESA;-0.215493957;39.01208491;La Safor
CONSULTORIO AUXILIAR DE XERT;CAMÍ NOU, S/N 12360 XERT;12360;XERT;0.15786378;40.51897004;Baix Maestrat
CENTRO SANITARIO INTEGRADO DE XIRIVELLA;VIRGEN DE LOS DESAMPARADOS, 18 46950 XIRIVELLA;46950;XIRIVELLA;-0.430550035;39.46547998;Horta Sud
CONSULTORIO AUXILIAR DE XIRIVELLA BARRIO DE LA LUZ;CONSTANTI LLOMBART, 1 46014 XIRIVELLA;46014;XIRIVELLA;-0.416770019;39.46573001;Horta Sud
UNIDAD BÁSICA DE REHABILITACIÓN DEL C.S.I. DE XIRIVELLA;AVDA. VIRGEN DE LOS DESAMPARADOS, 18 46950 XIRIVELLA;46950;XIRIVELLA;-0.430550035;39.46547998;Horta Sud
UNIDAD DE ODONTOLOGIA DE XIRIVELLA;VIRGEN DE LOS DESAMPARADOS, S/N 46950 XIRIVELLA;46950;XIRIVELLA;-0.430496858;39.46512357;Horta Sud
CENTRO DE SALUD SEXUAL Y REPRODUCTIVA DE XIRIVELLA;C/ VIRGEN DE LOS DESAMPARADOS, S/N 46950 XIRIVELLA;46950;XIRIVELLA;-0.430496858;39.46512357;Horta Sud
CONSULTORIO AUXILIAR DE YATOVA;MAESTRO ROMERO, 7 46367 YATOVA;46367;YATOVA;-0.808149996;39.38500998;La Foia de Bunyol
CONSULTORIO AUXILIAR DE LA YESA;JOSE ANTONIO, 5 46178 YESA (LA);46178;YESA (LA);-0.961049991;39.89091999;Els serrans
CONSULTORIO AUXILIAR DE ZARRA;CTRA. AYORA, S/N 46621 ZARRA;46621;ZARRA;-1.073006987;39.09082267;La Vall d'Aiora
CONSULTORIO AUXILIAR DE ZORITA DEL MAESTRAZGO;BAJA, 16 12311 ZORITA DEL MAESTRAZGO;12311;ZORITA DEL MAESTRAZGO;-0.166619998;40.72832002;Els Ports
CONSULTORIO AUXILIAR DE ZUCAINA;PZA. IGLESIA, 1 12125 ZUCAINA;12125;ZUCAINA;-0.418250011;40.13183001;Alt Millars